{
   "type": "FeatureCollection",
   "features": [
  {
    "type": "Feature",
    "geometry": {
       "type": "Point",
       "coordinates":  [ 121.56881,25.05463701 ]
    },
    "properties": {
    "場地名稱":"鵬程超市",
    "行政區":"松山區",
    "地址":"臺北市松山區健康路399號",
    "內容":"無障礙坡道x1、無障礙廁所x1",
    "場所":"觀光購物場所"
    }
  },
  {
    "type": "Feature",
    "geometry": {
       "type": "Point",
       "coordinates":  [ 121.5515302,25.05699312 ]
    },
    "properties": {
    "場地名稱":"民生超市",
    "行政區":"松山區",
    "地址":"臺北市松山區敦化北路199巷5號",
    "內容":"無障礙坡道x1、無障礙廁所x1",
    "場所":"觀光購物場所"
    }
  },
  {
    "type": "Feature",
    "geometry": {
       "type": "Point",
       "coordinates":  [ 121.546723,25.06048099 ]
    },
    "properties": {
    "場地名稱":"民有超市",
    "行政區":"松山區",
    "地址":"臺北市松山區民權東路3段140巷15號",
    "內容":"無障礙廁所x1、無障礙電梯x2",
    "場所":"觀光購物場所"
    }
  },
  {
    "type": "Feature",
    "geometry": {
       "type": "Point",
       "coordinates":  [ 121.567581,25.043462 ]
    },
    "properties": {
    "場地名稱":"松興超市",
    "行政區":"信義區",
    "地址":"臺北市信義區松隆路36號",
    "內容":"無障礙坡道x1",
    "場所":"觀光購物場所"
    }
  },
  {
    "type": "Feature",
    "geometry": {
       "type": "Point",
       "coordinates":  [ 121.558085,25.020273 ]
    },
    "properties": {
    "場地名稱":"黎忠超市",
    "行政區":"信義區",
    "地址":"臺北市信義區和平東路3段391巷16號",
    "內容":"無障礙坡道x1",
    "場所":"觀光購物場所"
    }
  },
  {
    "type": "Feature",
    "geometry": {
       "type": "Point",
       "coordinates":  [ 121.5611763,25.02901349 ]
    },
    "properties": {
    "場地名稱":"三興超市",
    "行政區":"信義區",
    "地址":"臺北市信義區吳興街156巷6號",
    "內容":"無障礙坡道x1、無障礙廁所x1、無障礙電梯x1",
    "場所":"觀光購物場所"
    }
  },
  {
    "type": "Feature",
    "geometry": {
       "type": "Point",
       "coordinates":  [ 121.5687903,25.02444799 ]
    },
    "properties": {
    "場地名稱":"六合超市",
    "行政區":"信義區",
    "地址":"臺北市信義區松仁路240巷19號",
    "內容":"無障礙坡道x1、無障礙廁所x1",
    "場所":"觀光購物場所"
    }
  },
  {
    "type": "Feature",
    "geometry": {
       "type": "Point",
       "coordinates":  [ 121.554273,25.04421218 ]
    },
    "properties": {
    "場地名稱":"延吉超市",
    "行政區":"大安區",
    "地址":"臺北市大安區市民大道4段190號",
    "內容":"無障礙坡道x1、無障礙廁所x1、\n無障礙電梯x1",
    "場所":"觀光購物場所"
    }
  },
  {
    "type": "Feature",
    "geometry": {
       "type": "Point",
       "coordinates":  [ 121.551301,25.02166302 ]
    },
    "properties": {
    "場地名稱":"芳和超市",
    "行政區":"大安區",
    "地址":"臺北市大安區樂業街87號",
    "內容":"無障礙坡道x1、無障礙廁所x1",
    "場所":"觀光購物場所"
    }
  },
  {
    "type": "Feature",
    "geometry": {
       "type": "Point",
       "coordinates":  [ 121.535815,25.03513001 ]
    },
    "properties": {
    "場地名稱":"民榮超市",
    "行政區":"大安區",
    "地址":"臺北市大安區仁愛路3段24巷12號",
    "內容":"無障礙坡道x1",
    "場所":"觀光購物場所"
    }
  },
  {
    "type": "Feature",
    "geometry": {
       "type": "Point",
       "coordinates":  [ 121.545305,25.02545 ]
    },
    "properties": {
    "場地名稱":"成功超市",
    "行政區":"大安區",
    "地址":"臺北市大安區和平東路2段311巷29號",
    "內容":"無障礙坡道x1",
    "場所":"觀光購物場所"
    }
  },
  {
    "type": "Feature",
    "geometry": {
       "type": "Point",
       "coordinates":  [ 121.539364,25.06164398 ]
    },
    "properties": {
    "場地名稱":"江寧超市",
    "行政區":"中山區",
    "地址":"臺北市中山區合江街137號",
    "內容":"無障礙坡道x1",
    "場所":"觀光購物場所"
    }
  },
  {
    "type": "Feature",
    "geometry": {
       "type": "Point",
       "coordinates":  [ 121.5405495,25.04741721 ]
    },
    "properties": {
    "場地名稱":"朱崙超市",
    "行政區":"中山區",
    "地址":"臺北市中山區龍江路15號",
    "內容":"無障礙坡道x1、無障礙電梯x2",
    "場所":"觀光購物場所"
    }
  },
  {
    "type": "Feature",
    "geometry": {
       "type": "Point",
       "coordinates":  [ 121.5202219,25.03268271 ]
    },
    "properties": {
    "場地名稱":"欣榮超市",
    "行政區":"中正區",
    "地址":"臺北市中正區寧波東街20號地下室",
    "內容":"無障礙坡道x1、無障礙電梯x1",
    "場所":"觀光購物場所"
    }
  },
  {
    "type": "Feature",
    "geometry": {
       "type": "Point",
       "coordinates":  [ 121.521381,25.02333001 ]
    },
    "properties": {
    "場地名稱":"同安超市",
    "行政區":"中正區",
    "地址":"臺北市中正區同安街71號",
    "內容":"無障礙坡道x1",
    "場所":"觀光購物場所"
    }
  },
  {
    "type": "Feature",
    "geometry": {
       "type": "Point",
       "coordinates":  [ 121.524396,25.04429298 ]
    },
    "properties": {
    "場地名稱":"華山超市",
    "行政區":"中正區",
    "地址":"臺北市中正區忠孝東路1段86號",
    "內容":"無障礙坡道x1、無障礙廁所x1、無障礙電梯x1",
    "場所":"觀光購物場所"
    }
  },
  {
    "type": "Feature",
    "geometry": {
       "type": "Point",
       "coordinates":  [ 121.502025,25.03225502 ]
    },
    "properties": {
    "場地名稱":"雙園超市",
    "行政區":"萬華區",
    "地址":"臺北市萬華區興寧街2號",
    "內容":"無障礙坡道x1、無障礙廁所x1",
    "場所":"觀光購物場所"
    }
  },
  {
    "type": "Feature",
    "geometry": {
       "type": "Point",
       "coordinates":  [ 121.576503,24.988684 ]
    },
    "properties": {
    "場地名稱":"萬興超市",
    "行政區":"文山區",
    "地址":"臺北市文山區萬壽路27號",
    "內容":"無障礙坡道x1、無障礙廁所x1",
    "場所":"觀光購物場所"
    }
  },
  {
    "type": "Feature",
    "geometry": {
       "type": "Point",
       "coordinates":  [ 121.568842,24.98417399 ]
    },
    "properties": {
    "場地名稱":"永安超市",
    "行政區":"文山區",
    "地址":"臺北市文山區木新路2段156號",
    "內容":"無障礙坡道x1",
    "場所":"觀光購物場所"
    }
  },
  {
    "type": "Feature",
    "geometry": {
       "type": "Point",
       "coordinates":  [ 121.5631641,24.98466898 ]
    },
    "properties": {
    "場地名稱":"忠順超市",
    "行政區":"文山區",
    "地址":"臺北市文山區忠順街2段22號",
    "內容":"無障礙坡道x1",
    "場所":"觀光購物場所"
    }
  },
  {
    "type": "Feature",
    "geometry": {
       "type": "Point",
       "coordinates":  [ 121.537019,25.00063898 ]
    },
    "properties": {
    "場地名稱":"萬和超市",
    "行政區":"文山區",
    "地址":"臺北市文山區萬隆街47之12號",
    "內容":"無障礙坡道x1、無障礙廁所x1",
    "場所":"觀光購物場所"
    }
  },
  {
    "type": "Feature",
    "geometry": {
       "type": "Point",
       "coordinates":  [ 121.600893,25.05463701 ]
    },
    "properties": {
    "場地名稱":"東新超市",
    "行政區":"內湖區",
    "地址":"臺北市內湖區東明街99號",
    "內容":"無障礙坡道x1",
    "場所":"觀光購物場所"
    }
  },
  {
    "type": "Feature",
    "geometry": {
       "type": "Point",
       "coordinates":  [ 121.6143108,25.03527309 ]
    },
    "properties": {
    "場地名稱":"凌雲超市",
    "行政區":"南港區",
    "地址":"臺北市南港區研究院路3段68巷9號",
    "內容":"無障礙坡道x1、無障礙廁所x1",
    "場所":"觀光購物場所"
    }
  },
  {
    "type": "Feature",
    "geometry": {
       "type": "Point",
       "coordinates":  [ 121.589958,25.06769002 ]
    },
    "properties": {
    "場地名稱":"湖興超市",
    "行政區":"內湖區",
    "地址":"臺北市內湖區成功路2段320巷19號",
    "內容":"無障礙坡道x1",
    "場所":"觀光購物場所"
    }
  },
  {
    "type": "Feature",
    "geometry": {
       "type": "Point",
       "coordinates":  [ 121.6192412,25.07262742 ]
    },
    "properties": {
    "場地名稱":"康樂超市",
    "行政區":"內湖區",
    "地址":"臺北市內湖區康樂街150號",
    "內容":"無障礙坡道x1",
    "場所":"觀光購物場所"
    }
  },
  {
    "type": "Feature",
    "geometry": {
       "type": "Point",
       "coordinates":  [ 121.548683,25.14631298 ]
    },
    "properties": {
    "場地名稱":"文化超市",
    "行政區":"士林區",
    "地址":"臺北市士林區格致路7號",
    "內容":"無障礙坡道x1",
    "場所":"觀光購物場所"
    }
  },
  {
    "type": "Feature",
    "geometry": {
       "type": "Point",
       "coordinates":  [ 121.51946,25.08704899 ]
    },
    "properties": {
    "場地名稱":"後港超市",
    "行政區":"士林區",
    "地址":"臺北市士林區華齡街175號",
    "內容":"無障礙坡道x1、無障礙廁所x1",
    "場所":"觀光購物場所"
    }
  },
  {
    "type": "Feature",
    "geometry": {
       "type": "Point",
       "coordinates":  [ 121.533038,25.12395601 ]
    },
    "properties": {
    "場地名稱":"天母超市",
    "行政區":"士林區",
    "地址":"臺北市士林區中山北路7段154巷6號",
    "內容":"無障礙坡道x1、無障礙廁所x1",
    "場所":"觀光購物場所"
    }
  },
  {
    "type": "Feature",
    "geometry": {
       "type": "Point",
       "coordinates":  [ 121.506713,25.118668 ]
    },
    "properties": {
    "場地名稱":"吉利超市",
    "行政區":"北投區",
    "地址":"臺北市北投區吉利街125號",
    "內容":"無障礙坡道x1、無障礙廁所x1",
    "場所":"觀光購物場所"
    }
  },
  {
    "type": "Feature",
    "geometry": {
       "type": "Point",
       "coordinates":  [ 121.507201,25.12799601 ]
    },
    "properties": {
    "場地名稱":"清江超市",
    "行政區":"北投區",
    "地址":"臺北市北投區公館路198號",
    "內容":"無障礙坡道x1",
    "場所":"觀光購物場所"
    }
  },
  {
    "type": "Feature",
    "geometry": {
       "type": "Point",
       "coordinates":  [ 121.57898,25.07352998 ]
    },
    "properties": {
    "場地名稱":"瑞光超市",
    "行政區":"內湖區",
    "地址":"臺北市內湖區陽光街319號",
    "內容":"無障礙電梯X2",
    "場所":"觀光購物場所"
    }
  },
  {
    "type": "Feature",
    "geometry": {
       "type": "Point",
       "coordinates":  [ 121.489325,25.14093498 ]
    },
    "properties": {
    "場地名稱":"稻香超市",
    "行政區":"北投區",
    "地址":"臺北市北投區稻香路81號1樓",
    "內容":"無障礙親子廁所x1、無障礙電梯x4",
    "場所":"觀光購物場所"
    }
  },
  {
    "type": "Feature",
    "geometry": {
       "type": "Point",
       "coordinates":  [ 121.5168671,25.04851828 ]
    },
    "properties": {
    "場地名稱":"台北地下街",
    "行政區":"中正區",
    "地址":"臺北市中正區市民大道1段100號B1",
    "內容":"無障礙坡道x3、無障礙廁所x18、\n無障礙電梯x3、無障礙停車位x9",
    "場所":"觀光購物場所"
    }
  },
  {
    "type": "Feature",
    "geometry": {
       "type": "Point",
       "coordinates":  [ 121.515827,25.046259 ]
    },
    "properties": {
    "場地名稱":"站前地下街",
    "行政區":"中正區",
    "地址":"臺北市中正區忠孝西路1段50-1號B1",
    "內容":"無障礙坡道x1、無障礙廁所x4、\n無障礙電梯x3",
    "場所":"觀光購物場所"
    }
  },
  {
    "type": "Feature",
    "geometry": {
       "type": "Point",
       "coordinates":  [ 121.499542,25.03710927 ]
    },
    "properties": {
    "場地名稱":"龍山寺地下街",
    "行政區":"萬華區",
    "地址":"臺北市萬華區西園路1段145號B1",
    "內容":"無障礙廁所x2、無障礙電梯x4",
    "場所":"觀光購物場所"
    }
  },
  {
    "type": "Feature",
    "geometry": {
       "type": "Point",
       "coordinates":  [ 121.5167615,25.04688001 ]
    },
    "properties": {
    "場地名稱":"K區地下街",
    "行政區":"中正區",
    "地址":"臺北市中正區忠孝西路一段47號",
    "內容":"無障礙坡道x2、無障礙廁所x7、無障礙電梯x2",
    "場所":"觀光購物場所"
    }
  },
  {
    "type": "Feature",
    "geometry": {
       "type": "Point",
       "coordinates":  [ 121.497132,25.01849981 ]
    },
    "properties": {
    "場地名稱":"第一果菜批發市場",
    "行政區":"萬華區",
    "地址":"臺北市萬華區興德里萬大路533號",
    "內容":"無障礙廁所X6、無障礙坡道X2、 \n無障礙停車位X57、無障礙機車位X7",
    "場所":"觀光購物場所"
    }
  },
  {
    "type": "Feature",
    "geometry": {
       "type": "Point",
       "coordinates":  [ 121.5373413,25.06792329 ]
    },
    "properties": {
    "場地名稱":"第二果菜批發市場",
    "行政區":"中山區",
    "地址":"臺北市中山區行孝里民族東路336號",
    "內容":"無障礙廁所X11、無障礙電梯X4、\n無障礙坡道X7、無障礙停車位X24",
    "場所":"觀光購物場所"
    }
  },
  {
    "type": "Feature",
    "geometry": {
       "type": "Point",
       "coordinates":  [ 121.497241,25.0186918 ]
    },
    "properties": {
    "場地名稱":"臺北魚市場",
    "行政區":"萬華區",
    "地址":"臺北市萬華區興德里萬大路529、531號",
    "內容":"無障礙廁所X1 ",
    "場所":"觀光購物場所"
    }
  },
  {
    "type": "Feature",
    "geometry": {
       "type": "Point",
       "coordinates":  [ 121.536893,25.06672601 ]
    },
    "properties": {
    "場地名稱":"民族魚市場",
    "行政區":"中山區",
    "地址":"臺北市中山區行孝里民族東路410巷2弄18-20號",
    "內容":"無障礙廁所X2、無障礙電梯X3、\n無障礙坡道X1、無障礙停車位X3",
    "場所":"觀光購物場所"
    }
  },
  {
    "type": "Feature",
    "geometry": {
       "type": "Point",
       "coordinates":  [ 121.4898971,25.03057619 ]
    },
    "properties": {
    "場地名稱":"臺北市家禽批發市場",
    "行政區":"萬華區",
    "地址":"臺北市萬華區華江里環河南路2段338號",
    "內容":"無障礙廁所X2、無障礙電梯X2、\n無障礙停車位X4",
    "場所":"觀光購物場所"
    }
  },
  {
    "type": "Feature",
    "geometry": {
       "type": "Point",
       "coordinates":  [ 121.5744846,25.06268762 ]
    },
    "properties": {
    "場地名稱":"臺北花卉批發市場",
    "行政區":"內湖區",
    "地址":"臺北市內湖區湖元里新湖三路28、36號",
    "內容":"無障礙廁所X4、無障礙電梯X3、\n無障礙停車位X12",
    "場所":"觀光購物場所"
    }
  },
  {
    "type": "Feature",
    "geometry": {
       "type": "Point",
       "coordinates":  [ 121.5403526,25.00428641 ]
    },
    "properties": {
    "場地名稱":"臺北花木批發市場",
    "行政區":"文山區",
    "地址":"臺北市文山區萬盛里興隆路1段15號",
    "內容":"無障礙廁所X2、無障礙電梯X1、\n無障礙坡道X1、無障礙停車位X1",
    "場所":"觀光購物場所"
    }
  },
  {
    "type": "Feature",
    "geometry": {
       "type": "Point",
       "coordinates":  [ 121.5241659,25.08795771 ]
    },
    "properties": {
    "場地名稱":"士林市場",
    "行政區":"士林區",
    "地址":"臺北市士林區基河路101號",
    "內容":"無障礙廁所X4、無障礙坡道X1",
    "場所":"觀光購物場所"
    }
  },
  {
    "type": "Feature",
    "geometry": {
       "type": "Point",
       "coordinates":  [ 121.529437,25.11200401 ]
    },
    "properties": {
    "場地名稱":"士東市場",
    "行政區":"士林區",
    "地址":"臺北市士林區士東路100號",
    "內容":"無障礙廁所X2、無障礙坡道X2",
    "場所":"觀光購物場所"
    }
  },
  {
    "type": "Feature",
    "geometry": {
       "type": "Point",
       "coordinates":  [ 121.51416,25.074935 ]
    },
    "properties": {
    "場地名稱":"大龍市場",
    "行政區":"大同區",
    "地址":"臺北市大同區重慶北路三段347號",
    "內容":"無障礙廁所X1",
    "場所":"觀光購物場所"
    }
  },
  {
    "type": "Feature",
    "geometry": {
       "type": "Point",
       "coordinates":  [ 121.516559,25.05678701 ]
    },
    "properties": {
    "場地名稱":"雙連市場",
    "行政區":"大同區",
    "地址":"臺北市大同區民生西路198號",
    "內容":"無障礙廁所X1",
    "場所":"觀光購物場所"
    }
  },
  {
    "type": "Feature",
    "geometry": {
       "type": "Point",
       "coordinates":  [ 121.510294,25.05432101 ]
    },
    "properties": {
    "場地名稱":"永樂市場",
    "行政區":"大同區",
    "地址":"臺北市大同區迪化街一段21號",
    "內容":"無障礙廁所X10、無障礙坡道X4、\n無障礙電梯X8",
    "場所":"觀光購物場所"
    }
  },
  {
    "type": "Feature",
    "geometry": {
       "type": "Point",
       "coordinates":  [ 121.515651,25.06600802 ]
    },
    "properties": {
    "場地名稱":"蘭州市場",
    "行政區":"大同區",
    "地址":"臺北市大同區昌吉街55號(55至57號)",
    "內容":"無障礙廁所X1、無障礙坡道X4",
    "場所":"觀光購物場所"
    }
  },
  {
    "type": "Feature",
    "geometry": {
       "type": "Point",
       "coordinates":  [ 121.54095,25.028118 ]
    },
    "properties": {
    "場地名稱":"安東市場",
    "行政區":"大安區",
    "地址":"臺北市大安區瑞安街75號",
    "內容":"無障礙廁所X1、無障礙電梯X1",
    "場所":"觀光購物場所"
    }
  },
  {
    "type": "Feature",
    "geometry": {
       "type": "Point",
       "coordinates":  [ 121.5390571,25.0340034 ]
    },
    "properties": {
    "場地名稱":"信義市場",
    "行政區":"大安區",
    "地址":"臺北市大安區信義路三段107號",
    "內容":"無障礙廁所X1",
    "場所":"觀光購物場所"
    }
  },
  {
    "type": "Feature",
    "geometry": {
       "type": "Point",
       "coordinates":  [ 121.5474162,25.02712083 ]
    },
    "properties": {
    "場地名稱":"成功市場",
    "行政區":"大安區",
    "地址":"臺北市大安區四維路192巷",
    "內容":"無障礙廁所X1、無障礙電梯X2",
    "場所":"觀光購物場所"
    }
  },
  {
    "type": "Feature",
    "geometry": {
       "type": "Point",
       "coordinates":  [ 121.5293905,25.0285006 ]
    },
    "properties": {
    "場地名稱":"錦安市場",
    "行政區":"大安區",
    "地址":"臺北市大安區永康街60號",
    "內容":"無障礙電梯X1",
    "場所":"觀光購物場所"
    }
  },
  {
    "type": "Feature",
    "geometry": {
       "type": "Point",
       "coordinates":  [ 121.536292,25.04586501 ]
    },
    "properties": {
    "場地名稱":"八德市場",
    "行政區":"中山區",
    "地址":"臺北市中山區八德路二段108之1號",
    "內容":"無障礙廁所X1、無障礙坡道X2",
    "場所":"觀光購物場所"
    }
  },
  {
    "type": "Feature",
    "geometry": {
       "type": "Point",
       "coordinates":  [ 121.5321873,25.06029119 ]
    },
    "properties": {
    "場地名稱":"松江市場",
    "行政區":"中山區",
    "地址":"臺北市中山區錦州街222號",
    "內容":"無障礙廁所X1、無障礙坡道X1",
    "場所":"觀光購物場所"
    }
  },
  {
    "type": "Feature",
    "geometry": {
       "type": "Point",
       "coordinates":  [ 121.5212012,25.05016308 ]
    },
    "properties": {
    "場地名稱":"中山市場",
    "行政區":"中山區",
    "地址":"臺北市中山區長安西路3號",
    "內容":"無障礙廁所X1、無障礙坡道X1",
    "場所":"觀光購物場所"
    }
  },
  {
    "type": "Feature",
    "geometry": {
       "type": "Point",
       "coordinates":  [ 121.5422654,25.05473512 ]
    },
    "properties": {
    "場地名稱":"長春市場",
    "行政區":"中山區",
    "地址":"臺北市中山區長春路299號",
    "內容":"無障礙廁所X1、無障礙坡道X1",
    "場所":"觀光購物場所"
    }
  },
  {
    "type": "Feature",
    "geometry": {
       "type": "Point",
       "coordinates":  [ 121.532466,25.03653 ]
    },
    "properties": {
    "場地名稱":"新生市場",
    "行政區":"中正區",
    "地址":"臺北市中正區新生南路一段134之1號",
    "內容":"無障礙廁所X1",
    "場所":"觀光購物場所"
    }
  },
  {
    "type": "Feature",
    "geometry": {
       "type": "Point",
       "coordinates":  [ 121.532082,25.04519701 ]
    },
    "properties": {
    "場地名稱":"光華數位新天地",
    "行政區":"中正區",
    "地址":"臺北市中正區市民大道三段8號",
    "內容":"無障礙廁所X6、無障礙電梯X1、\n無障礙坡道X2",
    "場所":"觀光購物場所"
    }
  },
  {
    "type": "Feature",
    "geometry": {
       "type": "Point",
       "coordinates":  [ 121.5247723,25.04425359 ]
    },
    "properties": {
    "場地名稱":"華山市場",
    "行政區":"中正區",
    "地址":"臺北市中正區忠孝東路一段108號",
    "內容":"無障礙廁所X2、無障礙電梯X1、\n無障礙坡道X1",
    "場所":"觀光購物場所"
    }
  },
  {
    "type": "Feature",
    "geometry": {
       "type": "Point",
       "coordinates":  [ 121.535007,25.01374199 ]
    },
    "properties": {
    "場地名稱":"水源市場",
    "行政區":"中正區",
    "地址":"臺北市中正區羅斯福路四段92號",
    "內容":"無障礙廁所X1、無障礙電梯X1、\n無障礙坡道X1",
    "場所":"觀光購物場所"
    }
  },
  {
    "type": "Feature",
    "geometry": {
       "type": "Point",
       "coordinates":  [ 121.530903,25.04031501 ]
    },
    "properties": {
    "場地名稱":"幸安市場",
    "行政區":"中正區",
    "地址":"臺北市中正區濟南路二段46號",
    "內容":"無障礙廁所X1",
    "場所":"觀光購物場所"
    }
  },
  {
    "type": "Feature",
    "geometry": {
       "type": "Point",
       "coordinates":  [ 121.5181993,25.03247408 ]
    },
    "properties": {
    "場地名稱":"南門市場",
    "行政區":"中正區",
    "地址":"臺北市中正區羅斯福路一段8號",
    "內容":"無障礙廁所X4、無障礙電梯X2、坡道X2",
    "場所":"觀光購物場所"
    }
  },
  {
    "type": "Feature",
    "geometry": {
       "type": "Point",
       "coordinates":  [ 121.526788,25.034654 ]
    },
    "properties": {
    "場地名稱":"東門市場",
    "行政區":"中正區",
    "地址":"臺北市中正區信義路二段81號",
    "內容":"無障礙廁所X1",
    "場所":"觀光購物場所"
    }
  },
  {
    "type": "Feature",
    "geometry": {
       "type": "Point",
       "coordinates":  [ 121.566579,25.082392 ]
    },
    "properties": {
    "場地名稱":"西湖市場",
    "行政區":"內湖區",
    "地址":"臺北市內湖區內湖路一段285號",
    "內容":"無障礙廁所X4、無障礙電梯X1",
    "場所":"觀光購物場所"
    }
  },
  {
    "type": "Feature",
    "geometry": {
       "type": "Point",
       "coordinates":  [ 121.5410671,24.99004125 ]
    },
    "properties": {
    "場地名稱":"景美市場",
    "行政區":"文山區",
    "地址":"臺北市文山區景文街137號",
    "內容":"無障礙電梯X1",
    "場所":"觀光購物場所"
    }
  },
  {
    "type": "Feature",
    "geometry": {
       "type": "Point",
       "coordinates":  [ 121.547472,24.99964602 ]
    },
    "properties": {
    "場地名稱":"興隆市場",
    "行政區":"文山區",
    "地址":"臺北市文山區興隆路二段97號",
    "內容":"無障礙廁所X1、無障礙坡道X1、\n無障礙電梯X1",
    "場所":"觀光購物場所"
    }
  },
  {
    "type": "Feature",
    "geometry": {
       "type": "Point",
       "coordinates":  [ 121.5572218,24.98147548 ]
    },
    "properties": {
    "場地名稱":"木新市場",
    "行政區":"文山區",
    "地址":"臺北市文山區木新路三段310巷4號",
    "內容":"無障礙廁所X1、無障礙坡道X2、\n無障礙電梯X1",
    "場所":"觀光購物場所"
    }
  },
  {
    "type": "Feature",
    "geometry": {
       "type": "Point",
       "coordinates":  [ 121.569238,24.98854201 ]
    },
    "properties": {
    "場地名稱":"木柵市場",
    "行政區":"文山區",
    "地址":"臺北市文山區保儀路13巷3號",
    "內容":"無障礙廁所X1、無障礙坡道X3、\n無障礙電梯X1",
    "場所":"觀光購物場所"
    }
  },
  {
    "type": "Feature",
    "geometry": {
       "type": "Point",
       "coordinates":  [ 121.50242,25.132474 ]
    },
    "properties": {
    "場地名稱":"北投市場",
    "行政區":"北投區",
    "地址":"臺北市北投區新市街30號",
    "內容":"無障礙廁所X1、無障礙坡道X5",
    "場所":"觀光購物場所"
    }
  },
  {
    "type": "Feature",
    "geometry": {
       "type": "Point",
       "coordinates":  [ 121.576142,25.05021002 ]
    },
    "properties": {
    "場地名稱":"松山市場",
    "行政區":"松山區",
    "地址":"臺北市松山區八德路四段679號",
    "內容":"無障礙坡道X1",
    "場所":"觀光購物場所"
    }
  },
  {
    "type": "Feature",
    "geometry": {
       "type": "Point",
       "coordinates":  [ 121.552785,25.048006 ]
    },
    "properties": {
    "場地名稱":"中崙市場",
    "行政區":"松山區",
    "地址":"臺北市松山區八德路三段76號",
    "內容":"無障礙廁所X2",
    "場所":"觀光購物場所"
    }
  },
  {
    "type": "Feature",
    "geometry": {
       "type": "Point",
       "coordinates":  [ 121.570864,25.05067798 ]
    },
    "properties": {
    "場地名稱":"南松市場",
    "行政區":"松山區",
    "地址":"臺北市松山區塔悠路40號",
    "內容":"無障礙廁所X1",
    "場所":"觀光購物場所"
    }
  },
  {
    "type": "Feature",
    "geometry": {
       "type": "Point",
       "coordinates":  [ 121.554217,25.05468399 ]
    },
    "properties": {
    "場地名稱":"龍城市場",
    "行政區":"松山區",
    "地址":"臺北市松山區光復北路190巷39號",
    "內容":"無障礙廁所X1、無障礙坡道X2",
    "場所":"觀光購物場所"
    }
  },
  {
    "type": "Feature",
    "geometry": {
       "type": "Point",
       "coordinates":  [ 121.577572,25.04309898 ]
    },
    "properties": {
    "場地名稱":"永春市場",
    "行政區":"信義區",
    "地址":"臺北市信義區松山路294號",
    "內容":"無障礙廁所X1、無障礙坡道X4",
    "場所":"觀光購物場所"
    }
  },
  {
    "type": "Feature",
    "geometry": {
       "type": "Point",
       "coordinates":  [ 121.5750888,25.04491278 ]
    },
    "properties": {
    "場地名稱":"永吉市場",
    "行政區":"信義區",
    "地址":"臺北市信義區永吉路278巷1弄30號",
    "內容":"無障礙廁所X1、無障礙坡道X5",
    "場所":"觀光購物場所"
    }
  },
  {
    "type": "Feature",
    "geometry": {
       "type": "Point",
       "coordinates":  [ 121.560439,25.03634602 ]
    },
    "properties": {
    "場地名稱":"光復市場",
    "行政區":"信義區",
    "地址":"臺北市信義區仁愛路四段496巷19號",
    "內容":"無障礙廁所X1",
    "場所":"觀光購物場所"
    }
  },
  {
    "type": "Feature",
    "geometry": {
       "type": "Point",
       "coordinates":  [ 121.5867552,25.04614718 ]
    },
    "properties": {
    "場地名稱":"成德市場",
    "行政區":"南港區",
    "地址":"臺北市南港區同德路100號1樓",
    "內容":"無障礙廁所X1、無障礙坡道X1",
    "場所":"觀光購物場所"
    }
  },
  {
    "type": "Feature",
    "geometry": {
       "type": "Point",
       "coordinates":  [ 121.614487,25.04554302 ]
    },
    "properties": {
    "場地名稱":"中研市場",
    "行政區":"南港區",
    "地址":"臺北市南港區研究院路二段70巷12號",
    "內容":"無障礙廁所X2、無障礙坡道X1",
    "場所":"觀光購物場所"
    }
  },
  {
    "type": "Feature",
    "geometry": {
       "type": "Point",
       "coordinates":  [ 121.507047,25.047934 ]
    },
    "properties": {
    "場地名稱":"西寧市場",
    "行政區":"萬華區",
    "地址":"臺北市萬華區西寧南路4號",
    "內容":"無障礙廁所X2、無障礙坡道X1",
    "場所":"觀光購物場所"
    }
  },
  {
    "type": "Feature",
    "geometry": {
       "type": "Point",
       "coordinates":  [ 121.489782,25.02985302 ]
    },
    "properties": {
    "場地名稱":"環南市場",
    "行政區":"萬華區",
    "地址":"臺北市萬華區環河南路二段245號",
    "內容":"無障礙廁所X3、無障礙電梯X2、\n無障礙坡道X4",
    "場所":"觀光購物場所"
    }
  },
  {
    "type": "Feature",
    "geometry": {
       "type": "Point",
       "coordinates":  [ 121.5017152,25.03937612 ]
    },
    "properties": {
    "場地名稱":"直興市場",
    "行政區":"萬華區",
    "地址":"臺北市萬華區康定路172巷1號",
    "內容":"無障礙廁所X1",
    "場所":"觀光購物場所"
    }
  },
  {
    "type": "Feature",
    "geometry": {
       "type": "Point",
       "coordinates":  [ 121.505864,25.04871498 ]
    },
    "properties": {
    "場地名稱":"河濱一商場",
    "行政區":"萬華區",
    "地址":"臺北市萬華區環河南路一段4號(2至272號)",
    "內容":"無障礙廁所X2",
    "場所":"觀光購物場所"
    }
  },
  {
    "type": "Feature",
    "geometry": {
       "type": "Point",
       "coordinates":  [ 121.4998119,25.03501128 ]
    },
    "properties": {
    "場地名稱":"龍山商場",
    "行政區":"萬華區",
    "地址":"臺北市萬華區和平西路三段120號 ",
    "內容":"無障礙廁所X4、無障礙坡道X2、\n無障礙電梯X3",
    "場所":"觀光購物場所"
    }
  },
  {
    "type": "Feature",
    "geometry": {
       "type": "Point",
       "coordinates":  [ 121.506781,25.04171102 ]
    },
    "properties": {
    "場地名稱":"西門商場",
    "行政區":"萬華區",
    "地址":"臺北市萬華區成都路10巷33號",
    "內容":"無障礙廁所X1、無障礙電梯X1",
    "場所":"觀光購物場所"
    }
  },
  {
    "type": "Feature",
    "geometry": {
       "type": "Point",
       "coordinates":  [ 121.531605,25.063186 ]
    },
    "properties": {
    "場地名稱":"民權超市",
    "行政區":"中山區",
    "地址":"臺北市中山區民權東路2段71巷2號",
    "內容":"無障礙廁所X1、無障礙電梯X1無障礙坡道X1",
    "場所":"觀光購物場所"
    }
  },
  {
    "type": "Feature",
    "geometry": {
       "type": "Point",
       "coordinates":  [ 121.6127743,25.06894744 ]
    },
    "properties": {
    "場地名稱":"東湖超市",
    "行政區":"內湖區",
    "地址":"臺北市內湖區東湖路1號1、2樓",
    "內容":"無障礙電梯X1、無障礙坡道X1",
    "場所":"觀光購物場所"
    }
  },
  {
    "type": "Feature",
    "geometry": {
       "type": "Point",
       "coordinates":  [ 121.523657,25.085814 ]
    },
    "properties": {
    "場地名稱":"百齡高中地下停車場",
    "行政區":"士林區",
    "地址":"臺北市士林區承德路4段175號地下",
    "內容":"無障礙廁所、無障礙坡道",
    "場所":"停車場"
    }
  },
  {
    "type": "Feature",
    "geometry": {
       "type": "Point",
       "coordinates":  [ 121.520322,25.08505401 ]
    },
    "properties": {
    "場地名稱":"前港公園地下停車場",
    "行政區":"士林區",
    "地址":"臺北市士林區前港街45號地下",
    "內容":"無障礙廁所、無障礙電梯、無障礙坡道",
    "場所":"停車場"
    }
  },
  {
    "type": "Feature",
    "geometry": {
       "type": "Point",
       "coordinates":  [ 121.505979,25.089589 ]
    },
    "properties": {
    "場地名稱":"社園立體(機械)",
    "行政區":"士林區",
    "地址":"臺北市士林區延平北路6段180號",
    "內容":"無障礙廁所、無障礙坡道",
    "場所":"停車場"
    }
  },
  {
    "type": "Feature",
    "geometry": {
       "type": "Point",
       "coordinates":  [ 121.520887,25.09959598 ]
    },
    "properties": {
    "場地名稱":"文昌國小地下停車場",
    "行政區":"士林區",
    "地址":"臺北市士林區文林路615巷20號地下",
    "內容":"無障礙廁所、無障礙電梯、無障礙坡道",
    "場所":"停車場"
    }
  },
  {
    "type": "Feature",
    "geometry": {
       "type": "Point",
       "coordinates":  [ 121.508301,25.08130101 ]
    },
    "properties": {
    "場地名稱":"海光公園地下停車場",
    "行政區":"士林區",
    "地址":"臺北市士林區葫蘆街83號地下",
    "內容":"無障礙廁所、無障礙電梯、無障礙坡道",
    "場所":"停車場"
    }
  },
  {
    "type": "Feature",
    "geometry": {
       "type": "Point",
       "coordinates":  [ 121.502894,25.08987499 ]
    },
    "properties": {
    "場地名稱":"社子國小地下停車場",
    "行政區":"士林區",
    "地址":"臺北市士林區延平北路6段308號地下",
    "內容":"無障礙廁所、無障礙電梯、無障礙坡道",
    "場所":"停車場"
    }
  },
  {
    "type": "Feature",
    "geometry": {
       "type": "Point",
       "coordinates":  [ 121.5222565,25.0899293 ]
    },
    "properties": {
    "場地名稱":"承德公園地下停車場",
    "行政區":"士林區",
    "地址":"臺北市士林區基河路150號地下",
    "內容":"無障礙廁所、無障礙電梯、無障礙坡道",
    "場所":"停車場"
    }
  },
  {
    "type": "Feature",
    "geometry": {
       "type": "Point",
       "coordinates":  [ 121.529223,25.10957799 ]
    },
    "properties": {
    "場地名稱":"蘭雅公園地下停車場",
    "行政區":"士林區",
    "地址":"臺北市士林區德行東路129巷31號地下",
    "內容":"無障礙廁所、無障礙電梯、無障礙坡道",
    "場所":"停車場"
    }
  },
  {
    "type": "Feature",
    "geometry": {
       "type": "Point",
       "coordinates":  [ 121.530499,25.09583201 ]
    },
    "properties": {
    "場地名稱":"福林公園地下停車場",
    "行政區":"士林區",
    "地址":"臺北市士林區中正路17號地下",
    "內容":"無障礙廁所、無障礙電梯、無障礙坡道",
    "場所":"停車場"
    }
  },
  {
    "type": "Feature",
    "geometry": {
       "type": "Point",
       "coordinates":  [ 121.510671,25.05083699 ]
    },
    "properties": {
    "場地名稱":"塔城公園地下停車場",
    "行政區":"大同區",
    "地址":"臺北市大同區塔城街11號地下",
    "內容":"無障礙廁所、無障礙電梯、無障礙坡道",
    "場所":"停車場"
    }
  },
  {
    "type": "Feature",
    "geometry": {
       "type": "Point",
       "coordinates":  [ 121.5080191,25.04995246 ]
    },
    "properties": {
    "場地名稱":"市民大道(塔城段)",
    "行政區":"大同區",
    "地址":"臺北市大同區西寧北路-塔城街(地下)",
    "內容":"無障礙廁所、無障礙坡道",
    "場所":"停車場"
    }
  },
  {
    "type": "Feature",
    "geometry": {
       "type": "Point",
       "coordinates":  [ 121.5105817,25.05835559 ]
    },
    "properties": {
    "場地名稱":"大稻埕公園地下停車場",
    "行政區":"大同區",
    "地址":"臺北市大同區歸綏街243號地下",
    "內容":"無障礙廁所、無障礙電梯、無障礙坡道",
    "場所":"停車場"
    }
  },
  {
    "type": "Feature",
    "geometry": {
       "type": "Point",
       "coordinates":  [ 121.5185272,25.06127489 ]
    },
    "properties": {
    "場地名稱":"成淵高中地下停車場",
    "行政區":"大同區",
    "地址":"臺北市大同區承德路2段235號之1地下",
    "內容":"無障礙廁所、無障礙電梯、無障礙坡道",
    "場所":"停車場"
    }
  },
  {
    "type": "Feature",
    "geometry": {
       "type": "Point",
       "coordinates":  [ 121.519669,25.050393 ]
    },
    "properties": {
    "場地名稱":"建成國中地下停車場",
    "行政區":"大同區",
    "地址":"臺北市大同區長安西路37號之一地下",
    "內容":"無障礙廁所、無障礙坡道",
    "場所":"停車場"
    }
  },
  {
    "type": "Feature",
    "geometry": {
       "type": "Point",
       "coordinates":  [ 121.51369,25.05614001 ]
    },
    "properties": {
    "場地名稱":"朝陽公園地下停車場",
    "行政區":"大同區",
    "地址":"臺北市大同區重慶北路2段68號地下",
    "內容":"無障礙廁所、無障礙電梯、無障礙坡道",
    "場所":"停車場"
    }
  },
  {
    "type": "Feature",
    "geometry": {
       "type": "Point",
       "coordinates":  [ 121.515565,25.05645802 ]
    },
    "properties": {
    "場地名稱":"蓬萊國小地下停車場",
    "行政區":"大同區",
    "地址":"臺北市大同區寧夏路35號地下",
    "內容":"無障礙廁所、無障礙電梯、無障礙坡道",
    "場所":"停車場"
    }
  },
  {
    "type": "Feature",
    "geometry": {
       "type": "Point",
       "coordinates":  [ 121.5182542,25.05393108 ]
    },
    "properties": {
    "場地名稱":"建成公園地下停車場",
    "行政區":"大同區",
    "地址":"臺北市大同區承德路2段31號地下",
    "內容":"無障礙廁所、無障礙電梯、無障礙坡道",
    "場所":"停車場"
    }
  },
  {
    "type": "Feature",
    "geometry": {
       "type": "Point",
       "coordinates":  [ 121.516694,25.07339202 ]
    },
    "properties": {
    "場地名稱":"大龍國小地下停車場",
    "行政區":"大同區",
    "地址":"臺北市大同區哈密街47號地下",
    "內容":"無障礙廁所、無障礙電梯、無障礙坡道",
    "場所":"停車場"
    }
  },
  {
    "type": "Feature",
    "geometry": {
       "type": "Point",
       "coordinates":  [ 121.511745,25.07429701 ]
    },
    "properties": {
    "場地名稱":"啟聰學校地下停車場",
    "行政區":"大同區",
    "地址":"臺北市大同區延平北路4段205號",
    "內容":"無障礙廁所、無障礙電梯、無障礙坡道",
    "場所":"停車場"
    }
  },
  {
    "type": "Feature",
    "geometry": {
       "type": "Point",
       "coordinates":  [ 121.515847,25.06742599 ]
    },
    "properties": {
    "場地名稱":"揚雅立體停車場(機械)",
    "行政區":"大同區",
    "地址":"臺北市大同區大龍街136號",
    "內容":"無障礙廁所、無障礙坡道",
    "場所":"停車場"
    }
  },
  {
    "type": "Feature",
    "geometry": {
       "type": "Point",
       "coordinates":  [ 121.537326,25.03198399 ]
    },
    "properties": {
    "場地名稱":"大安森林公園地下停車場",
    "行政區":"大安區",
    "地址":"臺北市大安區建國南路2段2號地下",
    "內容":"無障礙廁所、無障礙電梯、無障礙坡道",
    "場所":"停車場"
    }
  },
  {
    "type": "Feature",
    "geometry": {
       "type": "Point",
       "coordinates":  [ 121.5315104,25.02995764 ]
    },
    "properties": {
    "場地名稱":"金華地下停車場",
    "行政區":"大安區",
    "地址":"臺北市大安區金華街254巷1號地下",
    "內容":"無障礙廁所、無障礙電梯、無障礙坡道",
    "場所":"停車場"
    }
  },
  {
    "type": "Feature",
    "geometry": {
       "type": "Point",
       "coordinates":  [ 121.541033,25.03275102 ]
    },
    "properties": {
    "場地名稱":"大安高工地下停車場",
    "行政區":"大安區",
    "地址":"臺北市大安區信義路3段166巷6弄12號",
    "內容":"無障礙廁所、無障礙電梯、無障礙坡道",
    "場所":"停車場"
    }
  },
  {
    "type": "Feature",
    "geometry": {
       "type": "Point",
       "coordinates":  [ 121.542454,25.03633298 ]
    },
    "properties": {
    "場地名稱":"附中公園地下停車場",
    "行政區":"大安區",
    "地址":"臺北市大安區復興南路1段340巷11號",
    "內容":"無障礙廁所、無障礙電梯、無障礙坡道",
    "場所":"停車場"
    }
  },
  {
    "type": "Feature",
    "geometry": {
       "type": "Point",
       "coordinates":  [ 121.538011,25.024881 ]
    },
    "properties": {
    "場地名稱":"龍門國中地下停車場",
    "行政區":"大安區",
    "地址":"臺北市大安區建國南路2段269號地下",
    "內容":"無障礙廁所、無障礙電梯、無障礙坡道",
    "場所":"停車場"
    }
  },
  {
    "type": "Feature",
    "geometry": {
       "type": "Point",
       "coordinates":  [ 121.5568371,25.04114021 ]
    },
    "properties": {
    "場地名稱":"僑安地下停車場",
    "行政區":"大安區",
    "地址":"臺北市大安區忠孝東路4段306號地下",
    "內容":"無障礙廁所、無障礙電梯、無障礙坡道",
    "場所":"停車場"
    }
  },
  {
    "type": "Feature",
    "geometry": {
       "type": "Point",
       "coordinates":  [ 121.551887,25.02175199 ]
    },
    "properties": {
    "場地名稱":"嘉興公園地下停車場",
    "行政區":"大安區",
    "地址":"臺北市大安區嘉興街373號",
    "內容":"無障礙廁所、無障礙電梯、無障礙坡道",
    "場所":"停車場"
    }
  },
  {
    "type": "Feature",
    "geometry": {
       "type": "Point",
       "coordinates":  [ 121.5256276,25.06165898 ]
    },
    "properties": {
    "場地名稱":"市民大道(林金段)",
    "行政區":"中山區",
    "地址":"臺北市中山區林森北路-金山北路",
    "內容":"無障礙廁所、無障礙電梯、無障礙坡道",
    "場所":"停車場"
    }
  },
  {
    "type": "Feature",
    "geometry": {
       "type": "Point",
       "coordinates":  [ 121.5269408,25.0530737 ]
    },
    "properties": {
    "場地名稱":"林森公園停車場",
    "行政區":"中山區",
    "地址":"臺北市中山區南京東路1段35號地下",
    "內容":"無障礙廁所、無障礙電梯、無障礙坡道",
    "場所":"停車場"
    }
  },
  {
    "type": "Feature",
    "geometry": {
       "type": "Point",
       "coordinates":  [ 121.5256276,25.06165898 ]
    },
    "properties": {
    "場地名稱":"市民大道(中林段)",
    "行政區":"中山區",
    "地址":"臺北市中山區中山北路-林森北路",
    "內容":"無障礙廁所、無障礙電梯、無障礙坡道",
    "場所":"停車場"
    }
  },
  {
    "type": "Feature",
    "geometry": {
       "type": "Point",
       "coordinates":  [ 121.5336277,25.0642508 ]
    },
    "properties": {
    "場地名稱":"市民大道(公中段)",
    "行政區":"中山區",
    "地址":"臺北市中山區公園路-中山北路(地下)",
    "內容":"無障礙廁所、無障礙電梯、無障礙坡道",
    "場所":"停車場"
    }
  },
  {
    "type": "Feature",
    "geometry": {
       "type": "Point",
       "coordinates":  [ 121.5443157,25.06035533 ]
    },
    "properties": {
    "場地名稱":"市民大道(建復段)",
    "行政區":"中山區",
    "地址":"臺北市中山區建國北路-復興北路",
    "內容":"無障礙廁所、無障礙電梯、無障礙坡道",
    "場所":"停車場"
    }
  },
  {
    "type": "Feature",
    "geometry": {
       "type": "Point",
       "coordinates":  [ 121.5376058,25.04606638 ]
    },
    "properties": {
    "場地名稱":"進安公園地下停車場",
    "行政區":"中山區",
    "地址":"臺北市中山區八德路2段158號地下",
    "內容":"無障礙廁所、無障礙電梯、無障礙坡道",
    "場所":"停車場"
    }
  },
  {
    "type": "Feature",
    "geometry": {
       "type": "Point",
       "coordinates":  [ 121.5373413,25.06792329 ]
    },
    "properties": {
    "場地名稱":"濱江市場地下停車場",
    "行政區":"中山區",
    "地址":"臺北市中山區民族東路336號地下",
    "內容":"無障礙廁所、無障礙電梯、無障礙坡道",
    "場所":"停車場"
    }
  },
  {
    "type": "Feature",
    "geometry": {
       "type": "Point",
       "coordinates":  [ 121.5245176,25.05925828 ]
    },
    "properties": {
    "場地名稱":"永盛公園地下停車場",
    "行政區":"中山區",
    "地址":"臺北市中山區中山北路2段93巷30號",
    "內容":"無障礙廁所、無障礙電梯、無障礙坡道",
    "場所":"停車場"
    }
  },
  {
    "type": "Feature",
    "geometry": {
       "type": "Point",
       "coordinates":  [ 121.530185,25.04975899 ]
    },
    "properties": {
    "場地名稱":"長安國小地下停車場",
    "行政區":"中山區",
    "地址":"臺北市中山區吉林路15號地下",
    "內容":"無障礙廁所、無障礙電梯、無障礙坡道",
    "場所":"停車場"
    }
  },
  {
    "type": "Feature",
    "geometry": {
       "type": "Point",
       "coordinates":  [ 121.537586,25.063898 ]
    },
    "properties": {
    "場地名稱":"榮星花園地下停車場",
    "行政區":"中山區",
    "地址":"臺北市中山區建國北路3段39號地下",
    "內容":"無障礙廁所、無障礙電梯、無障礙坡道",
    "場所":"停車場"
    }
  },
  {
    "type": "Feature",
    "geometry": {
       "type": "Point",
       "coordinates":  [ 121.510205,25.04309898 ]
    },
    "properties": {
    "場地名稱":"中山堂地下停車場",
    "行政區":"中正區",
    "地址":"臺北市中正區延平南路98號地下",
    "內容":"無障礙廁所、無障礙電梯、無障礙坡道",
    "場所":"停車場"
    }
  },
  {
    "type": "Feature",
    "geometry": {
       "type": "Point",
       "coordinates":  [ 121.6157822,25.06854019 ]
    },
    "properties": {
    "場地名稱":"東湖國小地下停車場",
    "行政區":"內湖區",
    "地址":"臺北市內湖區東湖路115號地下",
    "內容":"無障礙廁所、無障礙電梯、無障礙坡道",
    "場所":"停車場"
    }
  },
  {
    "type": "Feature",
    "geometry": {
       "type": "Point",
       "coordinates":  [ 121.601317,25.07309899 ]
    },
    "properties": {
    "場地名稱":"麗湖國小地下停車場",
    "行政區":"內湖區",
    "地址":"臺北市內湖區金湖路363巷8號地下",
    "內容":"無障礙廁所、無障礙電梯、無障礙坡道",
    "場所":"停車場"
    }
  },
  {
    "type": "Feature",
    "geometry": {
       "type": "Point",
       "coordinates":  [ 121.578068,25.08052699 ]
    },
    "properties": {
    "場地名稱":"港富立體(機械)",
    "行政區":"內湖區",
    "地址":"臺北市內湖區內湖路1段737巷50弄32號",
    "內容":"無障礙廁所、無障礙電梯、無障礙坡道",
    "場所":"停車場"
    }
  },
  {
    "type": "Feature",
    "geometry": {
       "type": "Point",
       "coordinates":  [ 121.5888703,25.0695059 ]
    },
    "properties": {
    "場地名稱":"康樂立體(機械)",
    "行政區":"內湖區",
    "地址":"臺北市內湖區康樂路138號",
    "內容":"無障礙廁所、無障礙電梯、無障礙坡道",
    "場所":"停車場"
    }
  },
  {
    "type": "Feature",
    "geometry": {
       "type": "Point",
       "coordinates":  [ 121.5904763,25.06771491 ]
    },
    "properties": {
    "場地名稱":"湖興立體(機械)",
    "行政區":"內湖區",
    "地址":"臺北市內湖區成功路2段322號",
    "內容":"無障礙廁所、無障礙電梯、無障礙坡道",
    "場所":"停車場"
    }
  },
  {
    "type": "Feature",
    "geometry": {
       "type": "Point",
       "coordinates":  [ 121.569528,25.07943901 ]
    },
    "properties": {
    "場地名稱":"洲子立體停車場",
    "行政區":"內湖區",
    "地址":"臺北市內湖區瑞光路513巷22弄2號",
    "內容":"無障礙廁所、無障礙電梯、無障礙坡道",
    "場所":"停車場"
    }
  },
  {
    "type": "Feature",
    "geometry": {
       "type": "Point",
       "coordinates":  [ 121.570392,25.08366429 ]
    },
    "properties": {
    "場地名稱":"西湖公園地下停車場",
    "行政區":"內湖區",
    "地址":"臺北市內湖區內湖路1段387巷38號地下",
    "內容":"無障礙廁所、無障礙電梯、無障礙坡道",
    "場所":"停車場"
    }
  },
  {
    "type": "Feature",
    "geometry": {
       "type": "Point",
       "coordinates":  [ 121.6023606,25.0834508 ]
    },
    "properties": {
    "場地名稱":"大湖公園地下停車場",
    "行政區":"內湖區",
    "地址":"臺北市內湖區成功路5段7號地下",
    "內容":"無障礙廁所、無障礙電梯、無障礙坡道",
    "場所":"停車場"
    }
  },
  {
    "type": "Feature",
    "geometry": {
       "type": "Point",
       "coordinates":  [ 121.563752,25.08472049 ]
    },
    "properties": {
    "場地名稱":"西康地下停車場",
    "行政區":"內湖區",
    "地址":"臺北市內湖區內湖路1段203巷25號地下",
    "內容":"無障礙廁所、無障礙電梯、無障礙坡道",
    "場所":"停車場"
    }
  },
  {
    "type": "Feature",
    "geometry": {
       "type": "Point",
       "coordinates":  [ 121.6192412,25.07262742 ]
    },
    "properties": {
    "場地名稱":"康樂合署大樓地下停車場",
    "行政區":"內湖區",
    "地址":"臺北市內湖區康樂街150號地下",
    "內容":"無障礙廁所、無障礙電梯、無障礙坡道",
    "場所":"停車場"
    }
  },
  {
    "type": "Feature",
    "geometry": {
       "type": "Point",
       "coordinates":  [ 121.5437665,24.9951835 ]
    },
    "properties": {
    "場地名稱":"景華公園地下停車場",
    "行政區":"文山區",
    "地址":"臺北市文山區景華街55號地下",
    "內容":"無障礙廁所、無障礙電梯、無障礙坡道",
    "場所":"停車場"
    }
  },
  {
    "type": "Feature",
    "geometry": {
       "type": "Point",
       "coordinates":  [ 121.558559,25.00634999 ]
    },
    "properties": {
    "場地名稱":"辛亥國小地下停車場",
    "行政區":"文山區",
    "地址":"臺北市文山區辛亥路4段103號地下",
    "內容":"無障礙廁所、無障礙電梯、無障礙坡道",
    "場所":"停車場"
    }
  },
  {
    "type": "Feature",
    "geometry": {
       "type": "Point",
       "coordinates":  [ 121.5403526,25.00428641 ]
    },
    "properties": {
    "場地名稱":"花木市場地下停車場",
    "行政區":"文山區",
    "地址":"臺北市文山區興隆路1段15號地下",
    "內容":"無障礙廁所、無障礙電梯、無障礙坡道",
    "場所":"停車場"
    }
  },
  {
    "type": "Feature",
    "geometry": {
       "type": "Point",
       "coordinates":  [ 121.5513238,25.00070541 ]
    },
    "properties": {
    "場地名稱":"興隆公園地下停車場",
    "行政區":"文山區",
    "地址":"臺北市文山區仙岩路128號地下",
    "內容":"無障礙廁所、無障礙電梯、無障礙坡道",
    "場所":"停車場"
    }
  },
  {
    "type": "Feature",
    "geometry": {
       "type": "Point",
       "coordinates":  [ 121.5402891,24.98861481 ]
    },
    "properties": {
    "場地名稱":"景美國小地下停車場",
    "行政區":"文山區",
    "地址":"臺北市文山區景文街142巷2號地下",
    "內容":"無障礙廁所、無障礙電梯、無障礙坡道",
    "場所":"停車場"
    }
  },
  {
    "type": "Feature",
    "geometry": {
       "type": "Point",
       "coordinates":  [ 121.576663,24.989597 ]
    },
    "properties": {
    "場地名稱":"萬興國小地下停車場",
    "行政區":"文山區",
    "地址":"臺北市文山區秀明路2段116號地下",
    "內容":"無障礙廁所、無障礙電梯、無障礙坡道",
    "場所":"停車場"
    }
  },
  {
    "type": "Feature",
    "geometry": {
       "type": "Point",
       "coordinates":  [ 121.5521688,24.98788628 ]
    },
    "properties": {
    "場地名稱":"永建國小地下停車場",
    "行政區":"文山區",
    "地址":"臺北市文山區木柵路一段311巷1號",
    "內容":"無障礙廁所、無障礙電梯、無障礙坡道",
    "場所":"停車場"
    }
  },
  {
    "type": "Feature",
    "geometry": {
       "type": "Point",
       "coordinates":  { }
    },
    "properties": {
    "場地名稱":"興隆公共住宅2區地下停車場",
    "行政區":"文山區",
    "地址":"興隆路4段105巷45號地下",
    "內容":"無障礙廁所、無障礙電梯、無障礙坡道",
    "場所":"停車場"
    }
  },
  {
    "type": "Feature",
    "geometry": {
       "type": "Point",
       "coordinates":  [ 121.5042442,25.1311893 ]
    },
    "properties": {
    "場地名稱":"大豐公園地下停車場",
    "行政區":"北投區",
    "地址":"臺北市北投區大興街145號地下",
    "內容":"無障礙廁所、無障礙電梯、無障礙坡道",
    "場所":"停車場"
    }
  },
  {
    "type": "Feature",
    "geometry": {
       "type": "Point",
       "coordinates":  [ 121.5231732,25.11879482 ]
    },
    "properties": {
    "場地名稱":"振興公園地下停車場",
    "行政區":"北投區",
    "地址":"臺北市北投區天母西路112號地下",
    "內容":"無障礙廁所、無障礙電梯、無障礙坡道",
    "場所":"停車場"
    }
  },
  {
    "type": "Feature",
    "geometry": {
       "type": "Point",
       "coordinates":  [ 121.5117445,25.11568949 ]
    },
    "properties": {
    "場地名稱":"石牌國小地下停車場",
    "行政區":"北投區",
    "地址":"臺北市北投區致遠二路1段80號地下",
    "內容":"無障礙廁所、無障礙電梯、無障礙坡道",
    "場所":"停車場"
    }
  },
  {
    "type": "Feature",
    "geometry": {
       "type": "Point",
       "coordinates":  [ 121.5028331,25.13769961 ]
    },
    "properties": {
    "場地名稱":"大業立體停車場(機械)",
    "行政區":"北投區",
    "地址":"臺北市北投區大業路745號",
    "內容":"無障礙廁所、無障礙電梯、無障礙坡道",
    "場所":"停車場"
    }
  },
  {
    "type": "Feature",
    "geometry": {
       "type": "Point",
       "coordinates":  [ 121.5042,25.13654999 ]
    },
    "properties": {
    "場地名稱":"七星公園地下停車場",
    "行政區":"北投區",
    "地址":"臺北市北投區光明路225號地下",
    "內容":"無障礙廁所、無障礙電梯、無障礙坡道",
    "場所":"停車場"
    }
  },
  {
    "type": "Feature",
    "geometry": {
       "type": "Point",
       "coordinates":  [ 121.503331,25.11852018 ]
    },
    "properties": {
    "場地名稱":"立農公園地下停車場",
    "行政區":"北投區",
    "地址":"臺北市北投區承德路7段372號地下",
    "內容":"無障礙廁所、無障礙電梯、無障礙坡道",
    "場所":"停車場"
    }
  },
  {
    "type": "Feature",
    "geometry": {
       "type": "Point",
       "coordinates":  [ 121.5568761,25.0618257 ]
    },
    "properties": {
    "場地名稱":"民權公園地下停車場",
    "行政區":"松山區",
    "地址":"臺北市松山區民權東路4段180號地下",
    "內容":"無障礙廁所、無障礙電梯、無障礙坡道",
    "場所":"停車場"
    }
  },
  {
    "type": "Feature",
    "geometry": {
       "type": "Point",
       "coordinates":  [ 121.5594794,25.05842529 ]
    },
    "properties": {
    "場地名稱":"民生立體停車場",
    "行政區":"松山區",
    "地址":"臺北市松山區民生東路5段84號",
    "內容":"無障礙廁所、無障礙電梯、無障礙坡道",
    "場所":"停車場"
    }
  },
  {
    "type": "Feature",
    "geometry": {
       "type": "Point",
       "coordinates":  [ 121.571961,25.04974399 ]
    },
    "properties": {
    "場地名稱":"八德立體(機械)",
    "行政區":"松山區",
    "地址":"臺北市松山區八德路4段568號",
    "內容":"無障礙廁所、無障礙電梯、無障礙坡道",
    "場所":"停車場"
    }
  },
  {
    "type": "Feature",
    "geometry": {
       "type": "Point",
       "coordinates":  [ 121.5669501,25.05584978 ]
    },
    "properties": {
    "場地名稱":"西松高中地下停車場",
    "行政區":"松山區",
    "地址":"臺北市松山區健康路325巷19弄1號",
    "內容":"無障礙廁所、無障礙電梯、無障礙坡道",
    "場所":"停車場"
    }
  },
  {
    "type": "Feature",
    "geometry": {
       "type": "Point",
       "coordinates":  [ 121.5768018,25.0497252 ]
    },
    "properties": {
    "場地名稱":"市民大道(復敦段)",
    "行政區":"松山區",
    "地址":"臺北市松山區復興南路-敦化南路",
    "內容":"無障礙廁所、無障礙電梯、無障礙坡道",
    "場所":"停車場"
    }
  },
  {
    "type": "Feature",
    "geometry": {
       "type": "Point",
       "coordinates":  [ 121.5533572,25.04819631 ]
    },
    "properties": {
    "場地名稱":"市民大道(延吉段)",
    "行政區":"松山區",
    "地址":"臺北市松山區延吉街兩側(地下)",
    "內容":"無障礙廁所、無障礙電梯、無障礙坡道",
    "場所":"停車場"
    }
  },
  {
    "type": "Feature",
    "geometry": {
       "type": "Point",
       "coordinates":  [ 121.5533572,25.04819631 ]
    },
    "properties": {
    "場地名稱":"市民大道(敦延段)",
    "行政區":"松山區",
    "地址":"臺北市松山區敦化南路-延吉街(地下)",
    "內容":"無障礙廁所、無障礙電梯、無障礙坡道",
    "場所":"停車場"
    }
  },
  {
    "type": "Feature",
    "geometry": {
       "type": "Point",
       "coordinates":  [ 121.562872,25.05667498 ]
    },
    "properties": {
    "場地名稱":"健康國小地下停車場",
    "行政區":"松山區",
    "地址":"臺北市松山區延壽街168號地下",
    "內容":"無障礙廁所、無障礙電梯、無障礙坡道",
    "場所":"停車場"
    }
  },
  {
    "type": "Feature",
    "geometry": {
       "type": "Point",
       "coordinates":  [ 121.5614818,25.04871988 ]
    },
    "properties": {
    "場地名稱":"中崙高中地下停車場",
    "行政區":"松山區",
    "地址":"臺北市松山區八德路4段101號地下",
    "內容":"無障礙廁所、無障礙電梯、無障礙坡道",
    "場所":"停車場"
    }
  },
  {
    "type": "Feature",
    "geometry": {
       "type": "Point",
       "coordinates":  [ 121.546723,25.06048099 ]
    },
    "properties": {
    "場地名稱":"民有市場地下停車場",
    "行政區":"松山區",
    "地址":"臺北市松山區民權東路3段140巷15號",
    "內容":"無障礙廁所、無障礙電梯、無障礙坡道",
    "場所":"停車場"
    }
  },
  {
    "type": "Feature",
    "geometry": {
       "type": "Point",
       "coordinates":  [ 121.5721073,25.04980901 ]
    },
    "properties": {
    "場地名稱":"八德立體停車場",
    "行政區":"松山區",
    "地址":"臺北市松山區八德路四段580號",
    "內容":"無障礙廁所、無障礙電梯、無障礙坡道",
    "場所":"停車場"
    }
  },
  {
    "type": "Feature",
    "geometry": {
       "type": "Point",
       "coordinates":  [ 121.552011,25.04835401 ]
    },
    "properties": {
    "場地名稱":"北寧路地下停車場",
    "行政區":"松山區",
    "地址":"臺北市松山區八德路3段25號地下",
    "內容":"無障礙廁所、無障礙電梯、無障礙坡道",
    "場所":"停車場"
    }
  },
  {
    "type": "Feature",
    "geometry": {
       "type": "Point",
       "coordinates":  [ 121.562563,25.059131 ]
    },
    "properties": {
    "場地名稱":"民生社區地下停車場",
    "行政區":"松山區",
    "地址":"臺北市松山區民生東路5段163號之1地下",
    "內容":"無障礙廁所、無障礙電梯、無障礙坡道",
    "場所":"停車場"
    }
  },
  {
    "type": "Feature",
    "geometry": {
       "type": "Point",
       "coordinates":  [ 121.5792687,25.0512052 ]
    },
    "properties": {
    "場地名稱":"松山國小地下停車場",
    "行政區":"松山區",
    "地址":"臺北市松山區八德路4段746號",
    "內容":"無障礙廁所、無障礙電梯、無障礙坡道",
    "場所":"停車場"
    }
  },
  {
    "type": "Feature",
    "geometry": {
       "type": "Point",
       "coordinates":  [ 121.56147,25.04785701 ]
    },
    "properties": {
    "場地名稱":"偶戲博物館地下停車場",
    "行政區":"松山區",
    "地址":"臺北市松山區市民大道5段99號地下",
    "內容":"無障礙廁所、無障礙電梯、無障礙坡道",
    "場所":"停車場"
    }
  },
  {
    "type": "Feature",
    "geometry": {
       "type": "Point",
       "coordinates":  [ 121.56631,25.03596853 ]
    },
    "properties": {
    "場地名稱":"府前廣場地下停車場",
    "行政區":"信義區",
    "地址":"臺北市信義區松壽路1號地下                     ",
    "內容":"無障礙廁所、無障礙電梯、無障礙坡道",
    "場所":"停車場"
    }
  },
  {
    "type": "Feature",
    "geometry": {
       "type": "Point",
       "coordinates":  [ 121.5655169,25.03430113 ]
    },
    "properties": {
    "場地名稱":"松壽廣場地下停車場",
    "行政區":"信義區",
    "地址":"臺北市信義區松智路75號地下",
    "內容":"無障礙廁所、無障礙電梯、無障礙坡道",
    "場所":"停車場"
    }
  },
  {
    "type": "Feature",
    "geometry": {
       "type": "Point",
       "coordinates":  [ 121.5658252,25.04387812 ]
    },
    "properties": {
    "場地名稱":"松山高中地下停車場",
    "行政區":"信義區",
    "地址":"臺北市信義區基隆路1段156號地下",
    "內容":"無障礙廁所、無障礙電梯、無障礙坡道",
    "場所":"停車場"
    }
  },
  {
    "type": "Feature",
    "geometry": {
       "type": "Point",
       "coordinates":  [ 121.580423,25.04669901 ]
    },
    "properties": {
    "場地名稱":"五分埔公園地下停車場",
    "行政區":"信義區",
    "地址":"臺北市信義區中坡北路57號地下",
    "內容":"無障礙廁所、無障礙電梯、無障礙坡道",
    "場所":"停車場"
    }
  },
  {
    "type": "Feature",
    "geometry": {
       "type": "Point",
       "coordinates":  [ 121.572787,25.03484302 ]
    },
    "properties": {
    "場地名稱":"興雅國中地下停車場",
    "行政區":"信義區",
    "地址":"臺北市信義區松德路200巷18號地下",
    "內容":"無障礙廁所、無障礙電梯、無障礙坡道",
    "場所":"停車場"
    }
  },
  {
    "type": "Feature",
    "geometry": {
       "type": "Point",
       "coordinates":  [ 121.5682344,25.04054489 ]
    },
    "properties": {
    "場地名稱":"忠信公園地下停車場",
    "行政區":"信義區",
    "地址":"臺北市信義區松仁路2號地下",
    "內容":"無障礙廁所、無障礙電梯、無障礙坡道",
    "場所":"停車場"
    }
  },
  {
    "type": "Feature",
    "geometry": {
       "type": "Point",
       "coordinates":  [ 121.5663983,25.0331422 ]
    },
    "properties": {
    "場地名稱":"信義廣場地下停車場",
    "行政區":"信義區",
    "地址":"臺北市信義區信義路5段11號地下",
    "內容":"無障礙廁所、無障礙電梯、無障礙坡道",
    "場所":"停車場"
    }
  },
  {
    "type": "Feature",
    "geometry": {
       "type": "Point",
       "coordinates":  [ 121.580802,25.04233698 ]
    },
    "properties": {
    "場地名稱":"春光公園地下停車場",
    "行政區":"信義區",
    "地址":"臺北市信義區忠孝東路5段666號地下",
    "內容":"無障礙廁所、無障礙電梯、無障礙坡道",
    "場所":"停車場"
    }
  },
  {
    "type": "Feature",
    "geometry": {
       "type": "Point",
       "coordinates":  [ 121.56687,25.03057 ]
    },
    "properties": {
    "場地名稱":"三張里地下停車場",
    "行政區":"信義區",
    "地址":"臺北市信義區松平路81號地下",
    "內容":"無障礙廁所、無障礙電梯、無障礙坡道",
    "場所":"停車場"
    }
  },
  {
    "type": "Feature",
    "geometry": {
       "type": "Point",
       "coordinates":  [ 121.565913,25.028901 ]
    },
    "properties": {
    "場地名稱":"災變中心地下停車場",
    "行政區":"信義區",
    "地址":"臺北市信義區莊敬路391巷11弄2號",
    "內容":"無障礙廁所、無障礙電梯、無障礙坡道",
    "場所":"停車場"
    }
  },
  {
    "type": "Feature",
    "geometry": {
       "type": "Point",
       "coordinates":  [ 121.5717,25.04752001 ]
    },
    "properties": {
    "場地名稱":"雅祥公園地下停車場",
    "行政區":"信義區",
    "地址":"臺北市信義區松隆路123巷7號地下",
    "內容":"無障礙廁所、無障礙電梯、無障礙坡道",
    "場所":"停車場"
    }
  },
  {
    "type": "Feature",
    "geometry": {
       "type": "Point",
       "coordinates":  [ 121.5677202,25.0331314 ]
    },
    "properties": {
    "場地名稱":"信義國小地下停車場",
    "行政區":"信義區",
    "地址":"臺北市信義區松勤路60號地下",
    "內容":"無障礙廁所、無障礙電梯、無障礙坡道",
    "場所":"停車場"
    }
  },
  {
    "type": "Feature",
    "geometry": {
       "type": "Point",
       "coordinates":  [ 121.572044,25.03983599 ]
    },
    "properties": {
    "場地名稱":"松山工農地下停車場",
    "行政區":"信義區",
    "地址":"臺北市信義區忠孝東路5段236巷15號",
    "內容":"無障礙廁所、無障礙電梯、無障礙坡道",
    "場所":"停車場"
    }
  },
  {
    "type": "Feature",
    "geometry": {
       "type": "Point",
       "coordinates":  [ 121.578252,25.04845598 ]
    },
    "properties": {
    "場地名稱":"松山車站地下停車場",
    "行政區":"信義區",
    "地址":"臺北市信義區松山路11號南廣場地下",
    "內容":"無障礙廁所、無障礙電梯、無障礙坡道",
    "場所":"停車場"
    }
  },
  {
    "type": "Feature",
    "geometry": {
       "type": "Point",
       "coordinates":  [ 121.558383,25.02689299 ]
    },
    "properties": {
    "場地名稱":"景勤2號公園地下停車場",
    "行政區":"信義區",
    "地址":"臺北市信義區信安街49號",
    "內容":"無障礙廁所、無障礙電梯、無障礙坡道",
    "場所":"停車場"
    }
  },
  {
    "type": "Feature",
    "geometry": {
       "type": "Point",
       "coordinates":  [ 121.606791,25.05617001 ]
    },
    "properties": {
    "場地名稱":"興中立體停車場",
    "行政區":"南港區",
    "地址":"臺北市南港區興中路44巷1號",
    "內容":"無障礙廁所、無障礙電梯、無障礙坡道",
    "場所":"停車場"
    }
  },
  {
    "type": "Feature",
    "geometry": {
       "type": "Point",
       "coordinates":  [ 121.58607,25.04581099 ]
    },
    "properties": {
    "場地名稱":"成德立體(機械)",
    "行政區":"南港區",
    "地址":"臺北市南港區成福路1號",
    "內容":"無障礙廁所、無障礙電梯、無障礙坡道",
    "場所":"停車場"
    }
  },
  {
    "type": "Feature",
    "geometry": {
       "type": "Point",
       "coordinates":  [ 121.59282,25.05323002 ]
    },
    "properties": {
    "場地名稱":"玉成國小地下停車場",
    "行政區":"南港區",
    "地址":"臺北市南港區昆陽街23號",
    "內容":"無障礙廁所、無障礙電梯、無障礙坡道",
    "場所":"停車場"
    }
  },
  {
    "type": "Feature",
    "geometry": {
       "type": "Point",
       "coordinates":  [ 121.6111735,25.05652591 ]
    },
    "properties": {
    "場地名稱":"南港國小地下停車場",
    "行政區":"南港區",
    "地址":"臺北市南港區興東街59號",
    "內容":"無障礙廁所、無障礙電梯、無障礙坡道",
    "場所":"停車場"
    }
  },
  {
    "type": "Feature",
    "geometry": {
       "type": "Point",
       "coordinates":  [ 121.5869613,25.04221251 ]
    },
    "properties": {
    "場地名稱":"玉成公園地下停車場",
    "行政區":"南港區",
    "地址":"臺北市南港區成福路118號地下",
    "內容":"無障礙廁所、無障礙電梯、無障礙坡道",
    "場所":"停車場"
    }
  },
  {
    "type": "Feature",
    "geometry": {
       "type": "Point",
       "coordinates":  [ 121.616232,25.05775101 ]
    },
    "properties": {
    "場地名稱":"南港世貿地下停車場",
    "行政區":"南港區",
    "地址":"臺北市南港區經貿二路88巷1號地下",
    "內容":"無障礙廁所、無障礙電梯、無障礙坡道",
    "場所":"停車場"
    }
  },
  {
    "type": "Feature",
    "geometry": {
       "type": "Point",
       "coordinates":  [ 121.616232,25.05775101 ]
    },
    "properties": {
    "場地名稱":"世貿公園地下停車場",
    "行政區":"南港區",
    "地址":"臺北市南港區經貿二路88巷1號地下",
    "內容":"無障礙廁所、無障礙電梯、無障礙坡道",
    "場所":"停車場"
    }
  },
  {
    "type": "Feature",
    "geometry": {
       "type": "Point",
       "coordinates":  [ 121.505339,25.04404798 ]
    },
    "properties": {
    "場地名稱":"峨眉立體停車場",
    "行政區":"萬華區",
    "地址":"臺北市萬華區峨眉街83號",
    "內容":"無障礙廁所、無障礙電梯、無障礙坡道",
    "場所":"停車場"
    }
  },
  {
    "type": "Feature",
    "geometry": {
       "type": "Point",
       "coordinates":  [ 121.505255,25.04782398 ]
    },
    "properties": {
    "場地名稱":"洛陽立體停車場",
    "行政區":"萬華區",
    "地址":"臺北市萬華區環河南路1段1號",
    "內容":"無障礙廁所、無障礙電梯、無障礙坡道",
    "場所":"停車場"
    }
  },
  {
    "type": "Feature",
    "geometry": {
       "type": "Point",
       "coordinates":  [ 121.510014,25.02395798 ]
    },
    "properties": {
    "場地名稱":"古亭國中地下停車場",
    "行政區":"萬華區",
    "地址":"臺北市萬華區中華路2段606巷1號地下",
    "內容":"無障礙廁所、無障礙電梯、無障礙坡道",
    "場所":"停車場"
    }
  },
  {
    "type": "Feature",
    "geometry": {
       "type": "Point",
       "coordinates":  [ 121.5077538,25.02446819 ]
    },
    "properties": {
    "場地名稱":"青年高球場地下停車場",
    "行政區":"萬華區",
    "地址":"臺北市萬華區國興路5號地下",
    "內容":"無障礙廁所、無障礙電梯、無障礙坡道",
    "場所":"停車場"
    }
  },
  {
    "type": "Feature",
    "geometry": {
       "type": "Point",
       "coordinates":  [ 121.4920543,25.02829872 ]
    },
    "properties": {
    "場地名稱":"雙園國中地下停車場",
    "行政區":"萬華區",
    "地址":"臺北市萬華區西園路2段320巷55弄3號",
    "內容":"無障礙廁所、無障礙電梯、無障礙坡道",
    "場所":"停車場"
    }
  },
  {
    "type": "Feature",
    "geometry": {
       "type": "Point",
       "coordinates":  [ 121.5029656,25.02344618 ]
    },
    "properties": {
    "場地名稱":"青年棒球場地下停車場",
    "行政區":"萬華區",
    "地址":"臺北市萬華區青年路69號地下",
    "內容":"無障礙廁所、無障礙電梯、無障礙坡道",
    "場所":"停車場"
    }
  },
  {
    "type": "Feature",
    "geometry": {
       "type": "Point",
       "coordinates":  [ 121.4914164,25.0284698 ]
    },
    "properties": {
    "場地名稱":"萬板專案地下停車場",
    "行政區":"萬華區",
    "地址":"臺北市萬華區艋舺大道460號地下",
    "內容":"無障礙廁所、無障礙電梯、無障礙坡道",
    "場所":"停車場"
    }
  },
  {
    "type": "Feature",
    "geometry": {
       "type": "Point",
       "coordinates":  [ 121.499562,25.036897 ]
    },
    "properties": {
    "場地名稱":"艋舺公園地下停車場",
    "行政區":"萬華區",
    "地址":"臺北市萬華區西園路1段145號地下",
    "內容":"無障礙廁所、無障礙電梯、無障礙坡道",
    "場所":"停車場"
    }
  },
  {
    "type": "Feature",
    "geometry": {
       "type": "Point",
       "coordinates":  [ 121.4987021,25.0291592 ]
    },
    "properties": {
    "場地名稱":"萬華國中地下停車場",
    "行政區":"萬華區",
    "地址":"臺北市萬華區西藏路201號地下",
    "內容":"無障礙廁所、無障礙電梯、無障礙坡道",
    "場所":"停車場"
    }
  },
  {
    "type": "Feature",
    "geometry": {
       "type": "Point",
       "coordinates":  [ 121.503357,25.03112799 ]
    },
    "properties": {
    "場地名稱":"莒光立體停車場",
    "行政區":"萬華區",
    "地址":"臺北市萬華區莒光路137號",
    "內容":"無障礙廁所、無障礙電梯、無障礙坡道",
    "場所":"停車場"
    }
  },
  {
    "type": "Feature",
    "geometry": {
       "type": "Point",
       "coordinates":  [ 121.494149,25.03342299 ]
    },
    "properties": {
    "場地名稱":"新糖公園地下停車場",
    "行政區":"萬華區",
    "地址":"臺北市萬華區大理街160巷2號地下",
    "內容":"無障礙廁所、無障礙電梯、無障礙坡道",
    "場所":"停車場"
    }
  },
  {
    "type": "Feature",
    "geometry": {
       "type": "Point",
       "coordinates":  [ 121.500324,25.03338201 ]
    },
    "properties": {
    "場地名稱":"萬華車站地下停車場",
    "行政區":"萬華區",
    "地址":"臺北市萬華區康定路382號地下",
    "內容":"無障礙廁所、無障礙電梯、無障礙坡道",
    "場所":"停車場"
    }
  },
  {
    "type": "Feature",
    "geometry": {
       "type": "Point",
       "coordinates":  [ 121.512383,25.066055 ]
    },
    "properties": {
    "場地名稱":"延平國小地下停車場",
    "行政區":"大同區",
    "地址":"臺北市大同區昌吉街97號",
    "內容":"無障礙廁所、無障礙電梯、無障礙坡道",
    "場所":"停車場"
    }
  },
  {
    "type": "Feature",
    "geometry": {
       "type": "Point",
       "coordinates":  [ 121.5747512,25.07853485 ]
    },
    "properties": {
    "場地名稱":"大港墘地下停車場",
    "行政區":"內湖區",
    "地址":"臺北市大同區洲子街18號地下",
    "內容":"無障礙廁所、無障礙電梯、無障礙坡道",
    "場所":"停車場"
    }
  },
  {
    "type": "Feature",
    "geometry": {
       "type": "Point",
       "coordinates":  [ 121.505571,25.02896515 ]
    },
    "properties": {
    "場地名稱":"曉迪筒仔米糕",
    "行政區":"中正區",
    "地址":"台北市中正區中華路二段307巷",
    "內容":"無障礙坡道、無障礙廁所",
    "場所":"餐廳"
    }
  },
  {
    "type": "Feature",
    "geometry": {
       "type": "Point",
       "coordinates":  [ 121.498327,25.03736943 ]
    },
    "properties": {
    "場地名稱":"蒸好吃佛跳牆",
    "行政區":"萬華區",
    "地址":"台北市萬華區華西街觀光夜市185、186攤位",
    "內容":"無障礙坡道、無障礙廁所",
    "場所":"餐廳"
    }
  },
  {
    "type": "Feature",
    "geometry": {
       "type": "Point",
       "coordinates":  [ 121.497496,25.03631098 ]
    },
    "properties": {
    "場地名稱":"原汁排骨湯",
    "行政區":"萬華區",
    "地址":"台北市萬華區梧州街46巷2號",
    "內容":"無障礙坡道、無障礙廁所",
    "場所":"餐廳"
    }
  },
  {
    "type": "Feature",
    "geometry": {
       "type": "Point",
       "coordinates":  [ 121.49859,25.03899801 ]
    },
    "properties": {
    "場地名稱":"阿義魯肉飯",
    "行政區":"萬華區",
    "地址":"台北市萬華區華西街19號",
    "內容":"無障礙坡道、無障礙廁所",
    "場所":"餐廳"
    }
  }
]
}