{
   "type": "FeatureCollection",
   "features": [
  {
    "type": "Feature",
    "geometry": {
       "type": "Point",
       "coordinates":  [ 121.530179987443,25.048670012061 ]
    },
    "properties": {
    "編號":2376,
    "案類":"機車竊盜",
    "發生日期":1140101,
    "發生時段":"23~01",
    "發生地點":"臺北市中山區吉林路1~30號",
    "area":"中山區"
    }
  },
  {
    "type": "Feature",
    "geometry": {
       "type": "Point",
       "coordinates":  [ 121.530179987443,25.048670012061 ]
    },
    "properties": {
    "編號":2377,
    "案類":"機車竊盜",
    "發生日期":1140101,
    "發生時段":"02~04",
    "發生地點":"臺北市中山區吉林路1~30號",
    "area":"中山區"
    }
  },
  {
    "type": "Feature",
    "geometry": {
       "type": "Point",
       "coordinates":  [ 121.520880014413,25.04778798439 ]
    },
    "properties": {
    "編號":2378,
    "案類":"機車竊盜",
    "發生日期":1140105,
    "發生時段":"11~13",
    "發生地點":"臺北市中正區中山北路一段31~60號",
    "area":"中正區"
    }
  },
  {
    "type": "Feature",
    "geometry": {
       "type": "Point",
       "coordinates":  [ 121.540619533269,25.056165620093 ]
    },
    "properties": {
    "編號":2379,
    "案類":"機車竊盜",
    "發生日期":1140107,
    "發生時段":"11~13",
    "發生地點":"臺北市中山區興安街31~60號",
    "area":"中山區"
    }
  },
  {
    "type": "Feature",
    "geometry": {
       "type": "Point",
       "coordinates":  [ 121.518446999378,25.059758012676 ]
    },
    "properties": {
    "編號":2380,
    "案類":"機車竊盜",
    "發生日期":1140107,
    "發生時段":"11~13",
    "發生地點":"臺北市大同區承德路二段211~240號",
    "area":"大同區"
    }
  },
  {
    "type": "Feature",
    "geometry": {
       "type": "Point",
       "coordinates":  [ 121.507561002629,25.116578012293 ]
    },
    "properties": {
    "編號":2381,
    "案類":"機車竊盜",
    "發生日期":1140109,
    "發生時段":"17~19",
    "發生地點":"臺北市北投區尊賢里尊賢街240巷1~30號",
    "area":"北投區"
    }
  },
  {
    "type": "Feature",
    "geometry": {
       "type": "Point",
       "coordinates":  [ 121.567644999161,24.988442014432 ]
    },
    "properties": {
    "編號":2382,
    "案類":"機車竊盜",
    "發生日期":1131119,
    "發生時段":"14~16",
    "發生地點":"臺北市文山區木柵里木柵路3段102巷1~30號",
    "area":"文山區"
    }
  },
  {
    "type": "Feature",
    "geometry": {
       "type": "Point",
       "coordinates":  [ 121.518465532518,25.048332107222 ]
    },
    "properties": {
    "編號":2383,
    "案類":"機車竊盜",
    "發生日期":1140105,
    "發生時段":"11~13",
    "發生地點":"臺北市中正區市民大道一段及承德路一段口",
    "area":"中正區"
    }
  },
  {
    "type": "Feature",
    "geometry": {
       "type": "Point",
       "coordinates":  [ 121.514073992853,25.064398988646 ]
    },
    "properties": {
    "編號":2384,
    "案類":"機車竊盜",
    "發生日期":1140123,
    "發生時段":"14~16",
    "發生地點":"臺北市大同區隆和里重慶北路三段9巷1~30號",
    "area":"大同區"
    }
  },
  {
    "type": "Feature",
    "geometry": {
       "type": "Point",
       "coordinates":  [ 121.56774642019,25.044065204004 ]
    },
    "properties": {
    "編號":2385,
    "案類":"機車竊盜",
    "發生日期":1140204,
    "發生時段":"14~16",
    "發生地點":"臺北市信義區松隆路31~60號",
    "area":"信義區"
    }
  },
  {
    "type": "Feature",
    "geometry": {
       "type": "Point",
       "coordinates":  [ 121.509571988839,25.054827986776 ]
    },
    "properties": {
    "編號":2386,
    "案類":"機車竊盜",
    "發生日期":1140207,
    "發生時段":"17~19",
    "發生地點":"臺北市大同區永樂里迪化街1段46巷18弄1~30號",
    "area":"大同區"
    }
  },
  {
    "type": "Feature",
    "geometry": {
       "type": "Point",
       "coordinates":  [ 121.536790040106,25.062463481474 ]
    },
    "properties": {
    "編號":2387,
    "案類":"機車竊盜",
    "發生日期":1140215,
    "發生時段":"14~16",
    "發生地點":"臺北市中山區建國北路3段與民權東路3段",
    "area":"中山區"
    }
  },
  {
    "type": "Feature",
    "geometry": {
       "type": "Point",
       "coordinates":  [ 121.493291985939,25.028406006763 ]
    },
    "properties": {
    "編號":2388,
    "案類":"機車竊盜",
    "發生日期":1140217,
    "發生時段":"08~10",
    "發生地點":"臺北市萬華區西藏路271~300號",
    "area":"萬華區"
    }
  },
  {
    "type": "Feature",
    "geometry": {
       "type": "Point",
       "coordinates":  [ 121.56911501734,24.9890619819 ]
    },
    "properties": {
    "編號":2389,
    "案類":"機車竊盜",
    "發生日期":1140219,
    "發生時段":"02~04",
    "發生地點":"臺北市文山區開元街1~30號",
    "area":"文山區"
    }
  },
  {
    "type": "Feature",
    "geometry": {
       "type": "Point",
       "coordinates":  [ 121.534778970077,25.044502990807 ]
    },
    "properties": {
    "編號":2390,
    "案類":"機車竊盜",
    "發生日期":1140219,
    "發生時段":"20~22",
    "發生地點":"臺北市大安區民輝里市民大道3段150巷12弄1~30號",
    "area":"大安區"
    }
  },
  {
    "type": "Feature",
    "geometry": {
       "type": "Point",
       "coordinates":  [ 121.510460973489,25.044645986075 ]
    },
    "properties": {
    "編號":2391,
    "案類":"機車竊盜",
    "發生日期":1140221,
    "發生時段":"11~13",
    "發生地點":"臺北市中正區延平南路61~90號",
    "area":"中正區"
    }
  },
  {
    "type": "Feature",
    "geometry": {
       "type": "Point",
       "coordinates":  [ 121.506793974669,25.027919018188 ]
    },
    "properties": {
    "編號":2392,
    "案類":"機車竊盜",
    "發生日期":1140202,
    "發生時段":"02~04",
    "發生地點":"臺北市中正區中華路2段315巷4弄1~30號",
    "area":"中正區"
    }
  },
  {
    "type": "Feature",
    "geometry": {
       "type": "Point",
       "coordinates":  [ 121.555508366085,25.023348334304 ]
    },
    "properties": {
    "編號":2393,
    "案類":"機車竊盜",
    "發生日期":1140225,
    "發生時段":"23~01",
    "發生地點":"臺北市信義區嘉興里信安街31~60號",
    "area":"信義區"
    }
  },
  {
    "type": "Feature",
    "geometry": {
       "type": "Point",
       "coordinates":  [ 121.521059973874,25.057839017854 ]
    },
    "properties": {
    "編號":2394,
    "案類":"機車竊盜",
    "發生日期":1140304,
    "發生時段":"08~10",
    "發生地點":"臺北市中山區民生西路31~60號",
    "area":"中山區"
    }
  },
  {
    "type": "Feature",
    "geometry": {
       "type": "Point",
       "coordinates":  [ 121.570652006925,25.002014997882 ]
    },
    "properties": {
    "編號":2395,
    "案類":"機車竊盜",
    "發生日期":1140304,
    "發生時段":"05~07",
    "發生地點":"臺北市文山區萬芳里022鄰萬安街30巷1~30號",
    "area":"文山區"
    }
  },
  {
    "type": "Feature",
    "geometry": {
       "type": "Point",
       "coordinates":  [ 121.571523976313,25.000177014154 ]
    },
    "properties": {
    "編號":2396,
    "案類":"機車竊盜",
    "發生日期":1140303,
    "發生時段":"23~01",
    "發生地點":"臺北市文山區萬芳里010鄰萬安街37巷1~30號",
    "area":"文山區"
    }
  },
  {
    "type": "Feature",
    "geometry": {
       "type": "Point",
       "coordinates":  [ 121.571107982458,25.000891990494 ]
    },
    "properties": {
    "編號":2397,
    "案類":"機車竊盜",
    "發生日期":1140301,
    "發生時段":"08~10",
    "發生地點":"臺北市文山區萬芳里010鄰萬安街21巷1~30號",
    "area":"文山區"
    }
  },
  {
    "type": "Feature",
    "geometry": {
       "type": "Point",
       "coordinates":  [ 121.571107982458,25.000891990494 ]
    },
    "properties": {
    "編號":2398,
    "案類":"機車竊盜",
    "發生日期":1140303,
    "發生時段":"23~01",
    "發生地點":"臺北市文山區萬芳里010鄰萬安街21巷",
    "area":"文山區"
    }
  },
  {
    "type": "Feature",
    "geometry": {
       "type": "Point",
       "coordinates":  [ 121.506313021065,25.037691982015 ]
    },
    "properties": {
    "編號":2399,
    "案類":"機車竊盜",
    "發生日期":1140305,
    "發生時段":"20~22",
    "發生地點":"臺北市萬華區桂林路1~30號",
    "area":"萬華區"
    }
  },
  {
    "type": "Feature",
    "geometry": {
       "type": "Point",
       "coordinates":  [ 121.517356812883,25.081993096642 ]
    },
    "properties": {
    "編號":2400,
    "案類":"機車竊盜",
    "發生日期":1140306,
    "發生時段":"14~16",
    "發生地點":"臺北市士林區福華里通河東街1段9巷",
    "area":"士林區"
    }
  },
  {
    "type": "Feature",
    "geometry": {
       "type": "Point",
       "coordinates":  [ 121.509799976605,25.079985011872 ]
    },
    "properties": {
    "編號":2401,
    "案類":"機車竊盜",
    "發生日期":1140306,
    "發生時段":"02~04",
    "發生地點":"臺北市士林區富光里16鄰葫蘆街31~60號",
    "area":"士林區"
    }
  },
  {
    "type": "Feature",
    "geometry": {
       "type": "Point",
       "coordinates":  [ 121.507653035926,25.042940017322 ]
    },
    "properties": {
    "編號":2402,
    "案類":"機車竊盜",
    "發生日期":1140307,
    "發生時段":"17~19",
    "發生地點":"臺北市萬華區漢中街121~150號",
    "area":"萬華區"
    }
  },
  {
    "type": "Feature",
    "geometry": {
       "type": "Point",
       "coordinates":  [ 121.498407964361,25.020808985001 ]
    },
    "properties": {
    "編號":2403,
    "案類":"機車竊盜",
    "發生日期":1140308,
    "發生時段":"23~01",
    "發生地點":"臺北市萬華區萬大路451~480號",
    "area":"萬華區"
    }
  },
  {
    "type": "Feature",
    "geometry": {
       "type": "Point",
       "coordinates":  [ 121.531679748294,25.044443332454 ]
    },
    "properties": {
    "編號":2404,
    "案類":"機車竊盜",
    "發生日期":1140309,
    "發生時段":"20~22",
    "發生地點":"臺北市中正區八德路一段43巷",
    "area":"中正區"
    }
  },
  {
    "type": "Feature",
    "geometry": {
       "type": "Point",
       "coordinates":  [ 121.522387583518,25.048055618558 ]
    },
    "properties": {
    "編號":2405,
    "案類":"機車竊盜",
    "發生日期":1140306,
    "發生時段":"05~07",
    "發生地點":"臺北市中山區市民大道二段與天津街口",
    "area":"中山區"
    }
  },
  {
    "type": "Feature",
    "geometry": {
       "type": "Point",
       "coordinates":  [ 121.564279078303,25.063274514425 ]
    },
    "properties": {
    "編號":2406,
    "案類":"機車竊盜",
    "發生日期":1140228,
    "發生時段":"02~04",
    "發生地點":"臺北市松山區民權東路5段1~30號",
    "area":"松山區"
    }
  },
  {
    "type": "Feature",
    "geometry": {
       "type": "Point",
       "coordinates":  [ 121.570694503174,25.001918605995 ]
    },
    "properties": {
    "編號":2407,
    "案類":"機車竊盜",
    "發生日期":1140312,
    "發生時段":"05~07",
    "發生地點":"臺北市文山區萬安街12巷1~30號",
    "area":"文山區"
    }
  },
  {
    "type": "Feature",
    "geometry": {
       "type": "Point",
       "coordinates":  [ 121.580450377424,25.051439370653 ]
    },
    "properties": {
    "編號":2408,
    "案類":"機車竊盜",
    "發生日期":1140312,
    "發生時段":"02~04",
    "發生地點":"臺北市南港區玉成里南港路3段331~360號",
    "area":"南港區"
    }
  },
  {
    "type": "Feature",
    "geometry": {
       "type": "Point",
       "coordinates":  [ 121.500514001353,25.035565996093 ]
    },
    "properties": {
    "編號":2409,
    "案類":"機車竊盜",
    "發生日期":1140312,
    "發生時段":"14~16",
    "發生地點":"臺北市萬華區和平西路3段109巷1~30號",
    "area":"萬華區"
    }
  },
  {
    "type": "Feature",
    "geometry": {
       "type": "Point",
       "coordinates":  [ 121.527517115248,25.095572199466 ]
    },
    "properties": {
    "編號":2410,
    "案類":"機車竊盜",
    "發生日期":1140310,
    "發生時段":"11~13",
    "發生地點":"臺北市士林區中正路151~180號",
    "area":"士林區"
    }
  },
  {
    "type": "Feature",
    "geometry": {
       "type": "Point",
       "coordinates":  [ 121.500953967451,25.03674101319 ]
    },
    "properties": {
    "編號":2411,
    "案類":"機車竊盜",
    "發生日期":1140314,
    "發生時段":"17~19",
    "發生地點":"臺北市萬華區廣州街181~210號",
    "area":"萬華區"
    }
  },
  {
    "type": "Feature",
    "geometry": {
       "type": "Point",
       "coordinates":  [ 121.523797981707,25.046243245811 ]
    },
    "properties": {
    "編號":2412,
    "案類":"機車竊盜",
    "發生日期":1140317,
    "發生時段":"14~16",
    "發生地點":"臺北市中正區林森北路與忠孝東路口",
    "area":"中正區"
    }
  },
  {
    "type": "Feature",
    "geometry": {
       "type": "Point",
       "coordinates":  [ 121.485889404336,25.104349232917 ]
    },
    "properties": {
    "編號":2413,
    "案類":"機車竊盜",
    "發生日期":1140321,
    "發生時段":"08~10",
    "發生地點":"臺北市士林區延平北路八段31~60號",
    "area":"士林區"
    }
  },
  {
    "type": "Feature",
    "geometry": {
       "type": "Point",
       "coordinates":  [ 121.512481012155,25.052573003365 ]
    },
    "properties": {
    "編號":2414,
    "案類":"機車竊盜",
    "發生日期":1140325,
    "發生時段":"08~10",
    "發生地點":"臺北市大同區天水路61~90號",
    "area":"大同區"
    }
  },
  {
    "type": "Feature",
    "geometry": {
       "type": "Point",
       "coordinates":  [ 121.564742094634,25.0708020083 ]
    },
    "properties": {
    "編號":2415,
    "案類":"機車竊盜",
    "發生日期":1140326,
    "發生時段":"20~22",
    "發生地點":"臺北市松山區撫遠街451~480號",
    "area":"松山區"
    }
  },
  {
    "type": "Feature",
    "geometry": {
       "type": "Point",
       "coordinates":  [ 121.547429022169,25.138044988335 ]
    },
    "properties": {
    "編號":2416,
    "案類":"機車竊盜",
    "發生日期":1140324,
    "發生時段":"08~10",
    "發生地點":"臺北市士林區菁山路34巷1~30號",
    "area":"士林區"
    }
  },
  {
    "type": "Feature",
    "geometry": {
       "type": "Point",
       "coordinates":  [ 121.511661429662,25.089065211401 ]
    },
    "properties": {
    "編號":2417,
    "案類":"機車竊盜",
    "發生日期":1140330,
    "發生時段":"11~13",
    "發生地點":"臺北市士林區通河西街二段與社正路",
    "area":"士林區"
    }
  },
  {
    "type": "Feature",
    "geometry": {
       "type": "Point",
       "coordinates":  [ 121.503857039615,25.043424994239 ]
    },
    "properties": {
    "編號":2418,
    "案類":"機車竊盜",
    "發生日期":1140402,
    "發生時段":"08~10",
    "發生地點":"臺北市萬華區成都路121~150號",
    "area":"萬華區"
    }
  },
  {
    "type": "Feature",
    "geometry": {
       "type": "Point",
       "coordinates":  [ 121.526530627437,25.030543256018 ]
    },
    "properties": {
    "編號":2419,
    "案類":"機車竊盜",
    "發生日期":1140403,
    "發生時段":"11~13",
    "發生地點":"臺北市大安區光明里金山南路2段1~30號",
    "area":"大安區"
    }
  },
  {
    "type": "Feature",
    "geometry": {
       "type": "Point",
       "coordinates":  [ 121.562789027376,24.981300004284 ]
    },
    "properties": {
    "編號":2420,
    "案類":"機車竊盜",
    "發生日期":1140408,
    "發生時段":"08~10",
    "發生地點":"臺北市文山區樟腳里012鄰木新路3段95巷31~60號",
    "area":"文山區"
    }
  },
  {
    "type": "Feature",
    "geometry": {
       "type": "Point",
       "coordinates":  [ 121.498200781089,25.034336620335 ]
    },
    "properties": {
    "編號":2421,
    "案類":"機車竊盜",
    "發生日期":1140410,
    "發生時段":"23~01",
    "發生地點":"臺北市萬華區大理街",
    "area":"萬華區"
    }
  },
  {
    "type": "Feature",
    "geometry": {
       "type": "Point",
       "coordinates":  [ 121.524829064275,25.118485607728 ]
    },
    "properties": {
    "編號":2422,
    "案類":"機車竊盜",
    "發生日期":1140412,
    "發生時段":"08~10",
    "發生地點":"臺北市士林區天母西路85號與天母西路83巷",
    "area":"士林區"
    }
  },
  {
    "type": "Feature",
    "geometry": {
       "type": "Point",
       "coordinates":  [ 121.56067896707,25.017829008874 ]
    },
    "properties": {
    "編號":2423,
    "案類":"機車竊盜",
    "發生日期":1140412,
    "發生時段":"05~07",
    "發生地點":"臺北市信義區和平東路三段509巷7弄1~30號",
    "area":"信義區"
    }
  },
  {
    "type": "Feature",
    "geometry": {
       "type": "Point",
       "coordinates":  [ 121.564279078303,25.063274514425 ]
    },
    "properties": {
    "編號":2424,
    "案類":"機車竊盜",
    "發生日期":1140410,
    "發生時段":"11~13",
    "發生地點":"臺北市松山區民權東路5段1~30號",
    "area":"松山區"
    }
  },
  {
    "type": "Feature",
    "geometry": {
       "type": "Point",
       "coordinates":  [ 121.53298467676,25.059121146832 ]
    },
    "properties": {
    "編號":2425,
    "案類":"機車竊盜",
    "發生日期":1140416,
    "發生時段":"11~13",
    "發生地點":"臺北市中山區松江路252巷1~30號前",
    "area":"中山區"
    }
  },
  {
    "type": "Feature",
    "geometry": {
       "type": "Point",
       "coordinates":  [ 121.498365088165,25.033592924698 ]
    },
    "properties": {
    "編號":2426,
    "案類":"機車竊盜",
    "發生日期":1140416,
    "發生時段":"11~13",
    "發生地點":"臺北市萬華區西園路1段306巷1~30號",
    "area":"萬華區"
    }
  },
  {
    "type": "Feature",
    "geometry": {
       "type": "Point",
       "coordinates":  [ 121.507410602756,25.026563955221 ]
    },
    "properties": {
    "編號":2427,
    "案類":"機車竊盜",
    "發生日期":1140417,
    "發生時段":"17~19",
    "發生地點":"臺北市中正區中華路2段361~390號",
    "area":"中正區"
    }
  },
  {
    "type": "Feature",
    "geometry": {
       "type": "Point",
       "coordinates":  [ 121.563871969266,24.988392016379 ]
    },
    "properties": {
    "編號":2428,
    "案類":"機車竊盜",
    "發生日期":1140416,
    "發生時段":"23~01",
    "發生地點":"臺北市文山區木柵里木柵路2段204巷1~30號",
    "area":"文山區"
    }
  },
  {
    "type": "Feature",
    "geometry": {
       "type": "Point",
       "coordinates":  [ 121.616589027278,25.053726981885 ]
    },
    "properties": {
    "編號":2429,
    "案類":"機車竊盜",
    "發生日期":1140417,
    "發生時段":"14~16",
    "發生地點":"臺北市南港區新富里研究院路1段31~60號",
    "area":"南港區"
    }
  },
  {
    "type": "Feature",
    "geometry": {
       "type": "Point",
       "coordinates":  [ 121.558044031988,25.048319019865 ]
    },
    "properties": {
    "編號":2430,
    "案類":"機車竊盜",
    "發生日期":1140125,
    "發生時段":"20~22",
    "發生地點":"臺北市松山區八德路4段1~30號",
    "area":"松山區"
    }
  },
  {
    "type": "Feature",
    "geometry": {
       "type": "Point",
       "coordinates":  [ 121.491419971684,25.026839009964 ]
    },
    "properties": {
    "編號":2431,
    "案類":"機車竊盜",
    "發生日期":1140421,
    "發生時段":"02~04",
    "發生地點":"臺北市萬華區西園路2段320巷36弄1~30號",
    "area":"萬華區"
    }
  },
  {
    "type": "Feature",
    "geometry": {
       "type": "Point",
       "coordinates":  [ 121.573742034739,25.047378997535 ]
    },
    "properties": {
    "編號":2432,
    "案類":"機車竊盜",
    "發生日期":1140422,
    "發生時段":"14~16",
    "發生地點":"臺北市信義區永吉路225巷52弄",
    "area":"信義區"
    }
  },
  {
    "type": "Feature",
    "geometry": {
       "type": "Point",
       "coordinates":  [ 121.496580960926,25.031702986467 ]
    },
    "properties": {
    "編號":4028,
    "案類":"住宅竊盜",
    "發生日期":1140106,
    "發生時段":"17~19",
    "發生地點":"臺北市萬華區西園路二段52巷12弄1~30號",
    "area":"萬華區"
    }
  },
  {
    "type": "Feature",
    "geometry": {
       "type": "Point",
       "coordinates":  [ 121.552739963658,25.03616098549 ]
    },
    "properties": {
    "編號":4029,
    "案類":"住宅竊盜",
    "發生日期":1140104,
    "發生時段":"02~04",
    "發生地點":"臺北市大安區敦煌里安和路1段91~120號",
    "area":"大安區"
    }
  },
  {
    "type": "Feature",
    "geometry": {
       "type": "Point",
       "coordinates":  [ 121.584970979758,25.068385002701 ]
    },
    "properties": {
    "編號":4030,
    "案類":"住宅竊盜",
    "發生日期":1140109,
    "發生時段":"23~01",
    "發生地點":"臺北市內湖區民權東路六段56巷1弄1~30號",
    "area":"內湖區"
    }
  },
  {
    "type": "Feature",
    "geometry": {
       "type": "Point",
       "coordinates":  [ 121.501956023975,25.01999099507 ]
    },
    "properties": {
    "編號":4031,
    "案類":"住宅竊盜",
    "發生日期":1140105,
    "發生時段":"17~19",
    "發生地點":"臺北市萬華區青年路168巷31~60號",
    "area":"萬華區"
    }
  },
  {
    "type": "Feature",
    "geometry": {
       "type": "Point",
       "coordinates":  [ 121.535138732975,25.013839195296 ]
    },
    "properties": {
    "編號":4032,
    "案類":"住宅竊盜",
    "發生日期":1140110,
    "發生時段":"11~13",
    "發生地點":"臺北市中正區羅斯福路四段151~180號",
    "area":"中正區"
    }
  },
  {
    "type": "Feature",
    "geometry": {
       "type": "Point",
       "coordinates":  [ 121.584909037494,25.077052980232 ]
    },
    "properties": {
    "編號":4033,
    "案類":"住宅竊盜",
    "發生日期":1140105,
    "發生時段":"20~22",
    "發生地點":"臺北市內湖區文德路210巷30弄31~60號",
    "area":"內湖區"
    }
  },
  {
    "type": "Feature",
    "geometry": {
       "type": "Point",
       "coordinates":  [ 121.528077973764,25.065979019304 ]
    },
    "properties": {
    "編號":4034,
    "案類":"住宅竊盜",
    "發生日期":1140115,
    "發生時段":"11~13",
    "發生地點":"臺北市中山區新生北路3段61~90號",
    "area":"中山區"
    }
  },
  {
    "type": "Feature",
    "geometry": {
       "type": "Point",
       "coordinates":  [ 121.548378775617,25.082821405997 ]
    },
    "properties": {
    "編號":4035,
    "案類":"住宅竊盜",
    "發生日期":1140103,
    "發生時段":"14~16",
    "發生地點":"臺北市中山區北安路621巷6弄1~30號",
    "area":"中山區"
    }
  },
  {
    "type": "Feature",
    "geometry": {
       "type": "Point",
       "coordinates":  [ 121.51731100004,25.082136981693 ]
    },
    "properties": {
    "編號":4036,
    "案類":"住宅竊盜",
    "發生日期":1140115,
    "發生時段":"08~10",
    "發生地點":"臺北市士林區通河東街1段9巷1~30號",
    "area":"士林區"
    }
  },
  {
    "type": "Feature",
    "geometry": {
       "type": "Point",
       "coordinates":  [ 121.553475978576,24.988150994754 ]
    },
    "properties": {
    "編號":4037,
    "案類":"住宅竊盜",
    "發生日期":1140117,
    "發生時段":"11~13",
    "發生地點":"臺北市文山區華興里木柵路1段271~300號",
    "area":"文山區"
    }
  },
  {
    "type": "Feature",
    "geometry": {
       "type": "Point",
       "coordinates":  [ 121.530144029078,25.038470996096 ]
    },
    "properties": {
    "編號":4038,
    "案類":"住宅竊盜",
    "發生日期":1140116,
    "發生時段":"14~16",
    "發生地點":"臺北市中正區仁愛路2段61~90號",
    "area":"中正區"
    }
  },
  {
    "type": "Feature",
    "geometry": {
       "type": "Point",
       "coordinates":  [ 121.50152417013,25.134264478418 ]
    },
    "properties": {
    "編號":4039,
    "案類":"住宅竊盜",
    "發生日期":1131130,
    "發生時段":"08~10",
    "發生地點":"臺北市北投區長安里光明路131巷",
    "area":"北投區"
    }
  },
  {
    "type": "Feature",
    "geometry": {
       "type": "Point",
       "coordinates":  [ 121.516334005406,25.044203002492 ]
    },
    "properties": {
    "編號":4040,
    "案類":"住宅竊盜",
    "發生日期":1140117,
    "發生時段":"20~22",
    "發生地點":"臺北市中正區南陽街17巷1~30號",
    "area":"中正區"
    }
  },
  {
    "type": "Feature",
    "geometry": {
       "type": "Point",
       "coordinates":  [ 121.564882994427,25.05286599279 ]
    },
    "properties": {
    "編號":4041,
    "案類":"住宅竊盜",
    "發生日期":1140122,
    "發生時段":"20~22",
    "發生地點":"臺北市松山區南京東路5段251巷32弄1~30號",
    "area":"松山區"
    }
  },
  {
    "type": "Feature",
    "geometry": {
       "type": "Point",
       "coordinates":  [ 121.496823279926,25.019191631827 ]
    },
    "properties": {
    "編號":4042,
    "案類":"住宅竊盜",
    "發生日期":1140108,
    "發生時段":"17~19",
    "發生地點":"臺北市萬華區萬大路506巷1~30號",
    "area":"萬華區"
    }
  },
  {
    "type": "Feature",
    "geometry": {
       "type": "Point",
       "coordinates":  [ 121.514096959268,25.057136991554 ]
    },
    "properties": {
    "編號":4043,
    "案類":"住宅竊盜",
    "發生日期":1140125,
    "發生時段":"23~01",
    "發生地點":"臺北市大同區朝陽里民生西路271~300號",
    "area":"大同區"
    }
  },
  {
    "type": "Feature",
    "geometry": {
       "type": "Point",
       "coordinates":  [ 121.488874356393,25.032279018792 ]
    },
    "properties": {
    "編號":4044,
    "案類":"住宅竊盜",
    "發生日期":1140126,
    "發生時段":"08~10",
    "發生地點":"臺北市萬華區長順街60巷31~60號",
    "area":"萬華區"
    }
  },
  {
    "type": "Feature",
    "geometry": {
       "type": "Point",
       "coordinates":  [ 121.483446015736,25.104262020953 ]
    },
    "properties": {
    "編號":4045,
    "案類":"住宅竊盜",
    "發生日期":1140128,
    "發生時段":"05~07",
    "發生地點":"臺北市士林區富洲里延平北路八段133巷31~60號",
    "area":"士林區"
    }
  },
  {
    "type": "Feature",
    "geometry": {
       "type": "Point",
       "coordinates":  [ 121.516011972686,25.068960001259 ]
    },
    "properties": {
    "編號":4046,
    "案類":"住宅竊盜",
    "發生日期":1140121,
    "發生時段":"20~22",
    "發生地點":"臺北市大同區至聖里大龍街181~210號",
    "area":"大同區"
    }
  },
  {
    "type": "Feature",
    "geometry": {
       "type": "Point",
       "coordinates":  [ 121.522461008989,25.0575710065 ]
    },
    "properties": {
    "編號":4047,
    "案類":"住宅竊盜",
    "發生日期":1140128,
    "發生時段":"20~22",
    "發生地點":"臺北市中山區中山北路二段84巷1~30號",
    "area":"中山區"
    }
  },
  {
    "type": "Feature",
    "geometry": {
       "type": "Point",
       "coordinates":  [ 121.517698998338,25.107344004841 ]
    },
    "properties": {
    "編號":4048,
    "案類":"住宅竊盜",
    "發生日期":1140129,
    "發生時段":"17~19",
    "發生地點":"臺北市北投區文林里明德路31~60號",
    "area":"北投區"
    }
  },
  {
    "type": "Feature",
    "geometry": {
       "type": "Point",
       "coordinates":  [ 121.551618967928,24.999511993956 ]
    },
    "properties": {
    "編號":4049,
    "案類":"住宅竊盜",
    "發生日期":1140130,
    "發生時段":"17~19",
    "發生地點":"臺北市文山區興業里興隆路二段220巷55弄1~30號",
    "area":"文山區"
    }
  },
  {
    "type": "Feature",
    "geometry": {
       "type": "Point",
       "coordinates":  [ 121.565791005998,25.041734993012 ]
    },
    "properties": {
    "編號":4050,
    "案類":"住宅竊盜",
    "發生日期":1140125,
    "發生時段":"05~07",
    "發生地點":"臺北市信義區忠孝東路5段31巷18弄1~30號",
    "area":"信義區"
    }
  },
  {
    "type": "Feature",
    "geometry": {
       "type": "Point",
       "coordinates":  [ 121.520080967583,25.11612300068 ]
    },
    "properties": {
    "編號":4051,
    "案類":"住宅竊盜",
    "發生日期":1140131,
    "發生時段":"20~22",
    "發生地點":"臺北市北投區振華里明德路333巷1~30號",
    "area":"北投區"
    }
  },
  {
    "type": "Feature",
    "geometry": {
       "type": "Point",
       "coordinates":  [ 121.507814974295,25.026555995004 ]
    },
    "properties": {
    "編號":4052,
    "案類":"住宅竊盜",
    "發生日期":1140202,
    "發生時段":"17~19",
    "發生地點":"臺北市中正區中華路二段381巷1~30號",
    "area":"中正區"
    }
  },
  {
    "type": "Feature",
    "geometry": {
       "type": "Point",
       "coordinates":  [ 121.582852034635,25.040267992318 ]
    },
    "properties": {
    "編號":4053,
    "案類":"住宅竊盜",
    "發生日期":1140202,
    "發生時段":"17~19",
    "發生地點":"臺北市信義區大道里大道路91~120號",
    "area":"信義區"
    }
  },
  {
    "type": "Feature",
    "geometry": {
       "type": "Point",
       "coordinates":  [ 121.541527994695,25.04208401546 ]
    },
    "properties": {
    "編號":4054,
    "案類":"住宅竊盜",
    "發生日期":1140205,
    "發生時段":"17~19",
    "發生地點":"臺北市大安區忠孝東路3段251巷2弄1~30號",
    "area":"大安區"
    }
  },
  {
    "type": "Feature",
    "geometry": {
       "type": "Point",
       "coordinates":  [ 121.573200021672,25.00115899602 ]
    },
    "properties": {
    "編號":4055,
    "案類":"住宅竊盜",
    "發生日期":1140124,
    "發生時段":"11~13",
    "發生地點":"臺北市文山區和平東路4段295巷1~30號",
    "area":"文山區"
    }
  },
  {
    "type": "Feature",
    "geometry": {
       "type": "Point",
       "coordinates":  [ 121.565791005998,25.041734993012 ]
    },
    "properties": {
    "編號":4056,
    "案類":"住宅竊盜",
    "發生日期":1140207,
    "發生時段":"23~01",
    "發生地點":"臺北市信義區忠孝東路5段31巷18弄1~30號",
    "area":"信義區"
    }
  },
  {
    "type": "Feature",
    "geometry": {
       "type": "Point",
       "coordinates":  [ 121.563199992088,25.049262989801 ]
    },
    "properties": {
    "編號":4057,
    "案類":"住宅竊盜",
    "發生日期":1140206,
    "發生時段":"08~10",
    "發生地點":"臺北市松山區八德路4段181巷17弄1~30號",
    "area":"松山區"
    }
  },
  {
    "type": "Feature",
    "geometry": {
       "type": "Point",
       "coordinates":  [ 121.534629212897,25.067336934773 ]
    },
    "properties": {
    "編號":4058,
    "案類":"住宅竊盜",
    "發生日期":1140129,
    "發生時段":"14~16",
    "發生地點":"臺北市中山區建國北路三段151~180號",
    "area":"中山區"
    }
  },
  {
    "type": "Feature",
    "geometry": {
       "type": "Point",
       "coordinates":  [ 121.521775034034,25.114847987478 ]
    },
    "properties": {
    "編號":4059,
    "案類":"住宅竊盜",
    "發生日期":1140209,
    "發生時段":"14~16",
    "發生地點":"臺北市北投區振華里明德路289巷1~30號",
    "area":"北投區"
    }
  },
  {
    "type": "Feature",
    "geometry": {
       "type": "Point",
       "coordinates":  [ 121.470174026429,25.107786988424 ]
    },
    "properties": {
    "編號":4060,
    "案類":"住宅竊盜",
    "發生日期":1140109,
    "發生時段":"11~13",
    "發生地點":"臺北市士林區延平北路9段243巷31~60號",
    "area":"士林區"
    }
  },
  {
    "type": "Feature",
    "geometry": {
       "type": "Point",
       "coordinates":  [ 121.49439303274,25.023038990341 ]
    },
    "properties": {
    "編號":4061,
    "案類":"住宅竊盜",
    "發生日期":1140216,
    "發生時段":"02~04",
    "發生地點":"臺北市萬華區德昌街185巷12弄1~30號",
    "area":"萬華區"
    }
  },
  {
    "type": "Feature",
    "geometry": {
       "type": "Point",
       "coordinates":  [ 121.520609027483,25.103386992171 ]
    },
    "properties": {
    "編號":4062,
    "案類":"住宅竊盜",
    "發生日期":1140216,
    "發生時段":"02~04",
    "發生地點":"臺北市士林區文林路740巷9弄1~30號",
    "area":"士林區"
    }
  },
  {
    "type": "Feature",
    "geometry": {
       "type": "Point",
       "coordinates":  [ 121.527990969609,25.062887019041 ]
    },
    "properties": {
    "編號":4063,
    "案類":"住宅竊盜",
    "發生日期":1140209,
    "發生時段":"11~13",
    "發生地點":"臺北市中山區新生北路3段1~30號",
    "area":"中山區"
    }
  },
  {
    "type": "Feature",
    "geometry": {
       "type": "Point",
       "coordinates":  [ 121.482856631661,25.104674873562 ]
    },
    "properties": {
    "編號":4064,
    "案類":"住宅竊盜",
    "發生日期":1140220,
    "發生時段":"02~04",
    "發生地點":"臺北市士林區延平北路八段133巷",
    "area":"士林區"
    }
  },
  {
    "type": "Feature",
    "geometry": {
       "type": "Point",
       "coordinates":  [ 121.533766017078,25.125448999519 ]
    },
    "properties": {
    "編號":4065,
    "案類":"住宅竊盜",
    "發生日期":1140219,
    "發生時段":"11~13",
    "發生地點":"臺北市士林區天母里1鄰中山北路7段190巷91~120號",
    "area":"士林區"
    }
  },
  {
    "type": "Feature",
    "geometry": {
       "type": "Point",
       "coordinates":  [ 121.544119008604,25.039121012687 ]
    },
    "properties": {
    "編號":4066,
    "案類":"住宅竊盜",
    "發生日期":1140115,
    "發生時段":"14~16",
    "發生地點":"臺北市大安區仁愛里復興南路1段219巷1~30號",
    "area":"大安區"
    }
  },
  {
    "type": "Feature",
    "geometry": {
       "type": "Point",
       "coordinates":  [ 121.55889999194,24.98884899774 ]
    },
    "properties": {
    "編號":4067,
    "案類":"住宅竊盜",
    "發生日期":1140119,
    "發生時段":"17~19",
    "發生地點":"臺北市文山區明義里木柵路2段2巷1~30號",
    "area":"文山區"
    }
  },
  {
    "type": "Feature",
    "geometry": {
       "type": "Point",
       "coordinates":  [ 121.592660034817,25.069781008675 ]
    },
    "properties": {
    "編號":4068,
    "案類":"住宅竊盜",
    "發生日期":1140206,
    "發生時段":"14~16",
    "發生地點":"臺北市內湖區民權東路六段123巷20弄1~30號",
    "area":"內湖區"
    }
  },
  {
    "type": "Feature",
    "geometry": {
       "type": "Point",
       "coordinates":  [ 121.481432012041,25.105822018863 ]
    },
    "properties": {
    "編號":4069,
    "案類":"住宅竊盜",
    "發生日期":1140225,
    "發生時段":"02~04",
    "發生地點":"臺北市士林區福安里11鄰延平北路8段181~210號",
    "area":"士林區"
    }
  },
  {
    "type": "Feature",
    "geometry": {
       "type": "Point",
       "coordinates":  [ 121.533122035457,25.039035014361 ]
    },
    "properties": {
    "編號":4070,
    "案類":"住宅竊盜",
    "發生日期":1140226,
    "發生時段":"14~16",
    "發生地點":"臺北市中正區新生南路一段121~150號",
    "area":"中正區"
    }
  },
  {
    "type": "Feature",
    "geometry": {
       "type": "Point",
       "coordinates":  [ 121.523339013347,25.089849003167 ]
    },
    "properties": {
    "編號":4071,
    "案類":"住宅竊盜",
    "發生日期":1140225,
    "發生時段":"20~22",
    "發生地點":"臺北市士林區小西街31~60號",
    "area":"士林區"
    }
  },
  {
    "type": "Feature",
    "geometry": {
       "type": "Point",
       "coordinates":  [ 121.522754482543,25.036419368347 ]
    },
    "properties": {
    "編號":4072,
    "案類":"住宅竊盜",
    "發生日期":1140301,
    "發生時段":"05~07",
    "發生地點":"臺北市中正區信義路一段1~30號",
    "area":"中正區"
    }
  },
  {
    "type": "Feature",
    "geometry": {
       "type": "Point",
       "coordinates":  [ 121.539041000204,25.11031601816 ]
    },
    "properties": {
    "編號":4073,
    "案類":"住宅竊盜",
    "發生日期":1140222,
    "發生時段":"08~10",
    "發生地點":"臺北市士林區德行東路358巷14弄1~30號",
    "area":"士林區"
    }
  },
  {
    "type": "Feature",
    "geometry": {
       "type": "Point",
       "coordinates":  [ 121.5051632427,25.044011063058 ]
    },
    "properties": {
    "編號":4074,
    "案類":"住宅竊盜",
    "發生日期":1140303,
    "發生時段":"14~16",
    "發生地點":"臺北市萬華區峨眉街91~120號",
    "area":"萬華區"
    }
  },
  {
    "type": "Feature",
    "geometry": {
       "type": "Point",
       "coordinates":  [ 121.58840388367,25.053144416877 ]
    },
    "properties": {
    "編號":4075,
    "案類":"住宅竊盜",
    "發生日期":1140227,
    "發生時段":"17~19",
    "發生地點":"臺北市南港區南港路3段130巷2弄1~30號",
    "area":"南港區"
    }
  },
  {
    "type": "Feature",
    "geometry": {
       "type": "Point",
       "coordinates":  [ 121.539020876457,25.054642835121 ]
    },
    "properties": {
    "編號":4076,
    "案類":"住宅竊盜",
    "發生日期":1140305,
    "發生時段":"14~16",
    "發生地點":"臺北市中山區長春路258巷22巷1~30號",
    "area":"中山區"
    }
  },
  {
    "type": "Feature",
    "geometry": {
       "type": "Point",
       "coordinates":  [ 121.522211982646,25.081007981245 ]
    },
    "properties": {
    "編號":4077,
    "案類":"住宅竊盜",
    "發生日期":1140306,
    "發生時段":"05~07",
    "發生地點":"臺北市士林區承德路四段40巷1~30號",
    "area":"士林區"
    }
  },
  {
    "type": "Feature",
    "geometry": {
       "type": "Point",
       "coordinates":  [ 121.521901014038,25.081237980668 ]
    },
    "properties": {
    "編號":4078,
    "案類":"住宅竊盜",
    "發生日期":1140306,
    "發生時段":"20~22",
    "發生地點":"臺北市士林區福華里承德路四段40巷31~60號",
    "area":"士林區"
    }
  },
  {
    "type": "Feature",
    "geometry": {
       "type": "Point",
       "coordinates":  [ 121.5828510542,25.027031025013 ]
    },
    "properties": {
    "編號":4079,
    "案類":"住宅竊盜",
    "發生日期":1140127,
    "發生時段":"14~16",
    "發生地點":"臺北市信義區松光里松山路511~540號",
    "area":"信義區"
    }
  },
  {
    "type": "Feature",
    "geometry": {
       "type": "Point",
       "coordinates":  [ 121.542770025107,25.050440018554 ]
    },
    "properties": {
    "編號":4080,
    "案類":"住宅竊盜",
    "發生日期":1140307,
    "發生時段":"05~07",
    "發生地點":"臺北市中山區遼寧街101巷2弄1~30號",
    "area":"中山區"
    }
  },
  {
    "type": "Feature",
    "geometry": {
       "type": "Point",
       "coordinates":  [ 121.539232625516,25.00041573786 ]
    },
    "properties": {
    "編號":4081,
    "案類":"住宅竊盜",
    "發生日期":1140312,
    "發生時段":"17~19",
    "發生地點":"臺北市文山區萬隆里萬隆街1~30號",
    "area":"文山區"
    }
  },
  {
    "type": "Feature",
    "geometry": {
       "type": "Point",
       "coordinates":  [ 121.610030784688,25.057834463061 ]
    },
    "properties": {
    "編號":4082,
    "案類":"住宅竊盜",
    "發生日期":1140310,
    "發生時段":"23~01",
    "發生地點":"臺北市南港區三重里惠民街61~90號",
    "area":"南港區"
    }
  },
  {
    "type": "Feature",
    "geometry": {
       "type": "Point",
       "coordinates":  [ 121.504973006204,25.087315992027 ]
    },
    "properties": {
    "編號":4083,
    "案類":"住宅竊盜",
    "發生日期":1131218,
    "發生時段":"05~07",
    "發生地點":"臺北市士林區社新里024鄰社子街112巷17弄1~30號",
    "area":"士林區"
    }
  },
  {
    "type": "Feature",
    "geometry": {
       "type": "Point",
       "coordinates":  [ 121.523357872629,25.044426380212 ]
    },
    "properties": {
    "編號":4084,
    "案類":"住宅竊盜",
    "發生日期":1130603,
    "發生時段":"08~10",
    "發生地點":"臺北市中正區林森南路1~30號",
    "area":"中正區"
    }
  },
  {
    "type": "Feature",
    "geometry": {
       "type": "Point",
       "coordinates":  [ 121.544968011577,24.995511982122 ]
    },
    "properties": {
    "編號":4085,
    "案類":"住宅竊盜",
    "發生日期":1140313,
    "發生時段":"14~16",
    "發生地點":"臺北市文山區景興路97巷1~30號",
    "area":"文山區"
    }
  },
  {
    "type": "Feature",
    "geometry": {
       "type": "Point",
       "coordinates":  [ 121.519017200094,25.116389173378 ]
    },
    "properties": {
    "編號":4086,
    "案類":"住宅竊盜",
    "發生日期":1140318,
    "發生時段":"08~10",
    "發生地點":"臺北市北投區振華里明德路333巷",
    "area":"北投區"
    }
  },
  {
    "type": "Feature",
    "geometry": {
       "type": "Point",
       "coordinates":  [ 121.529757958618,25.118520979359 ]
    },
    "properties": {
    "編號":4087,
    "案類":"住宅竊盜",
    "發生日期":1140130,
    "發生時段":"14~16",
    "發生地點":"臺北市士林區天壽里天母西路50巷1~30號",
    "area":"士林區"
    }
  },
  {
    "type": "Feature",
    "geometry": {
       "type": "Point",
       "coordinates":  [ 121.523172597278,25.053915391053 ]
    },
    "properties": {
    "編號":4088,
    "案類":"住宅竊盜",
    "發生日期":1140321,
    "發生時段":"23~01",
    "發生地點":"臺北市中山區中山北路2段39巷1~30號",
    "area":"中山區"
    }
  },
  {
    "type": "Feature",
    "geometry": {
       "type": "Point",
       "coordinates":  [ 121.55784303395,25.019825997306 ]
    },
    "properties": {
    "編號":4089,
    "案類":"住宅竊盜",
    "發生日期":1140320,
    "發生時段":"14~16",
    "發生地點":"臺北市信義區黎忠里和平東路3段391巷1~30號",
    "area":"信義區"
    }
  },
  {
    "type": "Feature",
    "geometry": {
       "type": "Point",
       "coordinates":  [ 121.578180967634,25.037165011762 ]
    },
    "properties": {
    "編號":4090,
    "案類":"住宅竊盜",
    "發生日期":1140317,
    "發生時段":"14~16",
    "發生地點":"臺北市信義區松山路541~570號",
    "area":"信義區"
    }
  },
  {
    "type": "Feature",
    "geometry": {
       "type": "Point",
       "coordinates":  [ 121.506633964137,25.027468993807 ]
    },
    "properties": {
    "編號":4091,
    "案類":"住宅竊盜",
    "發生日期":1140309,
    "發生時段":"23~01",
    "發生地點":"臺北市萬華區中華路2段331~360號",
    "area":"萬華區"
    }
  },
  {
    "type": "Feature",
    "geometry": {
       "type": "Point",
       "coordinates":  [ 121.519210004024,25.053489019654 ]
    },
    "properties": {
    "編號":4092,
    "案類":"住宅竊盜",
    "發生日期":1140324,
    "發生時段":"05~07",
    "發生地點":"臺北市大同區光能里赤峰街8巷1~30號",
    "area":"大同區"
    }
  },
  {
    "type": "Feature",
    "geometry": {
       "type": "Point",
       "coordinates":  [ 121.547657340136,25.063925594675 ]
    },
    "properties": {
    "編號":4093,
    "案類":"住宅竊盜",
    "發生日期":1140324,
    "發生時段":"20~22",
    "發生地點":"臺北市松山區民族東路661~690號",
    "area":"松山區"
    }
  },
  {
    "type": "Feature",
    "geometry": {
       "type": "Point",
       "coordinates":  [ 121.568683462424,25.042777065443 ]
    },
    "properties": {
    "編號":4094,
    "案類":"住宅竊盜",
    "發生日期":1121001,
    "發生時段":"11~13",
    "發生地點":"臺北市信義區興雅里永吉路30巷148弄1~30號",
    "area":"信義區"
    }
  },
  {
    "type": "Feature",
    "geometry": {
       "type": "Point",
       "coordinates":  [ 121.521314029359,25.079194011669 ]
    },
    "properties": {
    "編號":4095,
    "案類":"住宅竊盜",
    "發生日期":1140325,
    "發生時段":"08~10",
    "發生地點":"臺北市士林區承德路四段6巷1~30號",
    "area":"士林區"
    }
  },
  {
    "type": "Feature",
    "geometry": {
       "type": "Point",
       "coordinates":  [ 121.519518038966,25.054905016466 ]
    },
    "properties": {
    "編號":4096,
    "案類":"住宅竊盜",
    "發生日期":1140404,
    "發生時段":"20~22",
    "發生地點":"臺北市大同區光能里赤峰街12巷1~30號",
    "area":"大同區"
    }
  },
  {
    "type": "Feature",
    "geometry": {
       "type": "Point",
       "coordinates":  [ 121.50802401896,25.02497298877 ]
    },
    "properties": {
    "編號":4097,
    "案類":"住宅竊盜",
    "發生日期":1140329,
    "發生時段":"23~01",
    "發生地點":"臺北市萬華區中華路2段504巷61~90號",
    "area":"萬華區"
    }
  },
  {
    "type": "Feature",
    "geometry": {
       "type": "Point",
       "coordinates":  [ 121.530679700388,25.118882696009 ]
    },
    "properties": {
    "編號":4098,
    "案類":"住宅竊盜",
    "發生日期":1140406,
    "發生時段":"08~10",
    "發生地點":"臺北市士林區中山北路7段14巷1~30號",
    "area":"士林區"
    }
  },
  {
    "type": "Feature",
    "geometry": {
       "type": "Point",
       "coordinates":  [ 121.514942022746,25.054320001534 ]
    },
    "properties": {
    "編號":4099,
    "案類":"住宅竊盜",
    "發生日期":1140414,
    "發生時段":"23~01",
    "發生地點":"臺北市大同區星明里寧夏路1~30號",
    "area":"大同區"
    }
  },
  {
    "type": "Feature",
    "geometry": {
       "type": "Point",
       "coordinates":  [ 121.53597839893,24.995989393061 ]
    },
    "properties": {
    "編號":4100,
    "案類":"住宅竊盜",
    "發生日期":1140415,
    "發生時段":"17~19",
    "發生地點":"臺北市文山區景慶里景福街133巷1~30號",
    "area":"文山區"
    }
  },
  {
    "type": "Feature",
    "geometry": {
       "type": "Point",
       "coordinates":  [ 121.523818961123,25.118946989588 ]
    },
    "properties": {
    "編號":4101,
    "案類":"住宅竊盜",
    "發生日期":1140414,
    "發生時段":"17~19",
    "發生地點":"臺北市北投區永欣里天母西路101巷1~30號",
    "area":"北投區"
    }
  },
  {
    "type": "Feature",
    "geometry": {
       "type": "Point",
       "coordinates":  [ 121.494974988278,25.136605983198 ]
    },
    "properties": {
    "編號":4102,
    "案類":"住宅竊盜",
    "發生日期":1140416,
    "發生時段":"20~22",
    "發生地點":"臺北市北投區豐年里中央北路2段95巷4弄1~30號",
    "area":"北投區"
    }
  },
  {
    "type": "Feature",
    "geometry": {
       "type": "Point",
       "coordinates":  [ 121.496130014535,25.037791014201 ]
    },
    "properties": {
    "編號":4103,
    "案類":"住宅竊盜",
    "發生日期":1140406,
    "發生時段":"23~01",
    "發生地點":"臺北市萬華區環河南路2段50巷1~30號",
    "area":"萬華區"
    }
  },
  {
    "type": "Feature",
    "geometry": {
       "type": "Point",
       "coordinates":  [ 121.492798962394,25.025698987313 ]
    },
    "properties": {
    "編號":4104,
    "案類":"住宅竊盜",
    "發生日期":1140416,
    "發生時段":"14~16",
    "發生地點":"臺北市萬華區西園路二段261巷1~30號",
    "area":"萬華區"
    }
  },
  {
    "type": "Feature",
    "geometry": {
       "type": "Point",
       "coordinates":  [ 120.578787038372,24.220684996909 ]
    },
    "properties": {
    "編號":4105,
    "案類":"住宅竊盜",
    "發生日期":1140421,
    "發生時段":"17~19",
    "發生地點":"臺中市沙鹿區北勢東路391~420號",
    "area":""
    }
  },
  {
    "type": "Feature",
    "geometry": {
       "type": "Point",
       "coordinates":  [ 121.498639975441,25.039906983748 ]
    },
    "properties": {
    "編號":4106,
    "案類":"住宅竊盜",
    "發生日期":1140331,
    "發生時段":"20~22",
    "發生地點":"臺北市萬華區華西街1~30號",
    "area":"萬華區"
    }
  },
  {
    "type": "Feature",
    "geometry": {
       "type": "Point",
       "coordinates":  [ 121.588942356698,25.040272818781 ]
    },
    "properties": {
    "編號":4107,
    "案類":"住宅竊盜",
    "發生日期":1140306,
    "發生時段":"02~04",
    "發生地點":"臺北市南港區百福里成福路211~240號",
    "area":"南港區"
    }
  },
  {
    "type": "Feature",
    "geometry": {
       "type": "Point",
       "coordinates":  [ 121.50891644265,25.084637554286 ]
    },
    "properties": {
    "編號":4108,
    "案類":"住宅竊盜",
    "發生日期":1140424,
    "發生時段":"17~19",
    "發生地點":"臺北市士林區延平北路5段257巷1~30號",
    "area":"士林區"
    }
  },
  {
    "type": "Feature",
    "geometry": {
       "type": "Point",
       "coordinates":  [ 121.487649959273,25.109324983838 ]
    },
    "properties": {
    "編號":4109,
    "案類":"住宅竊盜",
    "發生日期":1140328,
    "發生時段":"11~13",
    "發生地點":"臺北市士林區延平北路8段2巷181~210號",
    "area":"士林區"
    }
  },
  {
    "type": "Feature",
    "geometry": {
       "type": "Point",
       "coordinates":  [ 121.526508965309,25.093493999491 ]
    },
    "properties": {
    "編號":4110,
    "案類":"住宅竊盜",
    "發生日期":1140425,
    "發生時段":"17~19",
    "發生地點":"臺北市士林區福林里中山北路五段505巷44弄1~30號",
    "area":"士林區"
    }
  },
  {
    "type": "Feature",
    "geometry": {
       "type": "Point",
       "coordinates":  [ 121.504547959894,25.089969995939 ]
    },
    "properties": {
    "編號":4111,
    "案類":"住宅竊盜",
    "發生日期":1140425,
    "發生時段":"02~04",
    "發生地點":"臺北市士林區永倫里7鄰永平街9巷8弄1~30號",
    "area":"士林區"
    }
  }
]
}