{"type":"FeatureCollection","features":[{"type":"Feature","geometry":{"type":"Point","coordinates":[121.381654004278,24.965684015754]},"properties":{"焚化廠名稱":"新北市樹林垃圾焚化廠","焚化廠編號":"WEPF0759","申報日期":"200010","NOx(ppm)":"142.667","SOx(ppm)":"5.333","HCI(ppm)":"24.333","不透光率(％)":"0.0","異常排放":"無","地址":"新北市樹林區中山路三段212號","行政區":"樹林區"}},{"type":"Feature","geometry":{"type":"Point","coordinates":[121.497079013613,24.958444985076]},"properties":{"焚化廠名稱":"新北市新店垃圾焚化廠","焚化廠編號":"WEPF0537","申報日期":"202602","NOx(ppm)":"45.485","SOx(ppm)":"1.615","HCI(ppm)":"8.025","不透光率(％)":"0.905","異常排放":"無","地址":"新北市新店區薏仁坑路自強巷1號","行政區":"新店區"}},{"type":"Feature","geometry":{"type":"Point","coordinates":[121.368658869233,25.135576308302]},"properties":{"焚化廠名稱":"新北市八里垃圾焚化廠","焚化廠編號":"WEPF2314","申報日期":"202602","NOx(ppm)":"43.38","SOx(ppm)":"6.703","HCI(ppm)":"9.953","不透光率(％)":"1.543","異常排放":"無","地址":"新北市八里區中山路三段409號","行政區":"八里區"}},{"type":"Feature","geometry":{"type":"Point","coordinates":[121.49914993043,25.10870585456]},"properties":{"焚化廠名稱":"臺北市政府環境保護局北投垃圾焚化廠","焚化廠編號":"WEPA4427","申報日期":"202602","NOx(ppm)":"71.848","SOx(ppm)":"7.915","HCI(ppm)":"14.86","不透光率(％)":"2.458","異常排放":"無","地址":"臺北市北投區洲美街271號","行政區":"北投區"}},{"type":"Feature","geometry":{"type":"Point","coordinates":[121.603472773732,25.062790710974]},"properties":{"焚化廠名稱":"臺北市政府環境保護局內湖垃圾焚化廠","焚化廠編號":"WEPA4244","申報日期":"202602","NOx(ppm)":"64.373","SOx(ppm)":"7.853","HCI(ppm)":"17.337","不透光率(％)":"1.27","異常排放":"有","地址":"臺北市內湖區安康路290號","行政區":"內湖區"}},{"type":"Feature","geometry":{"type":"Point","coordinates":[121.586487266043,25.005159636496]},"properties":{"焚化廠名稱":"臺北市政府環境保護局木柵垃圾焚化廠","焚化廠編號":"WEPA4059","申報日期":"202602","NOx(ppm)":"66.933","SOx(ppm)":"8.205","HCI(ppm)":"4.55","不透光率(％)":"2.703","異常排放":"無","地址":"臺北市文山區木柵路五段53號","行政區":"文山區"}}]}