{"type":"FeatureCollection","features":[{"type":"Feature","geometry":{"type":"Point","coordinates":[121.49914993043,25.10870585456]},"properties":{"焚化廠名稱":"臺北市政府環境保護局北投垃圾焚化廠","焚化廠編號":"WEPA4427","申報日期":"202602","NOx(ppm)":"71.848","SOx(ppm)":"7.915","HCI(ppm)":"14.86","不透光率(％)":"2.458","異常排放":"無","地址":"臺北市北投區洲美街271號","行政區":"北投區"}},{"type":"Feature","geometry":{"type":"Point","coordinates":[121.603472773732,25.062790710974]},"properties":{"焚化廠名稱":"臺北市政府環境保護局內湖垃圾焚化廠","焚化廠編號":"WEPA4244","申報日期":"202602","NOx(ppm)":"64.373","SOx(ppm)":"7.853","HCI(ppm)":"17.337","不透光率(％)":"1.27","異常排放":"有","地址":"臺北市內湖區安康路290號","行政區":"內湖區"}},{"type":"Feature","geometry":{"type":"Point","coordinates":[121.586487266043,25.005159636496]},"properties":{"焚化廠名稱":"臺北市政府環境保護局木柵垃圾焚化廠","焚化廠編號":"WEPA4059","申報日期":"202602","NOx(ppm)":"66.933","SOx(ppm)":"8.205","HCI(ppm)":"4.55","不透光率(％)":"2.703","異常排放":"無","地址":"臺北市文山區木柵路五段53號","行政區":"文山區"}}]}