{
   "type": "FeatureCollection",
   "features": [
  {
    "type": "Feature",
    "geometry": {
       "type": "Point",
       "coordinates":  [ 121.508888025539,25.050691014645 ]
    },
    "properties": {
    "序號":1,
    "醫事機構代碼":101090517,
    "醫事機構名稱":"臺北市立聯合醫院(中興院區)",
    "醫事機構地址":"臺北市大同區鄭州路145號",
    "醫事機構電話":"02-25523234"
    }
  },
  {
    "type": "Feature",
    "geometry": {
       "type": "Point",
       "coordinates":  [ 121.545302281876,25.03754001811 ]
    },
    "properties": {
    "序號":2,
    "醫事機構代碼":101090517,
    "醫事機構名稱":"臺北市立聯合醫院(仁愛院區)",
    "醫事機構地址":"臺北市大安區仁愛路四段10號",
    "醫事機構電話":"02-27093600"
    }
  },
  {
    "type": "Feature",
    "geometry": {
       "type": "Point",
       "coordinates":  [ 121.519277981259,25.029085988658 ]
    },
    "properties": {
    "序號":3,
    "醫事機構代碼":101090517,
    "醫事機構名稱":"臺北市立聯合醫院(和平婦幼院區)",
    "醫事機構地址":"臺北市中正區福州街12號",
    "醫事機構電話":"02-23916470"
    }
  },
  {
    "type": "Feature",
    "geometry": {
       "type": "Point",
       "coordinates":  [ 121.586152995744,25.046511001441 ]
    },
    "properties": {
    "序號":4,
    "醫事機構代碼":101090517,
    "醫事機構名稱":"臺北市立聯合醫院(忠孝院區)",
    "醫事機構地址":"臺北市南港區同德路87號",
    "醫事機構電話":"02-27861288"
    }
  },
  {
    "type": "Feature",
    "geometry": {
       "type": "Point",
       "coordinates":  [ 121.531566018952,25.105194004767 ]
    },
    "properties": {
    "序號":5,
    "醫事機構代碼":101090517,
    "醫事機構名稱":"臺北市立聯合醫院(陽明院區)",
    "醫事機構地址":"臺北市士林區雨聲街105號",
    "醫事機構電話":"02-28353456"
    }
  },
  {
    "type": "Feature",
    "geometry": {
       "type": "Point",
       "coordinates":  [ 121.574885035667,25.030479982975 ]
    },
    "properties": {
    "序號":6,
    "醫事機構代碼":101090517,
    "醫事機構名稱":"臺北市立聯合醫院(松德院區)",
    "醫事機構地址":"臺北市信義區松德路309號",
    "醫事機構電話":"02-27263141"
    }
  },
  {
    "type": "Feature",
    "geometry": {
       "type": "Point",
       "coordinates":  [ 121.504990021468,25.044284013586 ]
    },
    "properties": {
    "序號":7,
    "醫事機構代碼":101090517,
    "醫事機構名稱":"臺北市立聯合醫院(林森中醫昆明院區)",
    "醫事機構地址":"臺北市萬華區昆明街100號",
    "醫事機構電話":"02-23703739"
    }
  },
  {
    "type": "Feature",
    "geometry": {
       "type": "Point",
       "coordinates":  [ 121.518558981604,25.040773001984 ]
    },
    "properties": {
    "序號":8,
    "醫事機構代碼":401180014,
    "醫事機構名稱":"國立臺灣大學醫學院附設醫院",
    "醫事機構地址":"臺北市中正區中山南路7號",
    "醫事機構電話":"02-23123456"
    }
  },
  {
    "type": "Feature",
    "geometry": {
       "type": "Point",
       "coordinates":  [ 121.503536012724,25.04172300689 ]
    },
    "properties": {
    "序號":9,
    "醫事機構代碼":401190010,
    "醫事機構名稱":"國立臺灣大學醫學院附設醫院北護分院",
    "醫事機構地址":"臺北市萬華區內江街87號",
    "醫事機構電話":"02-23717101?"
    }
  },
  {
    "type": "Feature",
    "geometry": {
       "type": "Point",
       "coordinates":  [ 121.557704564909,25.053940217501 ]
    },
    "properties": {
    "序號":10,
    "醫事機構代碼":501010019,
    "醫事機構名稱":"三軍總醫院松山分院附設民眾診療服務處",
    "醫事機構地址":"臺北市松山區健康路131號",
    "醫事機構電話":"02-27642151"
    }
  },
  {
    "type": "Feature",
    "geometry": {
       "type": "Point",
       "coordinates":  [ 121.590532959248,25.07092501273 ]
    },
    "properties": {
    "序號":11,
    "醫事機構代碼":501110514,
    "醫事機構名稱":"三軍總醫院附設民眾診療服務處",
    "醫事機構地址":"臺北市內湖區成功路2段325號",
    "醫事機構電話":"02-87923311"
    }
  },
  {
    "type": "Feature",
    "geometry": {
       "type": "Point",
       "coordinates":  [ 121.501233168645,25.139664791124 ]
    },
    "properties": {
    "序號":12,
    "醫事機構代碼":501160014,
    "醫事機構名稱":"三軍總醫院北投分院附設民眾診療服務處",
    "醫事機構地址":"臺北市北投區中和街250號",
    "醫事機構電話":"02-28932743"
    }
  },
  {
    "type": "Feature",
    "geometry": {
       "type": "Point",
       "coordinates":  [ 121.520530740507,25.119174600169 ]
    },
    "properties": {
    "序號":13,
    "醫事機構代碼":601160016,
    "醫事機構名稱":"臺北榮民總醫院",
    "醫事機構地址":"臺北市北投區石牌路二段201號",
    "醫事機構電話":"02-28712121"
    }
  },
  {
    "type": "Feature",
    "geometry": {
       "type": "Point",
       "coordinates":  [ 121.466357829732,25.120187595077 ]
    },
    "properties": {
    "序號":14,
    "醫事機構代碼":701160518,
    "醫事機構名稱":"臺北市立關渡醫院-委託臺北榮民總醫院經營",
    "醫事機構地址":"臺北市北投區知行路225巷12號",
    "醫事機構電話":"02-28587000"
    }
  },
  {
    "type": "Feature",
    "geometry": {
       "type": "Point",
       "coordinates":  [ 121.549710660032,25.036551707907 ]
    },
    "properties": {
    "序號":15,
    "醫事機構代碼":901020013,
    "醫事機構名稱":"中山醫療社團法人中山醫院",
    "醫事機構地址":"臺北市大安區仁愛路四段112巷11號",
    "醫事機構電話":"02-27081166"
    }
  },
  {
    "type": "Feature",
    "geometry": {
       "type": "Point",
       "coordinates":  [ 121.549679982266,25.055483996428 ]
    },
    "properties": {
    "序號":16,
    "醫事機構代碼":1101010012,
    "醫事機構名稱":"長庚醫療財團法人台北長庚紀念醫院",
    "醫事機構地址":"臺北市松山區敦化北路199號",
    "醫事機構電話":"02-27135211"
    }
  },
  {
    "type": "Feature",
    "geometry": {
       "type": "Point",
       "coordinates":  [ 121.547304970002,25.048028000187 ]
    },
    "properties": {
    "序號":17,
    "醫事機構代碼":1101010021,
    "醫事機構名稱":"基督復臨安息日會醫療財團法人臺安醫院",
    "醫事機構地址":"臺北市松山區八德路2段424號",
    "醫事機構電話":"02-27718151"
    }
  },
  {
    "type": "Feature",
    "geometry": {
       "type": "Point",
       "coordinates":  [ 121.55348000189,25.03743101146 ]
    },
    "properties": {
    "序號":18,
    "醫事機構代碼":1101020018,
    "醫事機構名稱":"國泰醫療財團法人國泰綜合醫院",
    "醫事機構地址":"臺北市大安區仁愛路四段280號",
    "醫事機構電話":"02-27082121"
    }
  },
  {
    "type": "Feature",
    "geometry": {
       "type": "Point",
       "coordinates":  [ 121.547346963336,25.041882011593 ]
    },
    "properties": {
    "序號":19,
    "醫事機構代碼":1101020027,
    "醫事機構名稱":"中心診所醫療財團法人中心綜合醫院",
    "醫事機構地址":"臺北市大安區忠孝東路四段77號",
    "醫事機構電話":"02-27510221"
    }
  },
  {
    "type": "Feature",
    "geometry": {
       "type": "Point",
       "coordinates":  [ 121.546684038614,25.038178006671 ]
    },
    "properties": {
    "序號":20,
    "醫事機構代碼":1101020036,
    "醫事機構名稱":"宏恩醫療財團法人宏恩綜合醫院",
    "醫事機構地址":"臺北市大安區仁愛路四段61號",
    "醫事機構電話":"02-27713161"
    }
  },
  {
    "type": "Feature",
    "geometry": {
       "type": "Point",
       "coordinates":  [ 121.522616996208,25.058866010541 ]
    },
    "properties": {
    "序號":21,
    "醫事機構代碼":1101100011,
    "醫事機構名稱":"臺灣基督長老教會馬偕醫療財團法人馬偕紀念醫院",
    "醫事機構地址":"臺北市中山區中山北路二段92號",
    "醫事機構電話":"02-25433535"
    }
  },
  {
    "type": "Feature",
    "geometry": {
       "type": "Point",
       "coordinates":  [ 121.608825960014,25.07585499672 ]
    },
    "properties": {
    "序號":22,
    "醫事機構代碼":1101110026,
    "醫事機構名稱":"康寧醫療財團法人康寧醫院",
    "醫事機構地址":"臺北市內湖區成功路五段420巷26號",
    "醫事機構電話":"02-26345500"
    }
  },
  {
    "type": "Feature",
    "geometry": {
       "type": "Point",
       "coordinates":  [ 121.52028900642,25.096241000619 ]
    },
    "properties": {
    "序號":23,
    "醫事機構代碼":1101150011,
    "醫事機構名稱":"新光醫療財團法人新光吳火獅紀念醫院",
    "醫事機構地址":"臺北市士林區文昌路95號",
    "醫事機構電話":"02-28332211"
    }
  },
  {
    "type": "Feature",
    "geometry": {
       "type": "Point",
       "coordinates":  [ 121.522400491649,25.117542601711 ]
    },
    "properties": {
    "序號":24,
    "醫事機構代碼":1101160017,
    "醫事機構名稱":"振興醫療財團法人振興醫院",
    "醫事機構地址":"臺北市北投區振興街45號",
    "醫事機構電話":"02-28264400 "
    }
  },
  {
    "type": "Feature",
    "geometry": {
       "type": "Point",
       "coordinates":  [ 121.563637778891,25.026638011926 ]
    },
    "properties": {
    "序號":25,
    "醫事機構代碼":1301170017,
    "醫事機構名稱":"臺北醫學大學附設醫院",
    "醫事機構地址":"臺北市信義區吳興街252號",
    "醫事機構電話":"02-27372181"
    }
  },
  {
    "type": "Feature",
    "geometry": {
       "type": "Point",
       "coordinates":  [ 121.557368031497,24.999679003376 ]
    },
    "properties": {
    "序號":26,
    "醫事機構代碼":1301200010,
    "醫事機構名稱":"臺北市立萬芳醫院－委託財團法人臺北醫學大學辦理",
    "醫事機構地址":"臺北市文山區興隆路三段111號",
    "醫事機構電話":"02-29307930"
    }
  },
  {
    "type": "Feature",
    "geometry": {
       "type": "Point",
       "coordinates":  [ 121.557695093359,25.049903492932 ]
    },
    "properties": {
    "序號":27,
    "醫事機構代碼":1501010010,
    "醫事機構名稱":"博仁綜合醫院",
    "醫事機構地址":"臺北市松山區光復北路66號",
    "醫事機構電話":"02-25786677"
    }
  },
  {
    "type": "Feature",
    "geometry": {
       "type": "Point",
       "coordinates":  [ 121.518752016834,25.044340004699 ]
    },
    "properties": {
    "序號":28,
    "醫事機構代碼":401180023,
    "醫事機構名稱":"國立臺灣大學醫學院附設醫院兒童醫院",
    "醫事機構地址":"臺北市中正區中山南路８號",
    "醫事機構電話":"02-23123456"
    }
  },
  {
    "type": "Feature",
    "geometry": {
       "type": "Point",
       "coordinates":  [ 121.522616996208,25.058866010541 ]
    },
    "properties": {
    "序號":29,
    "醫事機構代碼":1101100020,
    "醫事機構名稱":"台灣基督長老教會馬偕醫療財團法人馬偕兒童醫院",
    "醫事機構地址":"臺北市中山區中山北路２段９２號",
    "醫事機構電話":"02-25421461"
    }
  },
  {
    "type": "Feature",
    "geometry": {
       "type": "Point",
       "coordinates":  [ 121.472008992672,25.128338995915 ]
    },
    "properties": {
    "序號":30,
    "醫事機構代碼":1101160026,
    "醫事機構名稱":"醫療財團法人辜公亮基金會和信治癌中心醫院",
    "醫事機構地址":"臺北市北投區立德路１２５號",
    "醫事機構電話":"02-28970011"
    }
  },
  {
    "type": "Feature",
    "geometry": {
       "type": "Point",
       "coordinates":  [ 121.543916501824,25.014495903167 ]
    },
    "properties": {
    "序號":31,
    "醫事機構代碼":401020013,
    "醫事機構名稱":"國立臺灣大學醫學院附設醫院癌醫中心分院",
    "醫事機構地址":"臺北市大安區基隆路３段１５５巷５７號",
    "醫事機構電話":"02-23220322"
    }
  },
  {
    "type": "Feature",
    "geometry": {
       "type": "Point",
       "coordinates":  [ 121.503704991892,25.137583019742 ]
    },
    "properties": {
    "序號":32,
    "醫事機構代碼":1501160042,
    "醫事機構名稱":"臺北市北投健康管理醫院",
    "醫事機構地址":"臺北市北投區中和街2號",
    "醫事機構電話":"08000 5104"
    }
  },
  {
    "type": "Feature",
    "geometry": {
       "type": "Point",
       "coordinates":  [ 121.539770980151,24.991154985033 ]
    },
    "properties": {
    "序號":33,
    "醫事機構代碼":1501201020,
    "醫事機構名稱":"景美醫院",
    "醫事機構地址":"臺北市文山區羅斯福路６段２８０號及文山區育英街１８巷２號１樓",
    "醫事機構電話":"02-29331010"
    }
  }
]
}