{"type":"FeatureCollection","features":[{"type":"Feature","geometry":{"type":"Point","coordinates":[133.16009889,34.29887963]},"properties":{"測點名稱":"金山國家公園","測點編號":"0402720EN001","行政區":"金山區","地址":"金山區三重橋11號旁","管制區類別":"一","性質":"交通地區"}},{"type":"Feature","geometry":{"type":"Point","coordinates":[121.5010864,25.2578784]},"properties":{"測點名稱":"三芝大屯自然公園","測點編號":"0402120EN001","行政區":"三芝區","地址":"三芝區新華村","管制區類別":"一","性質":"交通地區"}},{"type":"Feature","geometry":{"type":"Point","coordinates":[121.38972720196,25.082462702451]},"properties":{"測點名稱":"林口竹林山寺","測點編號":"0401720EN001","行政區":"林口區","地址":"林口區竹林路323號","管制區類別":"二","性質":"交通地區"}},{"type":"Feature","geometry":{"type":"Point","coordinates":[121.609509822486,25.107097594248]},"properties":{"測點名稱":"汐止長青路","測點編號":"0401120EN001","行政區":"汐止區","地址":"汐止區長青路17號旁","管制區類別":"二","性質":"交通地區"}},{"type":"Feature","geometry":{"type":"Point","coordinates":[121.47863597678,24.962434016616]},"properties":{"測點名稱":"新店伴吾社區","測點編號":"0401120EN002","行政區":"新店區","地址":"新店區安祥路106巷1號","管制區類別":"二","性質":"交通地區"}},{"type":"Feature","geometry":{"type":"Point","coordinates":[121.735879289259,25.031119193325]},"properties":{"測點名稱":"平溪區平溪街","測點編號":"0402420EN001","行政區":"平溪區","地址":"平溪區平溪街","管制區類別":"二","性質":"交通地區"}},{"type":"Feature","geometry":{"type":"Point","coordinates":[121.461443157661,25.142770742727]},"properties":{"測點名稱":"淡水休閒農場","測點編號":"無","行政區":"淡水區","地址":"淡水區民權路12-3巷1號","管制區類別":"三","性質":"交通地區"}},{"type":"Feature","geometry":{"type":"Point","coordinates":[121.507725036474,25.011359017813]},"properties":{"測點名稱":"仁愛公園","測點編號":"0400320EN001","行政區":"永和區","地址":"永和區仁愛路244號","管制區類別":"三","性質":"交通地區"}},{"type":"Feature","geometry":{"type":"Point","coordinates":[121.511480936154,25.000974124556]},"properties":{"測點名稱":"中和四號公園","測點編號":"0400420EN001","行政區":"中和區","地址":"中和區中安街旁","管制區類別":"三","性質":"交通地區"}},{"type":"Feature","geometry":{"type":"Point","coordinates":[139.70919442,35.75107443]},"properties":{"測點名稱":"板橋中正路","測點編號":"0400120EN004","行政區":"板橋區","地址":"板橋區中正路370號對面玫瑰公園內","管制區類別":"三","性質":"交通地區"}},{"type":"Feature","geometry":{"type":"Point","coordinates":[121.46674842642,25.058624402182]},"properties":{"測點名稱":"新莊化成路","測點編號":"0400620EN004","行政區":"新莊區","地址":"新莊區化成路746巷55號旁","管制區類別":"四","性質":"交通地區"}},{"type":"Feature","geometry":{"type":"Point","coordinates":[121.446678965095,25.069571000091]},"properties":{"測點名稱":"五股污水處理廠","測點編號":"0401520EN001","行政區":"五股區","地址":"五股區五工六路77號","管制區類別":"四","性質":"交通地區"}},{"type":"Feature","geometry":{"type":"Point","coordinates":[121.458509192439,25.0910009322]},"properties":{"測點名稱":"蘆洲三民公園","測點編號":"0401420EN001","行政區":"蘆洲區","地址":"蘆洲區永平街","管制區類別":"三","性質":"交通地區"}},{"type":"Feature","geometry":{"type":"Point","coordinates":[121.5087608,25.2030695]},"properties":{"測點名稱":"國家公園站","測點編號":"0402726TN001","行政區":"金山區","地址":"金山區陽明山國家公園界碑旁","管制區類別":"一","性質":"交通地區"}},{"type":"Feature","geometry":{"type":"Point","coordinates":[121.511514624057,25.184350936423]},"properties":{"測點名稱":"淡水巴拉卡公路","測點編號":"0401020TN003","行政區":"淡水區","地址":"淡水區巴拉卡公路","管制區類別":"一","性質":"交通地區"}},{"type":"Feature","geometry":{"type":"Point","coordinates":[121.466868036178,25.02183400794]},"properties":{"測點名稱":"板橋陽明街","測點編號":"0400120TN004","行政區":"板橋區","地址":"板橋區陽明街四維公園旁","管制區類別":"二","性質":"交通地區"}},{"type":"Feature","geometry":{"type":"Point","coordinates":[121.424798548903,25.184069275774]},"properties":{"測點名稱":"淡水沙崙路","測點編號":"0401020TN004","行政區":"淡水區","地址":"淡水區沙崙路","管制區類別":"二","性質":"交通地區"}},{"type":"Feature","geometry":{"type":"Point","coordinates":[121.376002950225,24.944902053869]},"properties":{"測點名稱":"三峽大德路","測點編號":"0400920TN001","行政區":"三峽區","地址":"三峽區大德路","管制區類別":"二","性質":"交通地區"}},{"type":"Feature","geometry":{"type":"Point","coordinates":[121.471944771722,25.018558340556]},"properties":{"測點名稱":"板橋永豐街","測點編號":"0400120TN002","行政區":"板橋區","地址":"板橋區永豐街55巷62號對面華江公園內","管制區類別":"三","性質":"交通地區"}},{"type":"Feature","geometry":{"type":"Point","coordinates":[121.4828,25.0655]},"properties":{"測點名稱":"三重三民街","測點編號":"0400220TN001","行政區":"三重區","地址":"三重區三民公園旁","管制區類別":"三","性質":"交通地區"}},{"type":"Feature","geometry":{"type":"Point","coordinates":[121.383177541804,25.091404268458]},"properties":{"測點名稱":"八里中華路","測點編號":"0402320TN001","行政區":"八里區","地址":"八里區中華路","管制區類別":"三","性質":"交通地區"}},{"type":"Feature","geometry":{"type":"Point","coordinates":[121.439915189101,24.966300595053]},"properties":{"測點名稱":"土城忠承路","測點編號":"0401320TN002","行政區":"土城區","地址":"土城區忠承路","管制區類別":"四","性質":"交通地區"}},{"type":"Feature","geometry":{"type":"Point","coordinates":[121.424512402359,25.001710354855]},"properties":{"測點名稱":"樹林中正路","測點編號":"0400720TN001","行政區":"樹林區","地址":"樹林區中正路","管制區類別":"四","性質":"交通地區"}},{"type":"Feature","geometry":{"type":"Point","coordinates":[121.865349355444,25.032585959058]},"properties":{"測點名稱":"雙溪內平林路","測點編號":"無","行政區":"雙溪區","地址":"雙溪區台2丙線16公里處","管制區類別":"三","性質":"交通地區"}},{"type":"Feature","geometry":{"type":"Point","coordinates":[121.538867,25.169251]},"properties":{"測點名稱":"湖田點","測點編號":"2534420EN011","行政區":"北投區","地址":"北投區竹子湖路17之2號附近","管制區類別":"一","性質":"一般地區"}},{"type":"Feature","geometry":{"type":"Point","coordinates":[121.527797,25.182664]},"properties":{"測點名稱":"鞍部點","測點編號":"2534420EN012","行政區":"北投區","地址":"北投區竹子湖路111號附近","管制區類別":"一","性質":"一般地區"}},{"type":"Feature","geometry":{"type":"Point","coordinates":[121.509977,25.061281]},"properties":{"測點名稱":"永樂點","測點編號":"2533820EN202","行政區":"大同區","地址":"大同區延平北路二段266號附近","管制區類別":"二","性質":"一般地區"}},{"type":"Feature","geometry":{"type":"Point","coordinates":[121.472486,25.119811]},"properties":{"測點名稱":"關渡點","測點編號":"2534420EN010","行政區":"北投區","地址":"北投區關渡路55號附近","管制區類別":"二","性質":"一般地區"}},{"type":"Feature","geometry":{"type":"Point","coordinates":[121.5125,25.114931]},"properties":{"測點名稱":"致遠點","測點編號":"2534320TN103","行政區":"北投區","地址":"北投區致遠二路80號附近","管制區類別":"二","性質":"一般地區"}},{"type":"Feature","geometry":{"type":"Point","coordinates":[121.5504,25.014569]},"properties":{"測點名稱":"長興點","測點編號":"2533520EN012","行政區":"大安區","地址":"大安區長興街131號附近","管制區類別":"二","性質":"一般地區"}},{"type":"Feature","geometry":{"type":"Point","coordinates":[121.508,25.046691]},"properties":{"測點名稱":"福星點","測點編號":"2533720EN013","行政區":"萬華區","地址":"萬華區中華路一段66號附近","管制區類別":"三","性質":"一般地區"}},{"type":"Feature","geometry":{"type":"Point","coordinates":[121.502,25.108358]},"properties":{"測點名稱":"洲美點","測點編號":"2534420EN301","行政區":"北投區","地址":"北投區洲美街271號附近","管制區類別":"三","性質":"一般地區"}},{"type":"Feature","geometry":{"type":"Point","coordinates":[121.4881,25.103161]},"properties":{"測點名稱":"社子點","測點編號":"2534320EN008","行政區":"士林區","地址":"士林區延平北路七段250號附近","管制區類別":"三","性質":"一般地區"}},{"type":"Feature","geometry":{"type":"Point","coordinates":[121.5166,25.054378]},"properties":{"測點名稱":"太原點","測點編號":"2533820EN007","行政區":"大同區","地址":"大同區太原路151號附近","管制區類別":"三","性質":"一般地區"}},{"type":"Feature","geometry":{"type":"Point","coordinates":[121.6042,25.061601]},"properties":{"測點名稱":"安康點","測點編號":"2534220EN005","行政區":"內湖區","地址":"內湖區安康路290號附近","管制區類別":"四","性質":"一般地區"}},{"type":"Feature","geometry":{"type":"Point","coordinates":[121.5635,25.046842]},"properties":{"測點名稱":"北鐵點","測點編號":"2534520EN014","行政區":"信義區","地址":"信義區市民大道5段48號附近","管制區類別":"四","性質":"一般地區"}},{"type":"Feature","geometry":{"type":"Point","coordinates":[121.5489,25.143828]},"properties":{"測點名稱":"格致點","測點編號":"2534320TN103","行政區":"士林區","地址":"士林區格致路237號附近","管制區類別":"一","性質":"交通地區"}},{"type":"Feature","geometry":{"type":"Point","coordinates":[121.5433,25.179506]},"properties":{"測點名稱":"陽金點","測點編號":"2534420TN105","行政區":"北投區","地址":"北投區陽金公路近七星山登山口附近","管制區類別":"一","性質":"交通地區"}},{"type":"Feature","geometry":{"type":"Point","coordinates":[121.5575,25.106714]},"properties":{"測點名稱":"至善點","測點編號":"2534320TN208","行政區":"士林區","地址":"士林區至善路二段407號對面","管制區類別":"二","性質":"交通地區"}},{"type":"Feature","geometry":{"type":"Point","coordinates":[121.576906,24.9897]},"properties":{"測點名稱":"萬興點","測點編號":"2534020TN210","行政區":"文山區","地址":"文山區秀明路2段176號附近","管制區類別":"二","性質":"交通地區"}},{"type":"Feature","geometry":{"type":"Point","coordinates":[121.6207,25.041386]},"properties":{"測點名稱":"舊二點","測點編號":"2534120TN209","行政區":"南港區","地址":"南港區舊莊路1段199巷附近","管制區類別":"二","性質":"交通地區"}},{"type":"Feature","geometry":{"type":"Point","coordinates":[121.5037,25.020467]},"properties":{"測點名稱":"青年點","測點編號":"2533720TN207","行政區":"萬華區","地址":"萬華區青年路186號對面附近","管制區類別":"二","性質":"交通地區"}},{"type":"Feature","geometry":{"type":"Point","coordinates":[121.601142,25.0671]},"properties":{"測點名稱":"民權點","測點編號":"2534220TN308","行政區":"內湖區","地址":"內湖區民權東路6段211號對面附近","管制區類別":"三","性質":"交通地區"}},{"type":"Feature","geometry":{"type":"Point","coordinates":[121.517,25.118428]},"properties":{"測點名稱":"石牌點","測點編號":"2534423TN306","行政區":"北投區","地址":"北投區石牌路二段111號附近","管制區類別":"三","性質":"交通地區"}},{"type":"Feature","geometry":{"type":"Point","coordinates":[121.5331,25.031753]},"properties":{"測點名稱":"新生點","測點編號":"2533520TN307","行政區":"大安區","地址":"大安區新生南路二段32號附近","管制區類別":"三","性質":"交通地區"}},{"type":"Feature","geometry":{"type":"Point","coordinates":[121.4978,25.128242]},"properties":{"測點名稱":"大業點","測點編號":"2534420TN304","行政區":"北投區","地址":"北投區大業路302號附近","管制區類別":"三","性質":"交通地區"}},{"type":"Feature","geometry":{"type":"Point","coordinates":[121.5895,25.053381]},"properties":{"測點名稱":"南港點","測點編號":"2534120TN405","行政區":"南港區","地址":"南港區南港路三段106號附近","管制區類別":"四","性質":"交通地區"}},{"type":"Feature","geometry":{"type":"Point","coordinates":[121.5222,25.066522]},"properties":{"測點名稱":"大同點","測點編號":"2533920TN404","行政區":"中山區","地址":"中山區中山北路三段40號附近","管制區類別":"四","性質":"交通地區"}},{"type":"Feature","geometry":{"type":"Point","coordinates":[113.3870834,22.5196895]},"properties":{"測點名稱":"噪音點","測點編號":"非測點","行政區":"士林區","地址":"中山北路六段100~200號","管制區類別":"無","性質":"娛樂地區"}},{"type":"Feature","geometry":{"type":"Point","coordinates":[138.3173245,36.64410825]},"properties":{"測點名稱":"噪音點","測點編號":"非測點","行政區":"大安區","地址":"臥龍街200~300號","管制區類別":"無","性質":"娛樂地區"}},{"type":"Feature","geometry":{"type":"Point","coordinates":[121.528695,25.04370545]},"properties":{"測點名稱":"噪音點","測點編號":"非測點","行政區":"中正區","地址":"八德路1段1~100巷","管制區類別":"無","性質":"娛樂地區"}},{"type":"Feature","geometry":{"type":"Point","coordinates":[121.5542583,25.05143084]},"properties":{"測點名稱":"噪音點","測點編號":"非測點","行政區":"松山區","地址":"南京東路四段1~100號","管制區類別":"無","性質":"娛樂地區"}},{"type":"Feature","geometry":{"type":"Point","coordinates":[134.606853,34.24617323]},"properties":{"測點名稱":"噪音點","測點編號":"非測點","行政區":"士林區","地址":"延平北路五段100~200號","管制區類別":"無","性質":"娛樂地區"}},{"type":"Feature","geometry":{"type":"Point","coordinates":[134.3639867,35.05667046]},"properties":{"測點名稱":"噪音點","測點編號":"非測點","行政區":"大安區","地址":"延吉街1~100巷","管制區類別":"無","性質":"娛樂地區"}},{"type":"Feature","geometry":{"type":"Point","coordinates":[121.5317614,25.12176684]},"properties":{"測點名稱":"噪音點","測點編號":"非測點","行政區":"士林區","地址":"中山北路七段1~100巷","管制區類別":"無","性質":"娛樂地區"}},{"type":"Feature","geometry":{"type":"Point","coordinates":[121.5497443,25.02833375]},"properties":{"測點名稱":"噪音點","測點編號":"非測點","行政區":"大安區","地址":"安和路二段1~100號","管制區類別":"無","性質":"娛樂地區"}},{"type":"Feature","geometry":{"type":"Point","coordinates":[141.1799599,38.77010952]},"properties":{"測點名稱":"噪音點","測點編號":"非測點","行政區":"松山區","地址":"新東街與民生東路","管制區類別":"無","性質":"娛樂地區"}},{"type":"Feature","geometry":{"type":"Point","coordinates":[121.5268791,25.04379736]},"properties":{"測點名稱":"噪音點","測點編號":"非測點","行政區":"中正區","地址":"杭州南路一段1~100號","管制區類別":"無","性質":"娛樂地區"}},{"type":"Feature","geometry":{"type":"Point","coordinates":[121.5348669,25.04831651]},"properties":{"測點名稱":"噪音點","測點編號":"非測點","行政區":"中山區","地址":"長安東路二段1~100號","管制區類別":"無","性質":"娛樂地區"}},{"type":"Feature","geometry":{"type":"Point","coordinates":[120.6663726,24.129147]},"properties":{"測點名稱":"噪音點","測點編號":"非測點","行政區":"中山區","地址":"建國北路2段1~100號","管制區類別":"無","性質":"娛樂地區"}},{"type":"Feature","geometry":{"type":"Point","coordinates":[113.3870834,22.5196895]},"properties":{"測點名稱":"噪音點","測點編號":"非測點","行政區":"士林區","地址":"中山北路六段100~200號","管制區類別":"無","性質":"娛樂地區"}},{"type":"Feature","geometry":{"type":"Point","coordinates":[121.5403933,24.9979222]},"properties":{"測點名稱":"噪音點","測點編號":"非測點","行政區":"文山區","地址":"羅斯福路6段1~100號","管制區類別":"無","性質":"娛樂地區"}},{"type":"Feature","geometry":{"type":"Point","coordinates":[113.37912,22.52306]},"properties":{"測點名稱":"噪音點","測點編號":"非測點","行政區":"士林區","地址":"中山北路六段100~200號1樓","管制區類別":"無","性質":"娛樂地區"}},{"type":"Feature","geometry":{"type":"Point","coordinates":[113.37912,22.52306]},"properties":{"測點名稱":"噪音點","測點編號":"非測點","行政區":"士林區","地址":"中山北路六段100~200號1樓","管制區類別":"無","性質":"娛樂地區"}},{"type":"Feature","geometry":{"type":"Point","coordinates":[113.37912,22.52306]},"properties":{"測點名稱":"噪音點","測點編號":"非測點","行政區":"士林區","地址":"中山北路六段100~200號1樓","管制區類別":"無","性質":"娛樂地區"}},{"type":"Feature","geometry":{"type":"Point","coordinates":[121.5509728,25.02891999]},"properties":{"測點名稱":"噪音點","測點編號":"非測點","行政區":"大安區","地址":"大安區樂利路1~100巷","管制區類別":"無","性質":"娛樂地區"}},{"type":"Feature","geometry":{"type":"Point","coordinates":[121.5280454,25.05229292]},"properties":{"測點名稱":"噪音點","測點編號":"非測點","行政區":"中山區","地址":"南京東路2段1~100號","管制區類別":"無","性質":"娛樂地區"}},{"type":"Feature","geometry":{"type":"Point","coordinates":[127.9299433,26.61109519]},"properties":{"測點名稱":"噪音點","測點編號":"非測點","行政區":"大安區","地址":"安和路2段100~200巷","管制區類別":"無","性質":"娛樂地區"}},{"type":"Feature","geometry":{"type":"Point","coordinates":[121.5272767,25.05958107]},"properties":{"測點名稱":"噪音點","測點編號":"非測點","行政區":"中山區","地址":"新生北路2段1~100號","管制區類別":"無","性質":"娛樂地區"}},{"type":"Feature","geometry":{"type":"Point","coordinates":[121.5129689,25.11306703]},"properties":{"測點名稱":"噪音點","測點編號":"非測點","行政區":"北投區","地址":"致遠一路二段1~100號","管制區類別":"無","性質":"娛樂地區"}},{"type":"Feature","geometry":{"type":"Point","coordinates":[121.5507581,24.98745785]},"properties":{"測點名稱":"噪音點","測點編號":"非測點","行政區":"文山區","地址":"木柵路一段1~100號","管制區類別":"無","性質":"娛樂地區"}},{"type":"Feature","geometry":{"type":"Point","coordinates":[134.606853,34.24617323]},"properties":{"測點名稱":"噪音點","測點編號":"非測點","行政區":"中正區","地址":"延平南路100~200號","管制區類別":"無","性質":"娛樂地區"}},{"type":"Feature","geometry":{"type":"Point","coordinates":[113.3870834,22.5196895]},"properties":{"測點名稱":"噪音點","測點編號":"非測點","行政區":"士林區","地址":"中山北路六段100~200號","管制區類別":"無","性質":"娛樂地區"}},{"type":"Feature","geometry":{"type":"Point","coordinates":[121.5295863,25.0192047]},"properties":{"測點名稱":"噪音點","測點編號":"非測點","行政區":"中正區","地址":"羅斯福路3段1~100號","管制區類別":"無","性質":"娛樂地區"}},{"type":"Feature","geometry":{"type":"Point","coordinates":[120.8269975,21.99113086]},"properties":{"測點名稱":"噪音點","測點編號":"非測點","行政區":"內湖區","地址":"港墘路100~200號","管制區類別":"無","性質":"娛樂地區"}},{"type":"Feature","geometry":{"type":"Point","coordinates":[114.2666431,22.37895745]},"properties":{"測點名稱":"噪音點","測點編號":"非測點","行政區":"萬華區","地址":"康定路1~100巷","管制區類別":"無","性質":"娛樂地區"}},{"type":"Feature","geometry":{"type":"Point","coordinates":[134.3639867,35.05667046]},"properties":{"測點名稱":"噪音點","測點編號":"非測點","行政區":"松山區","地址":"延吉街1~100號","管制區類別":"無","性質":"娛樂地區"}},{"type":"Feature","geometry":{"type":"Point","coordinates":[119.6486487,29.1080344]},"properties":{"測點名稱":"噪音點","測點編號":"非測點","行政區":"大安區","地址":"金華街164巷1弄1~100號","管制區類別":"無","性質":"娛樂地區"}},{"type":"Feature","geometry":{"type":"Point","coordinates":[119.6486487,29.1080344]},"properties":{"測點名稱":"噪音點","測點編號":"非測點","行政區":"大安區","地址":"金華街164巷1弄1~100號","管制區類別":"無","性質":"娛樂地區"}},{"type":"Feature","geometry":{"type":"Point","coordinates":[121.5133828,25.04679276]},"properties":{"測點名稱":"噪音點","測點編號":"非測點","行政區":"中正區","地址":"重慶南路1段1~100號","管制區類別":"無","性質":"娛樂地區"}},{"type":"Feature","geometry":{"type":"Point","coordinates":[119.6486487,29.1080344]},"properties":{"測點名稱":"噪音點","測點編號":"非測點","行政區":"大安區","地址":"金華街172巷1~100號","管制區類別":"無","性質":"娛樂地區"}},{"type":"Feature","geometry":{"type":"Point","coordinates":[119.6486487,29.1080344]},"properties":{"測點名稱":"噪音點","測點編號":"非測點","行政區":"大安區","地址":"金華街164巷1弄1~100號","管制區類別":"無","性質":"娛樂地區"}},{"type":"Feature","geometry":{"type":"Point","coordinates":[113.3870834,22.5196895]},"properties":{"測點名稱":"噪音點","測點編號":"非測點","行政區":"北投區","地址":"中山路1~100號","管制區類別":"無","性質":"娛樂地區"}},{"type":"Feature","geometry":{"type":"Point","coordinates":[113.3870834,22.5196895]},"properties":{"測點名稱":"噪音點","測點編號":"非測點","行政區":"北投區","地址":"中山路1~100號","管制區類別":"無","性質":"娛樂地區"}},{"type":"Feature","geometry":{"type":"Point","coordinates":[113.3870834,22.5196895]},"properties":{"測點名稱":"噪音點","測點編號":"非測點","行政區":"北投區","地址":"中山路1~100號","管制區類別":"無","性質":"娛樂地區"}},{"type":"Feature","geometry":{"type":"Point","coordinates":[121.5673916,24.9886089]},"properties":{"測點名稱":"噪音點","測點編號":"非測點","行政區":"文山區","地址":"木柵路3段1~100號","管制區類別":"無","性質":"娛樂地區"}},{"type":"Feature","geometry":{"type":"Point","coordinates":[139.4824582,42.07819014]},"properties":{"測點名稱":"噪音點","測點編號":"非測點","行政區":"中山區","地址":"松江路123巷1~100號","管制區類別":"無","性質":"娛樂地區"}},{"type":"Feature","geometry":{"type":"Point","coordinates":[102.8324209,24.8843019]},"properties":{"測點名稱":"噪音點","測點編號":"非測點","行政區":"萬華區","地址":"昆明街1~100號","管制區類別":"無","性質":"娛樂地區"}},{"type":"Feature","geometry":{"type":"Point","coordinates":[113.3870834,22.5196895]},"properties":{"測點名稱":"噪音點","測點編號":"非測點","行政區":"士林區","地址":"中山北路六段157巷1~100弄","管制區類別":"無","性質":"娛樂地區"}},{"type":"Feature","geometry":{"type":"Point","coordinates":[120.6663726,24.129147]},"properties":{"測點名稱":"噪音點","測點編號":"非測點","行政區":"中山區","地址":"建國北路二段1~100號","管制區類別":"無","性質":"娛樂地區"}},{"type":"Feature","geometry":{"type":"Point","coordinates":[135.4158802,35.01694358]},"properties":{"測點名稱":"噪音點","測點編號":"非測點","行政區":"大安區","地址":"金山南路二段陳情人指定地點","管制區類別":"無","性質":"娛樂地區"}},{"type":"Feature","geometry":{"type":"Point","coordinates":[121.5133828,25.04679276]},"properties":{"測點名稱":"噪音點","測點編號":"非測點","行政區":"中正區","地址":"重慶南路1段1~100號","管制區類別":"無","性質":"娛樂地區"}},{"type":"Feature","geometry":{"type":"Point","coordinates":[137.0842026,34.875]},"properties":{"測點名稱":"噪音點","測點編號":"非測點","行政區":"信義區","地址":"永吉路120巷3弄1~100號","管制區類別":"無","性質":"娛樂地區"}},{"type":"Feature","geometry":{"type":"Point","coordinates":[139.4824582,42.07819014]},"properties":{"測點名稱":"噪音點","測點編號":"非測點","行政區":"中山區","地址":"松江路123巷1~100號","管制區類別":"無","性質":"娛樂地區"}},{"type":"Feature","geometry":{"type":"Point","coordinates":[121.4913445,25.02640261]},"properties":{"測點名稱":"噪音點","測點編號":"非測點","行政區":"萬華區","地址":"和德里022鄰興義街1~100號","管制區類別":"無","性質":"娛樂地區"}},{"type":"Feature","geometry":{"type":"Point","coordinates":[121.5327884,25.04344803]},"properties":{"測點名稱":"噪音點","測點編號":"非測點","行政區":"中正區","地址":"新生南路一段1~100號","管制區類別":"無","性質":"娛樂地區"}},{"type":"Feature","geometry":{"type":"Point","coordinates":[121.5166528,25.11743368]},"properties":{"測點名稱":"噪音點","測點編號":"非測點","行政區":"北投區","地址":"石牌路二段1~100號","管制區類別":"無","性質":"娛樂地區"}},{"type":"Feature","geometry":{"type":"Point","coordinates":[134.606853,34.24617323]},"properties":{"測點名稱":"噪音點","測點編號":"非測點","行政區":"中正區","地址":"延平南路1~100號","管制區類別":"無","性質":"娛樂地區"}},{"type":"Feature","geometry":{"type":"Point","coordinates":[142.4934494,43.56605736]},"properties":{"測點名稱":"噪音點","測點編號":"非測點","行政區":"中山區","地址":"新生北路二段137巷1~100號","管制區類別":"無","性質":"娛樂地區"}},{"type":"Feature","geometry":{"type":"Point","coordinates":[121.6161222,25.04869453]},"properties":{"測點名稱":"噪音點","測點編號":"非測點","行政區":"南港區","地址":"研究院路二段1~100號","管制區類別":"無","性質":"娛樂地區"}},{"type":"Feature","geometry":{"type":"Point","coordinates":[121.5166528,25.11743368]},"properties":{"測點名稱":"噪音點","測點編號":"非測點","行政區":"北投區","地址":"石牌路二段1~100號","管制區類別":"無","性質":"娛樂地區"}},{"type":"Feature","geometry":{"type":"Point","coordinates":[135.4158802,35.01694358]},"properties":{"測點名稱":"噪音點","測點編號":"非測點","行政區":"大安區","地址":"金山南路二段200~300號","管制區類別":"無","性質":"娛樂地區"}},{"type":"Feature","geometry":{"type":"Point","coordinates":[143.0653858,42.89322436]},"properties":{"測點名稱":"噪音點","測點編號":"非測點","行政區":"大安區","地址":"新生南路一段161巷1~50號","管制區類別":"無","性質":"娛樂地區"}},{"type":"Feature","geometry":{"type":"Point","coordinates":[137.0842026,34.875]},"properties":{"測點名稱":"噪音點","測點編號":"非測點","行政區":"信義區","地址":"永吉路459巷5弄1~50號","管制區類別":"無","性質":"娛樂地區"}},{"type":"Feature","geometry":{"type":"Point","coordinates":[121.5644477,25.03281236]},"properties":{"測點名稱":"噪音點","測點編號":"非測點","行政區":"信義區","地址":"信義路五段1~50號","管制區類別":"無","性質":"娛樂地區"}},{"type":"Feature","geometry":{"type":"Point","coordinates":[113.3870834,22.5196895]},"properties":{"測點名稱":"噪音點","測點編號":"非測點","行政區":"中山區","地址":"中山北路二段1~50巷","管制區類別":"無","性質":"娛樂地區"}},{"type":"Feature","geometry":{"type":"Point","coordinates":[121.5120173,25.04593566]},"properties":{"測點名稱":"噪音點","測點編號":"非測點","行政區":"中正區","地址":"開封街一段1~50號","管制區類別":"無","性質":"娛樂地區"}},{"type":"Feature","geometry":{"type":"Point","coordinates":[135.285227,35.34445036]},"properties":{"測點名稱":"噪音點","測點編號":"非測點","行政區":"大安區","地址":"大安路一段51巷1~50號","管制區類別":"無","性質":"娛樂地區"}},{"type":"Feature","geometry":{"type":"Point","coordinates":[121.5497443,25.02833375]},"properties":{"測點名稱":"噪音點","測點編號":"非測點","行政區":"大安區","地址":"安和路2段１-100號","管制區類別":"無","性質":"娛樂地區"}},{"type":"Feature","geometry":{"type":"Point","coordinates":[114.2260681,22.3305002]},"properties":{"測點名稱":"噪音點","測點編號":"非測點","行政區":"北投區","地址":"榮華一路5巷1-100號","管制區類別":"無","性質":"娛樂地區"}},{"type":"Feature","geometry":{"type":"Point","coordinates":[140.2141304,37.04944539]},"properties":{"測點名稱":"噪音點","測點編號":"非測點","行政區":"大安區","地址":"和平東路1段1-100號","管制區類別":"無","性質":"娛樂地區"}},{"type":"Feature","geometry":{"type":"Point","coordinates":[141.0606867,39.13785192]},"properties":{"測點名稱":"噪音點","測點編號":"非測點","行政區":"松山區","地址":"新中街1-100號","管制區類別":"無","性質":"娛樂地區"}},{"type":"Feature","geometry":{"type":"Point","coordinates":[108.9350839,34.3430507]},"properties":{"測點名稱":"噪音點","測點編號":"非測點","行政區":"大同區","地址":"長安西路100-200號","管制區類別":"無","性質":"娛樂地區"}},{"type":"Feature","geometry":{"type":"Point","coordinates":[104.0633717,30.6598628]},"properties":{"測點名稱":"噪音點","測點編號":"非測點","行政區":"萬華區","地址":"成都路1-100號","管制區類別":"無","性質":"娛樂地區"}},{"type":"Feature","geometry":{"type":"Point","coordinates":[121.6160129,25.05230457]},"properties":{"測點名稱":"噪音點","測點編號":"非測點","行政區":"南港區","地址":"研究院路一段1-100號","管制區類別":"無","性質":"娛樂地區"}},{"type":"Feature","geometry":{"type":"Point","coordinates":[118.7915079,32.0615652]},"properties":{"測點名稱":"噪音點","測點編號":"非測點","行政區":"松山區","地址":"南京東路五段250巷1-100號","管制區類別":"無","性質":"娛樂地區"}},{"type":"Feature","geometry":{"type":"Point","coordinates":[140.2141304,37.04944539]},"properties":{"測點名稱":"噪音點","測點編號":"非測點","行政區":"大安區","地址":"和平東路一段199巷1-100號","管制區類別":"無","性質":"娛樂地區"}},{"type":"Feature","geometry":{"type":"Point","coordinates":[129.50241,42.88825]},"properties":{"測點名稱":"噪音點","測點編號":"非測點","行政區":"大安區","地址":"延吉街100-200號","管制區類別":"無","性質":"娛樂地區"}},{"type":"Feature","geometry":{"type":"Point","coordinates":[121.52631,25.04159444]},"properties":{"測點名稱":"噪音點","測點編號":"非測點","行政區":"中正區","地址":"濟南路二段1-100號","管制區類別":"無","性質":"娛樂地區"}},{"type":"Feature","geometry":{"type":"Point","coordinates":[117.9543248,40.957718]},"properties":{"測點名稱":"噪音點","測點編號":"非測點","行政區":"大同區","地址":"承德路一段24巷1-100號","管制區類別":"無","性質":"娛樂地區"}},{"type":"Feature","geometry":{"type":"Point","coordinates":[114.2706894,22.3800403]},"properties":{"測點名稱":"噪音點","測點編號":"非測點","行政區":"大安區","地址":"金山南路二段1-100號","管制區類別":"無","性質":"娛樂地區"}},{"type":"Feature","geometry":{"type":"Point","coordinates":[114.2706894,22.3800403]},"properties":{"測點名稱":"噪音點","測點編號":"非測點","行政區":"大安區","地址":"金山南路二段1-100號","管制區類別":"無","性質":"娛樂地區"}},{"type":"Feature","geometry":{"type":"Point","coordinates":[125.9170455,41.7225544]},"properties":{"測點名稱":"噪音點","測點編號":"非測點","行政區":"大安區","地址":"通化街171巷1-100號","管制區類別":"無","性質":"娛樂地區"}},{"type":"Feature","geometry":{"type":"Point","coordinates":[141.0606867,39.13785192]},"properties":{"測點名稱":"噪音點","測點編號":"非測點","行政區":"松山區","地址":"新中街1-100號","管制區類別":"無","性質":"娛樂地區"}},{"type":"Feature","geometry":{"type":"Point","coordinates":[139.4824582,42.07819014]},"properties":{"測點名稱":"噪音點","測點編號":"非測點","行政區":"中山區","地址":"松江路69巷1-100號","管制區類別":"無","性質":"娛樂地區"}},{"type":"Feature","geometry":{"type":"Point","coordinates":[137.0842026,34.875]},"properties":{"測點名稱":"噪音點","測點編號":"非測點","行政區":"信義區","地址":"永吉路1-100號","管制區類別":"無","性質":"娛樂地區"}},{"type":"Feature","geometry":{"type":"Point","coordinates":[114.2323176,22.4731079]},"properties":{"測點名稱":"噪音點","測點編號":"非測點","行政區":"士林區","地址":"忠誠路二段1-100號","管制區類別":"無","性質":"娛樂地區"}},{"type":"Feature","geometry":{"type":"Point","coordinates":[121.6160129,25.05230457]},"properties":{"測點名稱":"噪音點","測點編號":"非測點","行政區":"南港區","地址":"研究院路1段1-100號","管制區類別":"無","性質":"娛樂地區"}},{"type":"Feature","geometry":{"type":"Point","coordinates":[121.5350565,25.10152649]},"properties":{"測點名稱":"噪音點","測點編號":"非測點","行政區":"士林區","地址":"至誠路一段1-100號","管制區類別":"無","性質":"娛樂地區"}},{"type":"Feature","geometry":{"type":"Point","coordinates":[121.5465149,25.0413638]},"properties":{"測點名稱":"噪音點","測點編號":"非測點","行政區":"大安區","地址":"忠孝東路4段1-100號","管制區類別":"無","性質":"娛樂地區"}},{"type":"Feature","geometry":{"type":"Point","coordinates":[113.9778527,22.402142]},"properties":{"測點名稱":"噪音點","測點編號":"非測點","行政區":"中正區","地址":"重慶南路一段1-100號","管制區類別":"無","性質":"娛樂地區"}},{"type":"Feature","geometry":{"type":"Point","coordinates":[140.9292837,38.16225043]},"properties":{"測點名稱":"噪音點","測點編號":"非測點","行政區":"士林區","地址":"大南路200-300號","管制區類別":"無","性質":"娛樂地區"}},{"type":"Feature","geometry":{"type":"Point","coordinates":[121.5481505,25.03308973]},"properties":{"測點名稱":"噪音點","測點編號":"非測點","行政區":"大安區","地址":"信義路四段1-100號","管制區類別":"無","性質":"娛樂地區"}},{"type":"Feature","geometry":{"type":"Point","coordinates":[121.579417,25.05963765]},"properties":{"測點名稱":"噪音點","測點編號":"非測點","行政區":"內湖區","地址":"舊宗路一段1-100號","管制區類別":"無","性質":"娛樂地區"}},{"type":"Feature","geometry":{"type":"Point","coordinates":[121.6160129,25.05230457]},"properties":{"測點名稱":"噪音點","測點編號":"非測點","行政區":"南港區","地址":"研究院路一段1-100號","管制區類別":"無","性質":"娛樂地區"}},{"type":"Feature","geometry":{"type":"Point","coordinates":[121.6160129,25.05230457]},"properties":{"測點名稱":"噪音點","測點編號":"非測點","行政區":"南港區","地址":"研究院路1段1-100號","管制區類別":"無","性質":"娛樂地區"}},{"type":"Feature","geometry":{"type":"Point","coordinates":[113.9778527,22.402142]},"properties":{"測點名稱":"噪音點","測點編號":"非測點","行政區":"大同區","地址":"重慶北路三段200-300號","管制區類別":"無","性質":"娛樂地區"}},{"type":"Feature","geometry":{"type":"Point","coordinates":[104.0633717,30.6598628]},"properties":{"測點名稱":"噪音點","測點編號":"非測點","行政區":"萬華區","地址":"成都路1-100號","管制區類別":"無","性質":"娛樂地區"}},{"type":"Feature","geometry":{"type":"Point","coordinates":[120.576854,29.9992425]},"properties":{"測點名稱":"噪音點","測點編號":"非測點","行政區":"中正區","地址":"紹興南街1-100號","管制區類別":"無","性質":"娛樂地區"}},{"type":"Feature","geometry":{"type":"Point","coordinates":[120.695345,27.9963899]},"properties":{"測點名稱":"噪音點","測點編號":"非測點","行政區":"大安區","地址":"溫州街1-100號","管制區類別":"無","性質":"娛樂地區"}},{"type":"Feature","geometry":{"type":"Point","coordinates":[118.9426131,42.2799929]},"properties":{"測點名稱":"噪音點","測點編號":"非測點","行政區":"大同區","地址":"赤峰街1-100號","管制區類別":"無","性質":"娛樂地區"}},{"type":"Feature","geometry":{"type":"Point","coordinates":[114.1554657,22.24895313]},"properties":{"測點名稱":"噪音點","測點編號":"非測點","行政區":"北投區","地址":"西安街二段200-300號","管制區類別":"無","性質":"娛樂地區"}},{"type":"Feature","geometry":{"type":"Point","coordinates":[121.5274828,25.01876409]},"properties":{"測點名稱":"噪音點","測點編號":"非測點","行政區":"大安區","地址":"辛亥路一段1-100號","管制區類別":"無","性質":"娛樂地區"}},{"type":"Feature","geometry":{"type":"Point","coordinates":[127.9299433,26.61109519]},"properties":{"測點名稱":"噪音點","測點編號":"非測點","行政區":"大安區","地址":"安和路一段102巷1-100號","管制區類別":"無","性質":"娛樂地區"}},{"type":"Feature","geometry":{"type":"Point","coordinates":[135.3157593,34.94142099]},"properties":{"測點名稱":"噪音點","測點編號":"非測點","行政區":"信義區","地址":"林口街100-200號","管制區類別":"無","性質":"娛樂地區"}},{"type":"Feature","geometry":{"type":"Point","coordinates":[135.3157593,34.94142099]},"properties":{"測點名稱":"噪音點","測點編號":"非測點","行政區":"大安區","地址":"林口街100-200號","管制區類別":"無","性質":"娛樂地區"}},{"type":"Feature","geometry":{"type":"Point","coordinates":[114.1341167,22.2649488]},"properties":{"測點名稱":"噪音點","測點編號":"非測點","行政區":"北投區","地址":"明德路100-200號","管制區類別":"無","性質":"娛樂地區"}},{"type":"Feature","geometry":{"type":"Point","coordinates":[113.974813,22.41211152]},"properties":{"測點名稱":"噪音點","測點編號":"非測點","行政區":"北投區","地址":"致遠二路5巷1-100號","管制區類別":"無","性質":"娛樂地區"}},{"type":"Feature","geometry":{"type":"Point","coordinates":[135.3157593,34.94142099]},"properties":{"測點名稱":"噪音點","測點編號":"非測點","行政區":"信義區","地址":"林口街100-200號","管制區類別":"無","性質":"娛樂地區"}},{"type":"Feature","geometry":{"type":"Point","coordinates":[140.2141304,37.04944539]},"properties":{"測點名稱":"噪音點","測點編號":"非測點","行政區":"信義區","地址":"和平東路三段435巷1弄1-100號","管制區類別":"無","性質":"娛樂地區"}},{"type":"Feature","geometry":{"type":"Point","coordinates":[135.4826427,35.01309753]},"properties":{"測點名稱":"噪音點","測點編號":"非測點","行政區":"士林區","地址":"小北街22巷1-100號","管制區類別":"無","性質":"娛樂地區"}},{"type":"Feature","geometry":{"type":"Point","coordinates":[113.9778527,22.402142]},"properties":{"測點名稱":"噪音點","測點編號":"非測點","行政區":"大同區","地址":"重慶北路三段223巷1-100號","管制區類別":"無","性質":"娛樂地區"}},{"type":"Feature","geometry":{"type":"Point","coordinates":[117.9543248,40.957718]},"properties":{"測點名稱":"噪音點","測點編號":"非測點","行政區":"大同區","地址":"承德路三段200-300號","管制區類別":"無","性質":"娛樂地區"}},{"type":"Feature","geometry":{"type":"Point","coordinates":[125.9170455,41.7225544]},"properties":{"測點名稱":"噪音點","測點編號":"非測點","行政區":"大安區","地址":"通化街1-100號","管制區類別":"無","性質":"娛樂地區"}},{"type":"Feature","geometry":{"type":"Point","coordinates":[128.22861,43.36954]},"properties":{"測點名稱":"噪音點","測點編號":"非測點","行政區":"大安區","地址":"敦化南路一段200-300號","管制區類別":"無","性質":"娛樂地區"}},{"type":"Feature","geometry":{"type":"Point","coordinates":[129.50241,42.88825]},"properties":{"測點名稱":"噪音點","測點編號":"非測點","行政區":"大安區","地址":"延吉街100-200號","管制區類別":"無","性質":"娛樂地區"}},{"type":"Feature","geometry":{"type":"Point","coordinates":[121.5274828,25.01876409]},"properties":{"測點名稱":"噪音點","測點編號":"非測點","行政區":"大安區","地址":"辛亥路一段1-100號","管制區類別":"無","性質":"娛樂地區"}},{"type":"Feature","geometry":{"type":"Point","coordinates":[139.4824582,42.07819014]},"properties":{"測點名稱":"噪音點","測點編號":"非測點","行政區":"中山區","地址":"松江路133巷1-100號","管制區類別":"無","性質":"娛樂地區"}},{"type":"Feature","geometry":{"type":"Point","coordinates":[142.4934494,43.56605736]},"properties":{"測點名稱":"噪音點","測點編號":"非測點","行政區":"中山區","地址":"新生北路二段68巷1-100號","管制區類別":"無","性質":"娛樂地區"}},{"type":"Feature","geometry":{"type":"Point","coordinates":[142.4934494,43.56605736]},"properties":{"測點名稱":"噪音點","測點編號":"非測點","行政區":"中山區","地址":"新生北路三段3巷1-100號","管制區類別":"無","性質":"娛樂地區"}},{"type":"Feature","geometry":{"type":"Point","coordinates":[118.7915079,32.0615652]},"properties":{"測點名稱":"噪音點","測點編號":"非測點","行政區":"松山區","地址":"南京東路四段133巷4弄1-100號","管制區類別":"無","性質":"娛樂地區"}},{"type":"Feature","geometry":{"type":"Point","coordinates":[102.8324209,24.8843019]},"properties":{"測點名稱":"噪音點","測點編號":"非測點","行政區":"萬華區","地址":"昆明街1-100號","管制區類別":"無","性質":"娛樂地區"}},{"type":"Feature","geometry":{"type":"Point","coordinates":[102.8324209,24.8843019]},"properties":{"測點名稱":"噪音點","測點編號":"非測點","行政區":"萬華區","地址":"昆明街1-100號","管制區類別":"無","性質":"娛樂地區"}},{"type":"Feature","geometry":{"type":"Point","coordinates":[118.7915079,32.0615652]},"properties":{"測點名稱":"噪音點","測點編號":"非測點","行政區":"松山區","地址":"南京東路五段200-300號","管制區類別":"無","性質":"娛樂地區"}},{"type":"Feature","geometry":{"type":"Point","coordinates":[117.9543248,40.957718]},"properties":{"測點名稱":"噪音點","測點編號":"非測點","行政區":"大同區","地址":"承德路一段24巷1-100號","管制區類別":"無","性質":"娛樂地區"}},{"type":"Feature","geometry":{"type":"Point","coordinates":[125.3171216,43.8130735]},"properties":{"測點名稱":"噪音點","測點編號":"非測點","行政區":"中山區","地址":"長春路200-300號","管制區類別":"無","性質":"娛樂地區"}},{"type":"Feature","geometry":{"type":"Point","coordinates":[119.1591957,32.2211792]},"properties":{"測點名稱":"噪音點","測點編號":"非測點","行政區":"中山區","地址":"南京東路二段200-300號","管制區類別":"無","性質":"娛樂地區"}},{"type":"Feature","geometry":{"type":"Point","coordinates":[121.5656419,25.03275077]},"properties":{"測點名稱":"噪音點","測點編號":"非測點","行政區":"信義區","地址":"信義路五段1-100號","管制區類別":"無","性質":"娛樂地區"}},{"type":"Feature","geometry":{"type":"Point","coordinates":[117.9543248,40.957718]},"properties":{"測點名稱":"噪音點","測點編號":"非測點","行政區":"大同區","地址":"承德路一段24巷1-100號","管制區類別":"無","性質":"娛樂地區"}},{"type":"Feature","geometry":{"type":"Point","coordinates":[114.154998,22.282629]},"properties":{"測點名稱":"噪音點","測點編號":"非測點","行政區":"大安區","地址":"雲和街1-100號","管制區類別":"無","性質":"娛樂地區"}},{"type":"Feature","geometry":{"type":"Point","coordinates":[142.4934494,43.56605736]},"properties":{"測點名稱":"噪音點","測點編號":"非測點","行政區":"中山區","地址":"新生北路一段100-200號","管制區類別":"無","性質":"娛樂地區"}},{"type":"Feature","geometry":{"type":"Point","coordinates":[140.2141304,37.04944539]},"properties":{"測點名稱":"噪音點","測點編號":"非測點","行政區":"信義區","地址":"和平東路三段300-400號","管制區類別":"無","性質":"娛樂地區"}},{"type":"Feature","geometry":{"type":"Point","coordinates":[118.77778,32.06167]},"properties":{"測點名稱":"噪音點","測點編號":"非測點","行政區":"大同區","地址":"南京西路與甘谷街","管制區類別":"無","性質":"娛樂地區"}},{"type":"Feature","geometry":{"type":"Point","coordinates":[118.77778,32.06167]},"properties":{"測點名稱":"噪音點","測點編號":"非測點","行政區":"大同區","地址":"南京西路與甘谷街","管制區類別":"無","性質":"娛樂地區"}},{"type":"Feature","geometry":{"type":"Point","coordinates":[140.9001921,38.54804094]},"properties":{"測點名稱":"噪音點","測點編號":"非測點","行政區":"大安區","地址":"青田街1-100號","管制區類別":"無","性質":"娛樂地區"}},{"type":"Feature","geometry":{"type":"Point","coordinates":[117.9543248,40.957718]},"properties":{"測點名稱":"噪音點","測點編號":"非測點","行政區":"大同區","地址":"承德路一段24巷1-100號","管制區類別":"無","性質":"娛樂地區"}},{"type":"Feature","geometry":{"type":"Point","coordinates":[137.1770706,34.98868348]},"properties":{"測點名稱":"噪音點","測點編號":"非測點","行政區":"大安區","地址":"信義路二段86巷1-100號","管制區類別":"無","性質":"娛樂地區"}},{"type":"Feature","geometry":{"type":"Point","coordinates":[138.3173245,36.64410825]},"properties":{"測點名稱":"噪音點","測點編號":"非測點","行政區":"大安區","地址":"臥龍街200-300號","管制區類別":"無","性質":"娛樂地區"}},{"type":"Feature","geometry":{"type":"Point","coordinates":[121.5656419,25.03275077]},"properties":{"測點名稱":"噪音點","測點編號":"非測點","行政區":"信義區","地址":"信義路五段1-100號","管制區類別":"無","性質":"娛樂地區"}},{"type":"Feature","geometry":{"type":"Point","coordinates":[121.5656419,25.03275077]},"properties":{"測點名稱":"噪音點","測點編號":"非測點","行政區":"信義區","地址":"信義路五段1-100號","管制區類別":"無","性質":"娛樂地區"}},{"type":"Feature","geometry":{"type":"Point","coordinates":[137.1770706,34.98868348]},"properties":{"測點名稱":"噪音點","測點編號":"非測點","行政區":"大安區","地址":"信義路三段100-200號","管制區類別":"無","性質":"娛樂地區"}},{"type":"Feature","geometry":{"type":"Point","coordinates":[129.50241,42.88825]},"properties":{"測點名稱":"噪音點","測點編號":"非測點","行政區":"大安區","地址":"延吉街200-300號","管制區類別":"無","性質":"娛樂地區"}},{"type":"Feature","geometry":{"type":"Point","coordinates":[120.485207,22.635333]},"properties":{"測點名稱":"噪音點","測點編號":"非測點","行政區":"大安區","地址":"復興南路二段1-100號","管制區類別":"無","性質":"娛樂地區"}},{"type":"Feature","geometry":{"type":"Point","coordinates":[140.2141304,37.04944539]},"properties":{"測點名稱":"噪音點","測點編號":"非測點","行政區":"大安區","地址":"和平東路二段175巷1-100號","管制區類別":"無","性質":"娛樂地區"}},{"type":"Feature","geometry":{"type":"Point","coordinates":[141.1326549,38.49162406]},"properties":{"測點名稱":"噪音點","測點編號":"非測點","行政區":"?投區","地址":"中央北路四段30巷1-100號","管制區類別":"無","性質":"娛樂地區"}},{"type":"Feature","geometry":{"type":"Point","coordinates":[102.71833,25.03889]},"properties":{"測點名稱":"噪音點","測點編號":"非測點","行政區":"萬華區","地址":"昆明街100-200號","管制區類別":"無","性質":"娛樂地區"}},{"type":"Feature","geometry":{"type":"Point","coordinates":[121.5465149,25.0413638]},"properties":{"測點名稱":"噪音點","測點編號":"非測點","行政區":"大安區","地址":"忠孝東路四段1~100號","管制區類別":"無","性質":"娛樂地區"}},{"type":"Feature","geometry":{"type":"Point","coordinates":[121.5274828,25.01876409]},"properties":{"測點名稱":"噪音點","測點編號":"非測點","行政區":"大安區","地址":"辛亥路一段1~100號","管制區類別":"無","性質":"娛樂地區"}},{"type":"Feature","geometry":{"type":"Point","coordinates":[121.5656419,25.03275077]},"properties":{"測點名稱":"噪音點","測點編號":"非測點","行政區":"信義區","地址":"信義路五段1~100號","管制區類別":"無","性質":"娛樂地區"}},{"type":"Feature","geometry":{"type":"Point","coordinates":[121.5497443,25.02833375]},"properties":{"測點名稱":"噪音點","測點編號":"非測點","行政區":"大安區","地址":"安和路二段1-100號","管制區類別":"無","性質":"娛樂地區"}},{"type":"Feature","geometry":{"type":"Point","coordinates":[137.0842026,34.875]},"properties":{"測點名稱":"噪音點","測點編號":"非測點","行政區":"信義區","地址":"永吉路500-600號","管制區類別":"無","性質":"娛樂地區"}},{"type":"Feature","geometry":{"type":"Point","coordinates":[121.5656419,25.03275077]},"properties":{"測點名稱":"噪音點","測點編號":"非測點","行政區":"信義區","地址":"信義路五段1-100號","管制區類別":"無","性質":"娛樂地區"}},{"type":"Feature","geometry":{"type":"Point","coordinates":[121.5481864,25.02073208]},"properties":{"測點名稱":"噪音點","測點編號":"非測點","行政區":"大安區","地址":"基隆路三段2號","管制區類別":"無","性質":"娛樂地區"}},{"type":"Feature","geometry":{"type":"Point","coordinates":[121.5531266,25.04408486]},"properties":{"測點名稱":"噪音點","測點編號":"非測點","行政區":"大安區","地址":"市民大道四段168號","管制區類別":"無","性質":"娛樂地區"}},{"type":"Feature","geometry":{"type":"Point","coordinates":[142.4934494,43.56605736]},"properties":{"測點名稱":"噪音點","測點編號":"非測點","行政區":"中山區","地址":"新生北路二段149巷1-100號","管制區類別":"無","性質":"娛樂地區"}},{"type":"Feature","geometry":{"type":"Point","coordinates":[121.1194219,41.108528]},"properties":{"測點名稱":"噪音點","測點編號":"非測點","行政區":"中山區","地址":"錦州街1-100號","管制區類別":"無","性質":"娛樂地區"}},{"type":"Feature","geometry":{"type":"Point","coordinates":[108.9912989,32.7165184]},"properties":{"測點名稱":"噪音點","測點編號":"非測點","行政區":"內湖區","地址":"安康路1-100號","管制區類別":"無","性質":"娛樂地區"}},{"type":"Feature","geometry":{"type":"Point","coordinates":[121.5656419,25.03275077]},"properties":{"測點名稱":"噪音點","測點編號":"非測點","行政區":"信義區","地址":"信義路五段1-100號","管制區類別":"無","性質":"娛樂地區"}},{"type":"Feature","geometry":{"type":"Point","coordinates":[135.5399501,35.0170171]},"properties":{"測點名稱":"噪音點","測點編號":"非測點","行政區":"士林區","地址":"大東路1-100號","管制區類別":"無","性質":"娛樂地區"}},{"type":"Feature","geometry":{"type":"Point","coordinates":[140.2141304,37.04944539]},"properties":{"測點名稱":"噪音點","測點編號":"非測點","行政區":"大安區","地址":"和平東路二段96巷17弄1-100號","管制區類別":"無","性質":"娛樂地區"}},{"type":"Feature","geometry":{"type":"Point","coordinates":[121.6013733,25.08411607]},"properties":{"測點名稱":"噪音點","測點編號":"非測點","行政區":"內湖區","地址":"成功路五段1-100號","管制區類別":"無","性質":"娛樂地區"}},{"type":"Feature","geometry":{"type":"Point","coordinates":[114.1341167,22.2649488]},"properties":{"測點名稱":"噪音點","測點編號":"非測點","行政區":"北投區","地址":"明德路100-200號","管制區類別":"無","性質":"娛樂地區"}},{"type":"Feature","geometry":{"type":"Point","coordinates":[144.3928733,43.00758953]},"properties":{"測點名稱":"噪音點","測點編號":"非測點","行政區":"大安區","地址":"愛國東? 100?200 號","管制區類別":"無","性質":"娛樂地區"}},{"type":"Feature","geometry":{"type":"Point","coordinates":[137.1770706,34.98868348]},"properties":{"測點名稱":"噪音點","測點編號":"非測點","行政區":"大安區","地址":"信義路三段111巷-建國南路一段279巷1-100號","管制區類別":"無","性質":"娛樂地區"}},{"type":"Feature","geometry":{"type":"Point","coordinates":[140.2141304,37.04944539]},"properties":{"測點名稱":"噪音點","測點編號":"非測點","行政區":"大安區","地址":"和平東路二段300-400號","管制區類別":"無","性質":"娛樂地區"}},{"type":"Feature","geometry":{"type":"Point","coordinates":[114.1431694,22.49566112]},"properties":{"測點名稱":"噪音點","測點編號":"非測點","行政區":"大安區","地址":"安居街1-100號","管制區類別":"無","性質":"娛樂地區"}},{"type":"Feature","geometry":{"type":"Point","coordinates":[118.7915079,32.0615652]},"properties":{"測點名稱":"噪音點","測點編號":"非測點","行政區":"松山區","地址":"南京東路三段300-400號","管制區類別":"無","性質":"娛樂地區"}},{"type":"Feature","geometry":{"type":"Point","coordinates":[140.8165598,38.30745041]},"properties":{"測點名稱":"噪音點","測點編號":"非測點","行政區":"中山區","地址":"中山北路二段33號2樓","管制區類別":"無","性質":"娛樂地區"}},{"type":"Feature","geometry":{"type":"Point","coordinates":[121.5660209,25.03566809]},"properties":{"測點名稱":"噪音點","測點編號":"非測點","行政區":"信義區","地址":"松壽路12號","管制區類別":"無","性質":"娛樂地區"}},{"type":"Feature","geometry":{"type":"Point","coordinates":[121.5630182,25.03269595]},"properties":{"測點名稱":"噪音點","測點編號":"非測點","行政區":"信義區","地址":"信義路五段16-1號","管制區類別":"無","性質":"娛樂地區"}},{"type":"Feature","geometry":{"type":"Point","coordinates":[121.5439814,25.04130655]},"properties":{"測點名稱":"噪音點","測點編號":"非測點","行政區":"大安區","地址":"忠孝東路四段49巷2號前","管制區類別":"無","性質":"娛樂地區"}},{"type":"Feature","geometry":{"type":"Point","coordinates":[127.9299433,26.61109519]},"properties":{"測點名稱":"噪音點","測點編號":"非測點","行政區":"大安區","地址":"安和路二段171巷21號","管制區類別":"無","性質":"娛樂地區"}},{"type":"Feature","geometry":{"type":"Point","coordinates":[121.611974,25.06996998]},"properties":{"測點名稱":"噪音點","測點編號":"非測點","行政區":"內湖區","地址":"康寧路三段187前","管制區類別":"無","性質":"娛樂地區"}},{"type":"Feature","geometry":{"type":"Point","coordinates":[144.3928733,43.00758953]},"properties":{"測點名稱":"噪音點","測點編號":"非測點","行政區":"大安區","地址":"愛國東路101號1樓","管制區類別":"無","性質":"娛樂地區"}},{"type":"Feature","geometry":{"type":"Point","coordinates":[136.7838909,35.27407088]},"properties":{"測點名稱":"噪音點","測點編號":"非測點","行政區":"內湖區","地址":"江南街110號前","管制區類別":"無","性質":"娛樂地區"}},{"type":"Feature","geometry":{"type":"Point","coordinates":[140.8089295,38.32859206]},"properties":{"測點名稱":"噪音點","測點編號":"非測點","行政區":"中正區","地址":"館前路34號1樓後方處","管制區類別":"無","性質":"娛樂地區"}},{"type":"Feature","geometry":{"type":"Point","coordinates":[134.3639867,35.05667046]},"properties":{"測點名稱":"噪音點","測點編號":"非測點","行政區":"大安區","地址":"延吉街62巷1-100號","管制區類別":"無","性質":"娛樂地區"}},{"type":"Feature","geometry":{"type":"Point","coordinates":[121.555527,25.05839599]},"properties":{"測點名稱":"噪音點","測點編號":"非測點","行政區":"松山區","地址":"臺北市松山區民生東路五段1-100號","管制區類別":"無","性質":"娛樂地區"}},{"type":"Feature","geometry":{"type":"Point","coordinates":[132.365795,35.03916947]},"properties":{"測點名稱":"噪音點","測點編號":"非測點","行政區":"士林區","地址":"中正路300-400號","管制區類別":"無","性質":"娛樂地區"}},{"type":"Feature","geometry":{"type":"Point","coordinates":[141.1326549,38.49162406]},"properties":{"測點名稱":"噪音點","測點編號":"非測點","行政區":"北投區","地址":"中央南路一段100-200號","管制區類別":"無","性質":"娛樂地區"}},{"type":"Feature","geometry":{"type":"Point","coordinates":[119.6486487,29.1080344]},"properties":{"測點名稱":"噪音點","測點編號":"非測點","行政區":"大安區","地址":"金華街164巷1-100號","管制區類別":"無","性質":"娛樂地區"}},{"type":"Feature","geometry":{"type":"Point","coordinates":[140.7349205,38.03467242]},"properties":{"測點名稱":"噪音點","測點編號":"非測點","行政區":"大同區","地址":"大龍街300-400號","管制區類別":"無","性質":"娛樂地區"}},{"type":"Feature","geometry":{"type":"Point","coordinates":[120.5962639,24.04831266]},"properties":{"測點名稱":"噪音點","測點編號":"非測點","行政區":"北投區","地址":"石牌路二段","管制區類別":"無","性質":"娛樂地區"}},{"type":"Feature","geometry":{"type":"Point","coordinates":[121.552341,25.03442794]},"properties":{"測點名稱":"噪音點","測點編號":"非測點","行政區":"大安區","地址":"安和路一段1-100號","管制區類別":"無","性質":"娛樂地區"}},{"type":"Feature","geometry":{"type":"Point","coordinates":[114.1684888,22.3132952]},"properties":{"測點名稱":"噪音點","測點編號":"非測點","行政區":"大安區","地址":"大安路一段31巷1-100號","管制區類別":"無","性質":"娛樂地區"}},{"type":"Feature","geometry":{"type":"Point","coordinates":[121.5185842,25.02651944]},"properties":{"測點名稱":"噪音點","測點編號":"非測點","行政區":"中正區","地址":"和平西路一段1-100號","管制區類別":"無","性質":"娛樂地區"}},{"type":"Feature","geometry":{"type":"Point","coordinates":[141.0529243,43.16718025]},"properties":{"測點名稱":"噪音點","測點編號":"非測點","行政區":"文山區","地址":"新光路二段74巷1-100號","管制區類別":"無","性質":"娛樂地區"}},{"type":"Feature","geometry":{"type":"Point","coordinates":[113.3870834,22.5196895]},"properties":{"測點名稱":"噪音點","測點編號":"非測點","行政區":"中山區","地址":"中山北路一段57之1-100號","管制區類別":"無","性質":"娛樂地區"}},{"type":"Feature","geometry":{"type":"Point","coordinates":[121.5359282,25.04491031]},"properties":{"測點名稱":"噪音點","測點編號":"非測點","行政區":"中正區","地址":"市民大道三段O號","管制區類別":"無","性質":"娛樂地區"}},{"type":"Feature","geometry":{"type":"Point","coordinates":[113.37912,22.52306]},"properties":{"測點名稱":"噪音點","測點編號":"非測點","行政區":"中山區","地址":"中山北路一段OO巷O號OO樓","管制區類別":"無","性質":"娛樂地區"}},{"type":"Feature","geometry":{"type":"Point","coordinates":[127.29141,42.75322]},"properties":{"測點名稱":"噪音點","測點編號":"非測點","行政區":"中山區","地址":"吉林路-民生東路二段","管制區類別":"無","性質":"娛樂地區"}},{"type":"Feature","geometry":{"type":"Point","coordinates":[121.510251,25.08276759]},"properties":{"測點名稱":"噪音點","測點編號":"非測點","行政區":"士林區","地址":"延平北路五段 oo 號","管制區類別":"無","性質":"娛樂地區"}},{"type":"Feature","geometry":{"type":"Point","coordinates":[118.77778,32.06167]},"properties":{"測點名稱":"噪音點","測點編號":"非測點","行政區":"松山區","地址":"南京東路四段 OOO 號","管制區類別":"無","性質":"娛樂地區"}},{"type":"Feature","geometry":{"type":"Point","coordinates":[119.1591957,32.2211792]},"properties":{"測點名稱":"噪音點","測點編號":"非測點","行政區":"中山區","地址":"南京東路二段 OO 號 O 樓","管制區類別":"無","性質":"娛樂地區"}},{"type":"Feature","geometry":{"type":"Point","coordinates":[106.5478767,29.5647398]},"properties":{"測點名稱":"噪音點","測點編號":"非測點","行政區":"大同區","地址":"重慶北路三段OOO巷OO號","管制區類別":"無","性質":"娛樂地區"}},{"type":"Feature","geometry":{"type":"Point","coordinates":[121.1194219,41.108528]},"properties":{"測點名稱":"噪音點","測點編號":"非測點","行政區":"中山區","地址":"錦州街OOO號O樓","管制區類別":"無","性質":"娛樂地區"}},{"type":"Feature","geometry":{"type":"Point","coordinates":[113.3870834,22.5196895]},"properties":{"測點名稱":"噪音點","測點編號":"非測點","行政區":"中山區","地址":"中山北路一段OO之O號","管制區類別":"無","性質":"娛樂地區"}},{"type":"Feature","geometry":{"type":"Point","coordinates":[128.22861,43.36954]},"properties":{"測點名稱":"噪音點","測點編號":"非測點","行政區":"大安區","地址":"敦化南路一段OOO號O樓","管制區類別":"無","性質":"娛樂地區"}},{"type":"Feature","geometry":{"type":"Point","coordinates":[141.1799599,38.77010952]},"properties":{"測點名稱":"噪音點","測點編號":"非測點","行政區":"松山區","地址":"新東街OO巷OO號","管制區類別":"無","性質":"娛樂地區"}},{"type":"Feature","geometry":{"type":"Point","coordinates":[128.22861,43.36954]},"properties":{"測點名稱":"噪音點","測點編號":"非測點","行政區":"松山區","地址":"敦化北路OOO號","管制區類別":"無","性質":"娛樂地區"}},{"type":"Feature","geometry":{"type":"Point","coordinates":[113.3870834,22.5196895]},"properties":{"測點名稱":"噪音點","測點編號":"非測點","行政區":"中山區","地址":"中山北路一段OO之O號","管制區類別":"無","性質":"娛樂地區"}},{"type":"Feature","geometry":{"type":"Point","coordinates":[134.606853,34.24617323]},"properties":{"測點名稱":"噪音點","測點編號":"非測點","行政區":"大同區","地址":"延平北路一段OO號OO樓之O","管制區類別":"無","性質":"娛樂地區"}},{"type":"Feature","geometry":{"type":"Point","coordinates":[128.22861,43.36954]},"properties":{"測點名稱":"噪音點","測點編號":"非測點","行政區":"大安區","地址":"敦化南路一段OOO巷OO號O樓","管制區類別":"無","性質":"娛樂地區"}},{"type":"Feature","geometry":{"type":"Point","coordinates":[118.77778,32.06167]},"properties":{"測點名稱":"噪音點","測點編號":"非測點","行政區":"松山區","地址":"南京東路五段OOO巷O之O號O樓","管制區類別":"無","性質":"娛樂地區"}},{"type":"Feature","geometry":{"type":"Point","coordinates":[121.5281834,25.10155118]},"properties":{"測點名稱":"噪音點","測點編號":"非測點","行政區":"士林區","地址":"至誠路二段ＯＯ號","管制區類別":"無","性質":"娛樂地區"}},{"type":"Feature","geometry":{"type":"Point","coordinates":[102.8058806,36.3290875]},"properties":{"測點名稱":"噪音點","測點編號":"非測點","行政區":"萬華區","地址":"民和街ＯＯ號","管制區類別":"無","性質":"娛樂地區"}},{"type":"Feature","geometry":{"type":"Point","coordinates":[121.22326,31.03443]},"properties":{"測點名稱":"噪音點","測點編號":"非測點","行政區":"中山區","地址":"松江路ＯＯＯ巷Ｏ號","管制區類別":"無","性質":"娛樂地區"}},{"type":"Feature","geometry":{"type":"Point","coordinates":[119.1591957,32.2211792]},"properties":{"測點名稱":"噪音點","測點編號":"非測點","行政區":"中山區","地址":"南京東路二段ＯＯ號","管制區類別":"無","性質":"娛樂地區"}},{"type":"Feature","geometry":{"type":"Point","coordinates":[112.5665703,26.8971898]},"properties":{"測點名稱":"噪音點","測點編號":"非測點","行政區":"中正區","地址":"衡陽路ＯＯＯ號Ｏ樓","管制區類別":"無","性質":"娛樂地區"}},{"type":"Feature","geometry":{"type":"Point","coordinates":[118.77778,32.06167]},"properties":{"測點名稱":"噪音點","測點編號":"非測點","行政區":"大同區","地址":"南京西路ＯＯ巷Ｏ弄Ｏ號Ｏ樓","管制區類別":"無","性質":"娛樂地區"}},{"type":"Feature","geometry":{"type":"Point","coordinates":[128.22861,43.36954]},"properties":{"測點名稱":"噪音點","測點編號":"非測點","行政區":"大安區","地址":"敦化南路一段ＯＯＯ巷ＯＯ號Ｏ樓","管制區類別":"無","性質":"娛樂地區"}},{"type":"Feature","geometry":{"type":"Point","coordinates":[119.1591957,32.2211792]},"properties":{"測點名稱":"噪音點","測點編號":"非測點","行政區":"中山區","地址":"南京東路二段ＯＯ號Ｏ樓","管制區類別":"無","性質":"娛樂地區"}},{"type":"Feature","geometry":{"type":"Point","coordinates":[128.22861,43.36954]},"properties":{"測點名稱":"噪音點","測點編號":"非測點","行政區":"大安區","地址":"敦化南路一段ＯＯＯ號Ｏ樓","管制區類別":"無","性質":"娛樂地區"}},{"type":"Feature","geometry":{"type":"Point","coordinates":[121.5281834,25.10155118]},"properties":{"測點名稱":"噪音點","測點編號":"非測點","行政區":"士林區","地址":"至誠路二段ＯＯ巷","管制區類別":"無","性質":"娛樂地區"}},{"type":"Feature","geometry":{"type":"Point","coordinates":[128.22861,43.36954]},"properties":{"測點名稱":"噪音點","測點編號":"非測點","行政區":"大安區","地址":"敦化南路一段ＯＯＯ巷ＯＯ號Ｏ樓","管制區類別":"無","性質":"娛樂地區"}},{"type":"Feature","geometry":{"type":"Point","coordinates":[119.6486487,29.1080344]},"properties":{"測點名稱":"噪音點","測點編號":"非測點","行政區":"中正區","地址":"金華街ＯＯ號對面","管制區類別":"無","性質":"娛樂地區"}},{"type":"Feature","geometry":{"type":"Point","coordinates":[102.8058806,36.3290875]},"properties":{"測點名稱":"噪音點","測點編號":"非測點","行政區":"萬華區","地址":"民和街ＯＯ號","管制區類別":"無","性質":"娛樂地區"}},{"type":"Feature","geometry":{"type":"Point","coordinates":[118.77778,32.06167]},"properties":{"測點名稱":"噪音點","測點編號":"非測點","行政區":"松山區","地址":"南京東路五段ＯＯＯ巷Ｏ之Ｏ號Ｏ樓","管制區類別":"無","性質":"娛樂地區"}},{"type":"Feature","geometry":{"type":"Point","coordinates":[128.22861,43.36954]},"properties":{"測點名稱":"噪音點","測點編號":"非測點","行政區":"大安區","地址":"敦化南路一段ＯＯＯ巷ＯＯ號Ｏ樓","管制區類別":"無","性質":"娛樂地區"}},{"type":"Feature","geometry":{"type":"Point","coordinates":[113.3870834,22.5196895]},"properties":{"測點名稱":"噪音點","測點編號":"非測點","行政區":"中山區","地址":"中山北路二段OO巷OO號","管制區類別":"無","性質":"娛樂地區"}},{"type":"Feature","geometry":{"type":"Point","coordinates":[121.5251783,25.0580898]},"properties":{"測點名稱":"噪音點","測點編號":"非測點","行政區":"中山區","地址":"民生東路一段OO號","管制區類別":"無","性質":"娛樂地區"}},{"type":"Feature","geometry":{"type":"Point","coordinates":[113.3870834,22.5196895]},"properties":{"測點名稱":"噪音點","測點編號":"非測點","行政區":"中山區","地址":"中山北路二段OO巷OO號","管制區類別":"無","性質":"娛樂地區"}},{"type":"Feature","geometry":{"type":"Point","coordinates":[121.5251783,25.0580898]},"properties":{"測點名稱":"噪音點","測點編號":"非測點","行政區":"中山區","地址":"民生東路一段OO號","管制區類別":"無","性質":"娛樂地區"}},{"type":"Feature","geometry":{"type":"Point","coordinates":[113.3870834,22.5196895]},"properties":{"測點名稱":"噪音點","測點編號":"非測點","行政區":"中山區","地址":"中山北路二段OO巷OO號","管制區類別":"無","性質":"娛樂地區"}},{"type":"Feature","geometry":{"type":"Point","coordinates":[128.22861,43.36954]},"properties":{"測點名稱":"噪音點","測點編號":"非測點","行政區":"大安區","地址":"敦化南路一段OOO巷O號","管制區類別":"無","性質":"娛樂地區"}},{"type":"Feature","geometry":{"type":"Point","coordinates":[121.5819487,25.04413779]},"properties":{"測點名稱":"噪音點","測點編號":"非測點","行政區":"信義區","地址":"忠孝東路五段O號","管制區類別":"無","性質":"娛樂地區"}},{"type":"Feature","geometry":{"type":"Point","coordinates":[135.877907,34.73632137]},"properties":{"測點名稱":"噪音點","測點編號":"非測點","行政區":"大安區","地址":"浦城街OO巷O號及O號的餐廳","管制區類別":"無","性質":"娛樂地區"}},{"type":"Feature","geometry":{"type":"Point","coordinates":[113.3870834,22.5196895]},"properties":{"測點名稱":"噪音點","測點編號":"非測點","行政區":"中山區","地址":"中山北路二段OO巷OO號旁","管制區類別":"無","性質":"娛樂地區"}},{"type":"Feature","geometry":{"type":"Point","coordinates":[113.3870834,22.5196895]},"properties":{"測點名稱":"噪音點","測點編號":"非測點","行政區":"中山區","地址":"中山北路二段OO巷OO號","管制區類別":"無","性質":"娛樂地區"}},{"type":"Feature","geometry":{"type":"Point","coordinates":[125.9170455,41.7225544]},"properties":{"測點名稱":"噪音點","測點編號":"非測點","行政區":"大安區","地址":"通化街OO巷OO弄OO號O樓","管制區類別":"無","性質":"娛樂地區"}},{"type":"Feature","geometry":{"type":"Point","coordinates":[113.3870834,22.5196895]},"properties":{"測點名稱":"噪音點","測點編號":"非測點","行政區":"中山區","地址":"中山北路二段OO巷O號","管制區類別":"無","性質":"娛樂地區"}},{"type":"Feature","geometry":{"type":"Point","coordinates":[118.77778,32.06167]},"properties":{"測點名稱":"噪音點","測點編號":"非測點","行政區":"中山區","地址":"南京東路三段OOO號大樓後方","管制區類別":"無","性質":"娛樂地區"}},{"type":"Feature","geometry":{"type":"Point","coordinates":[128.22861,43.36954]},"properties":{"測點名稱":"噪音點","測點編號":"非測點","行政區":"松山區","地址":"敦化北路OOO巷O號","管制區類別":"無","性質":"娛樂地區"}},{"type":"Feature","geometry":{"type":"Point","coordinates":[119.6486487,29.1080344]},"properties":{"測點名稱":"噪音點","測點編號":"非測點","行政區":"中正區","地址":"金華街OO號前","管制區類別":"無","性質":"娛樂地區"}},{"type":"Feature","geometry":{"type":"Point","coordinates":[102.8058806,36.3290875]},"properties":{"測點名稱":"噪音點","測點編號":"非測點","行政區":"萬華區","地址":"民和街OO號","管制區類別":"無","性質":"娛樂地區"}},{"type":"Feature","geometry":{"type":"Point","coordinates":[106.6246178,26.6499922]},"properties":{"測點名稱":"噪音點","測點編號":"非測點","行政區":"萬華區","地址":"貴陽街O段OO巷OO號O樓","管制區類別":"無","性質":"娛樂地區"}},{"type":"Feature","geometry":{"type":"Point","coordinates":[128.22861,43.36954]},"properties":{"測點名稱":"噪音點","測點編號":"非測點","行政區":"大安區","地址":"敦化南路一段OOO巷OO號O樓","管制區類別":"無","性質":"娛樂地區"}},{"type":"Feature","geometry":{"type":"Point","coordinates":[121.1194219,41.108528]},"properties":{"測點名稱":"噪音點","測點編號":"非測點","行政區":"中山區","地址":"錦州街OOO號O樓","管制區類別":"無","性質":"娛樂地區"}},{"type":"Feature","geometry":{"type":"Point","coordinates":[117.9543248,40.957718]},"properties":{"測點名稱":"噪音點","測點編號":"非測點","行政區":"大同區","地址":"承德路一段OO巷OO號","管制區類別":"無","性質":"娛樂地區"}},{"type":"Feature","geometry":{"type":"Point","coordinates":[102.8058806,36.3290875]},"properties":{"測點名稱":"噪音點","測點編號":"非測點","行政區":"萬華區","地址":"民和街OO號","管制區類別":"無","性質":"娛樂地區"}},{"type":"Feature","geometry":{"type":"Point","coordinates":[125.3171216,43.8130735]},"properties":{"測點名稱":"噪音點","測點編號":"非測點","行政區":"中山區","地址":"長春路OO號O樓","管制區類別":"無","性質":"娛樂地區"}},{"type":"Feature","geometry":{"type":"Point","coordinates":[143.0653858,42.89322436]},"properties":{"測點名稱":"噪音點","測點編號":"非測點","行政區":"大安區","地址":"新生南路一段OOO-O號","管制區類別":"無","性質":"娛樂地區"}},{"type":"Feature","geometry":{"type":"Point","coordinates":[118.77778,32.06167]},"properties":{"測點名稱":"噪音點","測點編號":"非測點","行政區":"中山區","地址":"南京東路三段OOO巷O號O樓","管制區類別":"無","性質":"娛樂地區"}},{"type":"Feature","geometry":{"type":"Point","coordinates":[121.551352,25.04432182]},"properties":{"測點名稱":"噪音點","測點編號":"非測點","行政區":"大安區","地址":"市民大道四段 126 號 1 樓","管制區類別":"無","性質":"娛樂地區"}},{"type":"Feature","geometry":{"type":"Point","coordinates":[121.5660839,25.03575941]},"properties":{"測點名稱":"噪音點","測點編號":"非測點","行政區":"信義區","地址":"松壽路 12 號","管制區類別":"無","性質":"娛樂地區"}},{"type":"Feature","geometry":{"type":"Point","coordinates":[121.5500121,25.02845606]},"properties":{"測點名稱":"噪音點","測點編號":"非測點","行政區":"大安區","地址":"安和路二段 100 號","管制區類別":"無","性質":"娛樂地區"}},{"type":"Feature","geometry":{"type":"Point","coordinates":[121.5432283,25.02338889]},"properties":{"測點名稱":"噪音點","測點編號":"非測點","行政區":"大安區","地址":"復興南路二段 316 號 1 樓","管制區類別":"無","性質":"娛樂地區"}},{"type":"Feature","geometry":{"type":"Point","coordinates":[121.5668106,25.03901294]},"properties":{"測點名稱":"噪音點","測點編號":"非測點","行政區":"信義區","地址":"松高路 12 號","管制區類別":"無","性質":"娛樂地區"}},{"type":"Feature","geometry":{"type":"Point","coordinates":[121.5660839,25.03575941]},"properties":{"測點名稱":"噪音點","測點編號":"非測點","行政區":"信義區","地址":"松壽路 12 號","管制區類別":"無","性質":"娛樂地區"}},{"type":"Feature","geometry":{"type":"Point","coordinates":[121.5432283,25.02338889]},"properties":{"測點名稱":"噪音點","測點編號":"非測點","行政區":"大安區","地址":"復興南路二段 316 號","管制區類別":"無","性質":"娛樂地區"}},{"type":"Feature","geometry":{"type":"Point","coordinates":[128.22861,43.36954]},"properties":{"測點名稱":"噪音點","測點編號":"非測點","行政區":"大安區","地址":"敦化南路一段 190 巷 21 號","管制區類別":"無","性質":"娛樂地區"}},{"type":"Feature","geometry":{"type":"Point","coordinates":[135.4158802,35.01694358]},"properties":{"測點名稱":"噪音點","測點編號":"非測點","行政區":"中正區","地址":"金山南路一段 67 巷 11 號前","管制區類別":"無","性質":"娛樂地區"}},{"type":"Feature","geometry":{"type":"Point","coordinates":[140.2141304,37.04944539]},"properties":{"測點名稱":"噪音點","測點編號":"非測點","行政區":"中正區","地址":"和平西路 2 段 56 號","管制區類別":"無","性質":"娛樂地區"}},{"type":"Feature","geometry":{"type":"Point","coordinates":[121.5282873,25.04839235]},"properties":{"測點名稱":"噪音點","測點編號":"非測點","行政區":"中山區","地址":"長安東路一段 81 號","管制區類別":"無","性質":"娛樂地區"}},{"type":"Feature","geometry":{"type":"Point","coordinates":[121.5677202,25.0331314]},"properties":{"測點名稱":"噪音點","測點編號":"非測點","行政區":"信義區","地址":"信義區松壽路 O O號 O O樓","管制區類別":"無","性質":"娛樂地區"}},{"type":"Feature","geometry":{"type":"Point","coordinates":[121.5677202,25.0331314]},"properties":{"測點名稱":"噪音點","測點編號":"非測點","行政區":"信義區","地址":"信義區信安街 O O號","管制區類別":"無","性質":"娛樂地區"}},{"type":"Feature","geometry":{"type":"Point","coordinates":[121.5242704,25.06567248]},"properties":{"測點名稱":"噪音點","測點編號":"非測點","行政區":"中山區","地址":"中山區雙城街 O O巷 O號 O樓","管制區類別":"無","性質":"娛樂地區"}},{"type":"Feature","geometry":{"type":"Point","coordinates":[121.5497149,25.03792689]},"properties":{"測點名稱":"噪音點","測點編號":"非測點","行政區":"大安區","地址":"大安區仁愛路四段 O O O號 O樓","管制區類別":"無","性質":"娛樂地區"}},{"type":"Feature","geometry":{"type":"Point","coordinates":[121.529749,25.01683583]},"properties":{"測點名稱":"噪音點","測點編號":"非測點","行政區":"中正區","地址":"中正區汀州路三段 O O O號 O樓","管制區類別":"無","性質":"娛樂地區"}},{"type":"Feature","geometry":{"type":"Point","coordinates":[121.5242704,25.06567248]},"properties":{"測點名稱":"噪音點","測點編號":"非測點","行政區":"中山區","地址":"中山區雙城街 O O巷 O號 O樓","管制區類別":"無","性質":"娛樂地區"}},{"type":"Feature","geometry":{"type":"Point","coordinates":[121.5534681,25.05156916]},"properties":{"測點名稱":"噪音點","測點編號":"非測點","行政區":"松山區","地址":"松山區南京東路四段 O O O巷 O弄 O號","管制區類別":"無","性質":"娛樂地區"}},{"type":"Feature","geometry":{"type":"Point","coordinates":[121.5277133,25.05659124]},"properties":{"測點名稱":"噪音點","測點編號":"非測點","行政區":"中山區","地址":"中山區新生北路二段 O O巷 O O號 O樓","管制區類別":"無","性質":"娛樂地區"}},{"type":"Feature","geometry":{"type":"Point","coordinates":[121.5488668,25.04145246]},"properties":{"測點名稱":"噪音點","測點編號":"非測點","行政區":"大安區","地址":"大安區忠孝東路四段 O O O號樓","管制區類別":"無","性質":"娛樂地區"}},{"type":"Feature","geometry":{"type":"Point","coordinates":[128.22861,43.36954]},"properties":{"測點名稱":"噪音點","測點編號":"非測點","行政區":"松山區","地址":"敦化北路OOO巷OO號O樓店家後方防火巷","管制區類別":"無","性質":"娛樂地區"}},{"type":"Feature","geometry":{"type":"Point","coordinates":[121.5497149,25.03792689]},"properties":{"測點名稱":"噪音點","測點編號":"非測點","行政區":"大安區","地址":"仁愛路四段OO號","管制區類別":"無","性質":"娛樂地區"}},{"type":"Feature","geometry":{"type":"Point","coordinates":[142.4934494,43.56605736]},"properties":{"測點名稱":"噪音點","測點編號":"非測點","行政區":"中山區","地址":"新生北路二段OO巷OO號","管制區類別":"無","性質":"娛樂地區"}},{"type":"Feature","geometry":{"type":"Point","coordinates":[142.4934494,43.56605736]},"properties":{"測點名稱":"噪音點","測點編號":"非測點","行政區":"中山區","地址":"新生北路二段OO巷OO號O樓","管制區類別":"無","性質":"娛樂地區"}},{"type":"Feature","geometry":{"type":"Point","coordinates":[118.3506988,35.1032403]},"properties":{"測點名稱":"噪音點","測點編號":"非測點","行政區":"中正區","地址":"臨沂街OO巷O之O號O樓後方(陳情人居處)","管制區類別":"無","性質":"娛樂地區"}},{"type":"Feature","geometry":{"type":"Point","coordinates":[119.6486487,29.1080344]},"properties":{"測點名稱":"噪音點","測點編號":"非測點","行政區":"中正區","地址":"金華街OO之O號對面","管制區類別":"無","性質":"娛樂地區"}},{"type":"Feature","geometry":{"type":"Point","coordinates":[142.4934494,43.56605736]},"properties":{"測點名稱":"噪音點","測點編號":"非測點","行政區":"中山區","地址":"新生北路二段OO巷OO號O樓","管制區類別":"無","性質":"娛樂地區"}},{"type":"Feature","geometry":{"type":"Point","coordinates":[141.1326549,38.49162406]},"properties":{"測點名稱":"噪音點","測點編號":"非測點","行政區":"北投區","地址":"中央北路二段OOO號","管制區類別":"無","性質":"娛樂地區"}},{"type":"Feature","geometry":{"type":"Point","coordinates":[128.22861,43.36954]},"properties":{"測點名稱":"噪音點","測點編號":"非測點","行政區":"松山區","地址":"敦化北路OOO號","管制區類別":"無","性質":"娛樂地區"}},{"type":"Feature","geometry":{"type":"Point","coordinates":[128.22861,43.36954]},"properties":{"測點名稱":"噪音點","測點編號":"非測點","行政區":"大安區","地址":"敦化南路一段OOO巷OO號O樓","管制區類別":"無","性質":"娛樂地區"}},{"type":"Feature","geometry":{"type":"Point","coordinates":[113.2951122,40.0919817]},"properties":{"測點名稱":"噪音點","測點編號":"非測點","行政區":"北投區","地址":"大同街OOO巷O號O樓","管制區類別":"無","性質":"娛樂地區"}},{"type":"Feature","geometry":{"type":"Point","coordinates":[114.3472038,34.7961106]},"properties":{"測點名稱":"噪音點","測點編號":"非測點","行政區":"中正區","地址":"開封街一段OO之O號O樓後方防火巷","管制區類別":"無","性質":"娛樂地區"}},{"type":"Feature","geometry":{"type":"Point","coordinates":[121.5819487,25.04413779]},"properties":{"測點名稱":"噪音點","測點編號":"非測點","行政區":"信義區","地址":"忠孝東路五段OO號","管制區類別":"無","性質":"娛樂地區"}},{"type":"Feature","geometry":{"type":"Point","coordinates":[129.50241,42.88825]},"properties":{"測點名稱":"噪音點","測點編號":"非測點","行政區":"大安區","地址":"延吉街OOO巷O號","管制區類別":"無","性質":"娛樂地區"}},{"type":"Feature","geometry":{"type":"Point","coordinates":[120.6512652,27.7809047]},"properties":{"測點名稱":"噪音點","測點編號":"非測點","行政區":"大安區","地址":"瑞安街OOO號","管制區類別":"無","性質":"娛樂地區"}},{"type":"Feature","geometry":{"type":"Point","coordinates":[118.7915079,32.0615652]},"properties":{"測點名稱":"噪音點","測點編號":"非測點","行政區":"松山區","地址":"南京東路五段OO巷O弄O號旁","管制區類別":"無","性質":"娛樂地區"}},{"type":"Feature","geometry":{"type":"Point","coordinates":[118.77778,32.06167]},"properties":{"測點名稱":"噪音點","測點編號":"非測點","行政區":"中山區","地址":"南京東路一段OOO巷OO號O樓","管制區類別":"無","性質":"娛樂地區"}},{"type":"Feature","geometry":{"type":"Point","coordinates":[142.4934494,43.56605736]},"properties":{"測點名稱":"噪音點","測點編號":"非測點","行政區":"中山區","地址":"新生北路二段OO巷OO號旁","管制區類別":"無","性質":"娛樂地區"}},{"type":"Feature","geometry":{"type":"Point","coordinates":[117.9543248,40.957718]},"properties":{"測點名稱":"噪音點","測點編號":"非測點","行政區":"大同區","地址":"承德路三段OOO巷OO號","管制區類別":"無","性質":"娛樂地區"}},{"type":"Feature","geometry":{"type":"Point","coordinates":[125.3171216,43.8130735]},"properties":{"測點名稱":"噪音點","測點編號":"非測點","行政區":"松山區","地址":"長春路OOO號","管制區類別":"無","性質":"娛樂地區"}},{"type":"Feature","geometry":{"type":"Point","coordinates":[118.77778,32.06167]},"properties":{"測點名稱":"噪音點","測點編號":"非測點","行政區":"中山區","地址":"南京東路一段OOO巷OO號O樓","管制區類別":"無","性質":"娛樂地區"}},{"type":"Feature","geometry":{"type":"Point","coordinates":[128.22861,43.36954]},"properties":{"測點名稱":"噪音點","測點編號":"非測點","行政區":"松山區","地址":"敦化北路OOO號","管制區類別":"無","性質":"娛樂地區"}},{"type":"Feature","geometry":{"type":"Point","coordinates":[121.467858,25.12309657]},"properties":{"測點名稱":"噪音點","測點編號":"非測點","行政區":"北投區","地址":"大度路三段","管制區類別":"無","性質":"娛樂地區"}},{"type":"Feature","geometry":{"type":"Point","coordinates":[128.22861,43.36954]},"properties":{"測點名稱":"噪音點","測點編號":"非測點","行政區":"松山區","地址":"敦化北路OOO巷O號","管制區類別":"無","性質":"娛樂地區"}},{"type":"Feature","geometry":{"type":"Point","coordinates":[102.71833,25.03889]},"properties":{"測點名稱":"噪音點","測點編號":"非測點","行政區":"萬華區","地址":"昆明街OO之O號","管制區類別":"無","性質":"娛樂地區"}},{"type":"Feature","geometry":{"type":"Point","coordinates":[113.37912,22.52306]},"properties":{"測點名稱":"噪音點","測點編號":"非測點","行政區":"中山區","地址":"中山北路二段OO號O樓","管制區類別":"無","性質":"娛樂地區"}},{"type":"Feature","geometry":{"type":"Point","coordinates":[128.22861,43.36954]},"properties":{"測點名稱":"噪音點","測點編號":"非測點","行政區":"松山區","地址":"敦化北路OOO號","管制區類別":"無","性質":"娛樂地區"}},{"type":"Feature","geometry":{"type":"Point","coordinates":[125.9170455,41.7225544]},"properties":{"測點名稱":"噪音點","測點編號":"非測點","行政區":"大安區","地址":"通化街OOO號O樓","管制區類別":"無","性質":"娛樂地區"}},{"type":"Feature","geometry":{"type":"Point","coordinates":[121.5498101,25.05941364]},"properties":{"測點名稱":"噪音點","測點編號":"非測點","行政區":"松山區","地址":"松山區敦化北路OOO號O樓","管制區類別":"無","性質":"娛樂地區"}},{"type":"Feature","geometry":{"type":"Point","coordinates":[121.576348,25.07877759]},"properties":{"測點名稱":"噪音點","測點編號":"非測點","行政區":"內湖區","地址":"內湖區港墘路OO巷O號O樓","管制區類別":"無","性質":"娛樂地區"}},{"type":"Feature","geometry":{"type":"Point","coordinates":[121.5520663,25.05794293]},"properties":{"測點名稱":"噪音點","測點編號":"非測點","行政區":"松山區","地址":"松山區民生東路四段OOO號O樓","管制區類別":"無","性質":"娛樂地區"}},{"type":"Feature","geometry":{"type":"Point","coordinates":[121.5040428,25.03898917]},"properties":{"測點名稱":"噪音點","測點編號":"非測點","行政區":"萬華區","地址":"萬華區昆明街OO號","管制區類別":"無","性質":"娛樂地區"}},{"type":"Feature","geometry":{"type":"Point","coordinates":[128.22861,43.36954]},"properties":{"測點名稱":"噪音點","測點編號":"非測點","行政區":"松山區","地址":"敦化北路OOO號","管制區類別":"無","性質":"娛樂地區"}},{"type":"Feature","geometry":{"type":"Point","coordinates":[116.3912757,39.906217]},"properties":{"測點名稱":"噪音點","測點編號":"非測點","行政區":"中正區","地址":"北平東路OO號O樓","管制區類別":"無","性質":"娛樂地區"}},{"type":"Feature","geometry":{"type":"Point","coordinates":[128.22861,43.36954]},"properties":{"測點名稱":"噪音點","測點編號":"非測點","行政區":"松山區","地址":"敦化北路OOO號","管制區類別":"無","性質":"娛樂地區"}},{"type":"Feature","geometry":{"type":"Point","coordinates":[129.50241,42.88825]},"properties":{"測點名稱":"噪音點","測點編號":"非測點","行政區":"大安區","地址":"延吉街OOO巷OO號","管制區類別":"無","性質":"娛樂地區"}},{"type":"Feature","geometry":{"type":"Point","coordinates":[102.71833,25.03889]},"properties":{"測點名稱":"噪音點","測點編號":"非測點","行政區":"萬華區","地址":"昆明街OO巷OO號前","管制區類別":"無","性質":"娛樂地區"}},{"type":"Feature","geometry":{"type":"Point","coordinates":[102.71833,25.03889]},"properties":{"測點名稱":"噪音點","測點編號":"非測點","行政區":"萬華區","地址":"昆明街OO之O號O樓頂","管制區類別":"無","性質":"娛樂地區"}},{"type":"Feature","geometry":{"type":"Point","coordinates":[119.1591957,32.2211792]},"properties":{"測點名稱":"噪音點","測點編號":"非測點","行政區":"中山區","地址":"南京東路二段OOO巷O號","管制區類別":"無","性質":"娛樂地區"}},{"type":"Feature","geometry":{"type":"Point","coordinates":[121.5251783,25.0580898]},"properties":{"測點名稱":"噪音點","測點編號":"非測點","行政區":"中山區","地址":"民生東路一段OO號","管制區類別":"無","性質":"娛樂地區"}},{"type":"Feature","geometry":{"type":"Point","coordinates":[113.37912,22.52306]},"properties":{"測點名稱":"噪音點","測點編號":"非測點","行政區":"士林區","地址":"中山北路五段OOO巷OO號O樓","管制區類別":"無","性質":"娛樂地區"}},{"type":"Feature","geometry":{"type":"Point","coordinates":[113.37912,22.52306]},"properties":{"測點名稱":"噪音點","測點編號":"非測點","行政區":"士林區","地址":"中山北路五段OOO巷OO號O樓","管制區類別":"無","性質":"娛樂地區"}},{"type":"Feature","geometry":{"type":"Point","coordinates":[119.6486487,29.1080344]},"properties":{"測點名稱":"噪音點","測點編號":"非測點","行政區":"中正區","地址":"金華街OO-O號","管制區類別":"無","性質":"娛樂地區"}},{"type":"Feature","geometry":{"type":"Point","coordinates":[121.5244808,25.08098345]},"properties":{"測點名稱":"噪音點","測點編號":"非測點","行政區":"士林區","地址":"中山北路五段 ","管制區類別":"無","性質":"娛樂地區"}},{"type":"Feature","geometry":{"type":"Point","coordinates":[113.37912,22.52306]},"properties":{"測點名稱":"噪音點","測點編號":"非測點","行政區":"士林區","地址":"中山北路五段OOO巷OO號O樓","管制區類別":"無","性質":"娛樂地區"}},{"type":"Feature","geometry":{"type":"Point","coordinates":[113.37912,22.52306]},"properties":{"測點名稱":"噪音點","測點編號":"非測點","行政區":"士林區","地址":"中山北路五段OOO巷OO號O樓","管制區類別":"無","性質":"娛樂地區"}},{"type":"Feature","geometry":{"type":"Point","coordinates":[113.37912,22.52306]},"properties":{"測點名稱":"噪音點","測點編號":"非測點","行政區":"士林區","地址":"中山北路五段OOO巷OO號O樓","管制區類別":"無","性質":"娛樂地區"}},{"type":"Feature","geometry":{"type":"Point","coordinates":[141.0606867,39.13785192]},"properties":{"測點名稱":"噪音點","測點編號":"非測點","行政區":"松山區","地址":"新中街OO-O號","管制區類別":"無","性質":"娛樂地區"}},{"type":"Feature","geometry":{"type":"Point","coordinates":[137.3244609,34.69084217]},"properties":{"測點名稱":"噪音點","測點編號":"非測點","行政區":"中山區","地址":"天津街OO號","管制區類別":"無","性質":"娛樂地區"}},{"type":"Feature","geometry":{"type":"Point","coordinates":[108.9350839,34.3430507]},"properties":{"測點名稱":"噪音點","測點編號":"非測點","行政區":"中山區","地址":"長安東路二段OO號O樓","管制區類別":"無","性質":"娛樂地區"}},{"type":"Feature","geometry":{"type":"Point","coordinates":[141.1326549,38.49162406]},"properties":{"測點名稱":"噪音點","測點編號":"非測點","行政區":"北投區","地址":"中央北路二段OOO號O樓","管制區類別":"無","性質":"娛樂地區"}},{"type":"Feature","geometry":{"type":"Point","coordinates":[121.22326,31.03443]},"properties":{"測點名稱":"噪音點","測點編號":"非測點","行政區":"中山區","地址":"松江路OOO號","管制區類別":"無","性質":"娛樂地區"}}]}