{"type":"FeatureCollection","features":[{"type":"Feature","geometry":{"type":"Point","coordinates":[121.630912,25.227357]},"properties":{"siteid":1033,"監測站名稱":"四十號橋","行政區":"金山區","流域":"磺溪流域","河流":"磺溪","檢驗時間":"2025-12-04","溶氧量(DO)":"9.3（正常）","生化需氧量(BOD5)":"<1.0（正常）","懸浮固體(SS)":"4.0（正常）","氨氮(NH3-N)":"0.07（正常）","河川污染指數(RPI)":"1（未／稍受污染）","河流污染程度":"未(稍)受污染"}},{"type":"Feature","geometry":{"type":"Point","coordinates":[121.341425,24.930705]},"properties":{"siteid":1014,"監測站名稱":"板新取水口","行政區":"鶯歌區","流域":"淡水河流域","河流":"大漢溪","檢驗時間":"2026-03-02","溶氧量(DO)":"9.0（正常）","生化需氧量(BOD5)":"1.5（正常）","懸浮固體(SS)":"14.2（正常）","氨氮(NH3-N)":"0.14（正常）","河川污染指數(RPI)":"1（未／稍受污染）","河流污染程度":"未(稍)受污染"}},{"type":"Feature","geometry":{"type":"Point","coordinates":[121.3532231,24.9447611]},"properties":{"siteid":1015,"監測站名稱":"三鶯大橋","行政區":"鶯歌區","流域":"淡水河流域","河流":"大漢溪","檢驗時間":"2026-03-02","溶氧量(DO)":"7.7（正常）","生化需氧量(BOD5)":"<1.0（正常）","懸浮固體(SS)":"11.4（正常）","氨氮(NH3-N)":"0.17（正常）","河川污染指數(RPI)":"1（未／稍受污染）","河流污染程度":"未(稍)受污染"}},{"type":"Feature","geometry":{"type":"Point","coordinates":[121.4362461,24.9950731]},"properties":{"siteid":1016,"監測站名稱":"浮洲橋","行政區":"板橋區","流域":"淡水河流域","河流":"大漢溪","檢驗時間":"2026-03-02","溶氧量(DO)":"6.4（正常）","生化需氧量(BOD5)":"6.9（生化需氧量偏高）","懸浮固體(SS)":"12.8（正常）","氨氮(NH3-N)":"1.95（氨氮偏高）","河川污染指數(RPI)":"4（中度污染）","河流污染程度":"中度污染"}},{"type":"Feature","geometry":{"type":"Point","coordinates":[121.45462,25.0328661]},"properties":{"siteid":1017,"監測站名稱":"新海大橋","行政區":"板橋區","流域":"淡水河流域","河流":"大漢溪","檢驗時間":"2026-03-02","溶氧量(DO)":"1.2（溶氧嚴重偏低）","生化需氧量(BOD5)":"4.6（正常）","懸浮固體(SS)":"11.1（正常）","氨氮(NH3-N)":"3.77（氨氮嚴重偏高）","河川污染指數(RPI)":"6（中度污染）","河流污染程度":"中度污染"}},{"type":"Feature","geometry":{"type":"Point","coordinates":[121.65564,25.068573]},"properties":{"siteid":1009,"監測站名稱":"江北橋","行政區":"汐止區","流域":"淡水河流域","河流":"基隆河","檢驗時間":"2026-03-02","溶氧量(DO)":"6.7（正常）","生化需氧量(BOD5)":"3.5（正常）","懸浮固體(SS)":"7.2（正常）","氨氮(NH3-N)":"0.58（正常）","河川污染指數(RPI)":"2（未／稍受污染）","河流污染程度":"未(稍)受污染"}},{"type":"Feature","geometry":{"type":"Point","coordinates":[121.8054,25.1064039]},"properties":{"siteid":1005,"監測站名稱":"介壽橋","行政區":"瑞芳區","流域":"淡水河流域","河流":"基隆河","檢驗時間":"2026-03-02","溶氧量(DO)":"9.4（正常）","生化需氧量(BOD5)":"2.5（正常）","懸浮固體(SS)":"5.4（正常）","氨氮(NH3-N)":"0.33（正常）","河川污染指數(RPI)":"1（未／稍受污染）","河流污染程度":"未(稍)受污染"}},{"type":"Feature","geometry":{"type":"Point","coordinates":[121.374865,24.934632]},"properties":{"siteid":1042,"監測站名稱":"三峽大橋","行政區":"三峽區","流域":"淡水河流域","河流":"三峽河","檢驗時間":"2026-03-02","溶氧量(DO)":"4.0（溶氧偏低）","生化需氧量(BOD5)":"15.4（生化需氧量嚴重偏高）","懸浮固體(SS)":"6.6（正常）","氨氮(NH3-N)":"1.33（氨氮偏高）","河川污染指數(RPI)":"5.75（中度污染）","河流污染程度":"中度污染"}},{"type":"Feature","geometry":{"type":"Point","coordinates":[121.3737769,24.8956389]},"properties":{"siteid":1041,"監測站名稱":"三峽河抽水站(取代醒心橋)","行政區":"三峽區","流域":"淡水河流域","河流":"三峽河","檢驗時間":"2026-03-02","溶氧量(DO)":"10.1（正常）","生化需氧量(BOD5)":"1.0（正常）","懸浮固體(SS)":"2.4（正常）","氨氮(NH3-N)":"0.04（正常）","河川污染指數(RPI)":"1（未／稍受污染）","河流污染程度":"未(稍)受污染"}},{"type":"Feature","geometry":{"type":"Point","coordinates":[121.4046111,24.9682222]},"properties":{"siteid":1039,"監測站名稱":"柑園二橋（取代柑園大橋）","行政區":"樹林區","流域":"淡水河流域","河流":"大漢溪","檢驗時間":"2026-03-02","溶氧量(DO)":"7.0（正常）","生化需氧量(BOD5)":"3.5（正常）","懸浮固體(SS)":"13.2（正常）","氨氮(NH3-N)":"1.62（氨氮偏高）","河川污染指數(RPI)":"2.75（輕度污染）","河流污染程度":"輕度污染"}},{"type":"Feature","geometry":{"type":"Point","coordinates":[121.82867,25.0881539]},"properties":{"siteid":1038,"監測站名稱":"侯硐車站","行政區":"瑞芳區","流域":"淡水河流域","河流":"基隆河","檢驗時間":"2026-03-02","溶氧量(DO)":"9.2（正常）","生化需氧量(BOD5)":"2.3（正常）","懸浮固體(SS)":"2.0（正常）","氨氮(NH3-N)":"0.04（正常）","河川污染指數(RPI)":"1（未／稍受污染）","河流污染程度":"未(稍)受污染"}},{"type":"Feature","geometry":{"type":"Point","coordinates":[121.582273,25.179209]},"properties":{"siteid":1031,"監測站名稱":"上磺溪橋","行政區":"金山區","流域":"磺溪流域","河流":"磺溪","檢驗時間":"2026-03-02","溶氧量(DO)":"8.9（正常）","生化需氧量(BOD5)":"<1.0（正常）","懸浮固體(SS)":"2.7（正常）","氨氮(NH3-N)":"0.05（正常）","河川污染指數(RPI)":"1（未／稍受污染）","河流污染程度":"未(稍)受污染"}},{"type":"Feature","geometry":{"type":"Point","coordinates":[121.630624,25.226953]},"properties":{"siteid":1032,"監測站名稱":"磺溪橋","行政區":"金山區","流域":"磺溪流域","河流":"磺溪","檢驗時間":"2026-03-02","溶氧量(DO)":"8.9（正常）","生化需氧量(BOD5)":"9.1（生化需氧量偏高）","懸浮固體(SS)":"9.2（正常）","氨氮(NH3-N)":"0.10（正常）","河川污染指數(RPI)":"2.25（輕度污染）","河流污染程度":"輕度污染"}},{"type":"Feature","geometry":{"type":"Point","coordinates":[121.8199167,25.0583333]},"properties":{"siteid":1037,"監測站名稱":"三貂嶺平溪線鐵道（取代貂嶺車站）","行政區":"瑞芳區","流域":"淡水河流域","河流":"基隆河","檢驗時間":"2026-03-02","溶氧量(DO)":"8.8（正常）","生化需氧量(BOD5)":"1.4（正常）","懸浮固體(SS)":"3.5（正常）","氨氮(NH3-N)":"0.06（正常）","河川污染指數(RPI)":"1（未／稍受污染）","河流污染程度":"未(稍)受污染"}},{"type":"Feature","geometry":{"type":"Point","coordinates":[121.4572369,25.1248169]},"properties":{"siteid":1003,"監測站名稱":"關渡大橋","行政區":"八里區","流域":"淡水河流域","河流":"淡水河本流","檢驗時間":"2026-03-03","溶氧量(DO)":"4.1（溶氧偏低）","生化需氧量(BOD5)":"1.2（正常）","懸浮固體(SS)":"29.3（正常）","氨氮(NH3-N)":"2.46（氨氮偏高）","河川污染指數(RPI)":"4（中度污染）","河流污染程度":"中度污染"}},{"type":"Feature","geometry":{"type":"Point","coordinates":[121.422745,25.1709011]},"properties":{"siteid":1004,"監測站名稱":"淡水河口","行政區":"淡水區","流域":"淡水河流域","河流":"淡水河本流","檢驗時間":"2026-03-03","溶氧量(DO)":"4.7（正常）","生化需氧量(BOD5)":"<1.0（正常）","懸浮固體(SS)":"81.2（懸浮固體偏高）","氨氮(NH3-N)":"0.89（正常）","河川污染指數(RPI)":"3.25（中度污染）","河流污染程度":"中度污染"}},{"type":"Feature","geometry":{"type":"Point","coordinates":[121.64198,25.0107769]},"properties":{"siteid":1274,"監測站名稱":"楓林橋","行政區":"石碇區","流域":"淡水河流域","河流":"景美溪","檢驗時間":"2026-03-03","溶氧量(DO)":"9.5（正常）","生化需氧量(BOD5)":"1.4（正常）","懸浮固體(SS)":"4.2（正常）","氨氮(NH3-N)":"0.06（正常）","河川污染指數(RPI)":"1（未／稍受污染）","河流污染程度":"未(稍)受污染"}},{"type":"Feature","geometry":{"type":"Point","coordinates":[121.5142331,25.0213069]},"properties":{"siteid":1019,"監測站名稱":"中正橋","行政區":"永和區","流域":"淡水河流域","河流":"新店溪","檢驗時間":"2026-03-03","溶氧量(DO)":"2.0（溶氧偏低）","生化需氧量(BOD5)":"2.3（正常）","懸浮固體(SS)":"12.6（正常）","氨氮(NH3-N)":"1.64（氨氮偏高）","河川污染指數(RPI)":"3.5（中度污染）","河流污染程度":"中度污染"}},{"type":"Feature","geometry":{"type":"Point","coordinates":[121.49627,25.0102131]},"properties":{"siteid":1020,"監測站名稱":"華中大橋","行政區":"中和區","流域":"淡水河流域","河流":"新店溪","檢驗時間":"2026-03-03","溶氧量(DO)":"1.7（溶氧嚴重偏低）","生化需氧量(BOD5)":"2.9（正常）","懸浮固體(SS)":"27.5（正常）","氨氮(NH3-N)":"2.07（氨氮偏高）","河川污染指數(RPI)":"5（中度污染）","河流污染程度":"中度污染"}},{"type":"Feature","geometry":{"type":"Point","coordinates":[121.5458333,24.9429167]},"properties":{"siteid":1272,"監測站名稱":"青潭堰","行政區":"新店區","流域":"淡水河流域","河流":"新店溪","檢驗時間":"2026-03-03","溶氧量(DO)":"6.7（正常）","生化需氧量(BOD5)":"<1.0（正常）","懸浮固體(SS)":"1.2（正常）","氨氮(NH3-N)":"0.05（正常）","河川污染指數(RPI)":"1（未／稍受污染）","河流污染程度":"未(稍)受污染"}},{"type":"Feature","geometry":{"type":"Point","coordinates":[121.483509,25.034898]},"properties":{"siteid":1021,"監測站名稱":"華江大橋","行政區":"板橋區","流域":"淡水河流域","河流":"新店溪","檢驗時間":"2026-03-03","溶氧量(DO)":"0.9（溶氧嚴重偏低）","生化需氧量(BOD5)":"3.6（正常）","懸浮固體(SS)":"25.4（正常）","氨氮(NH3-N)":"3.20（氨氮嚴重偏高）","河川污染指數(RPI)":"6.5（嚴重污染）","河流污染程度":"嚴重污染"}},{"type":"Feature","geometry":{"type":"Point","coordinates":[121.6214397,25.0012058]},"properties":{"siteid":1022,"監測站名稱":"昇高大橋(取代深坑中正橋)","行政區":"深坑區","流域":"淡水河流域","河流":"景美溪","檢驗時間":"2026-03-03","溶氧量(DO)":"7.5（正常）","生化需氧量(BOD5)":"3.8（正常）","懸浮固體(SS)":"6.8（正常）","氨氮(NH3-N)":"0.55（正常）","河川污染指數(RPI)":"2（未／稍受污染）","河流污染程度":"未(稍)受污染"}},{"type":"Feature","geometry":{"type":"Point","coordinates":[121.5532681,24.9792661]},"properties":{"siteid":1024,"監測站名稱":"寶橋","行政區":"新店區","流域":"淡水河流域","河流":"景美溪","檢驗時間":"2026-03-03","溶氧量(DO)":"5.1（正常）","生化需氧量(BOD5)":"2.0（正常）","懸浮固體(SS)":"7.0（正常）","氨氮(NH3-N)":"0.62（正常）","河川污染指數(RPI)":"2（未／稍受污染）","河流污染程度":"未(稍)受污染"}},{"type":"Feature","geometry":{"type":"Point","coordinates":[121.834769,25.0317969]},"properties":{"siteid":1034,"監測站名稱":"新寮子橋（原為新寮大橋）","行政區":"雙溪區","流域":"雙溪流域","河流":"雙溪","檢驗時間":"2026-03-03","溶氧量(DO)":"8.0（正常）","生化需氧量(BOD5)":"10.2（生化需氧量偏高）","懸浮固體(SS)":"4.4（正常）","氨氮(NH3-N)":"0.14（正常）","河川污染指數(RPI)":"2.25（輕度污染）","河流污染程度":"輕度污染"}},{"type":"Feature","geometry":{"type":"Point","coordinates":[121.5285731,24.988715]},"properties":{"siteid":1273,"監測站名稱":"秀朗橋","行政區":"中和區","流域":"淡水河流域","河流":"新店溪","檢驗時間":"2026-03-03","溶氧量(DO)":"5.8（正常）","生化需氧量(BOD5)":"3.1（正常）","懸浮固體(SS)":"9.0（正常）","氨氮(NH3-N)":"1.35（氨氮偏高）","河川污染指數(RPI)":"3.25（中度污染）","河流污染程度":"中度污染"}},{"type":"Feature","geometry":{"type":"Point","coordinates":[121.9095289,25.02071]},"properties":{"siteid":1035,"監測站名稱":"貢寮大橋","行政區":"貢寮區","流域":"雙溪流域","河流":"雙溪","檢驗時間":"2026-03-03","溶氧量(DO)":"9.1（正常）","生化需氧量(BOD5)":"21.2（生化需氧量嚴重偏高）","懸浮固體(SS)":"4.0（正常）","氨氮(NH3-N)":"0.07（正常）","河川污染指數(RPI)":"3.25（中度污染）","河流污染程度":"中度污染"}},{"type":"Feature","geometry":{"type":"Point","coordinates":[121.547495,24.9123311]},"properties":{"siteid":1271,"監測站名稱":"廣興橋(取代屈尺堰)","行政區":"新店區","流域":"淡水河流域","河流":"新店溪","檢驗時間":"2026-03-03","溶氧量(DO)":"8.5（正常）","生化需氧量(BOD5)":"2.1（正常）","懸浮固體(SS)":"1.8（正常）","氨氮(NH3-N)":"0.06（正常）","河川污染指數(RPI)":"1（未／稍受污染）","河流污染程度":"未(稍)受污染"}},{"type":"Feature","geometry":{"type":"Point","coordinates":[121.5357972,24.9563194]},"properties":{"siteid":1018,"監測站名稱":"碧潭吊橋(取代碧潭大橋)","行政區":"新店區","流域":"淡水河流域","河流":"新店溪","檢驗時間":"2026-03-03","溶氧量(DO)":"11.1（正常）","生化需氧量(BOD5)":"2.9（正常）","懸浮固體(SS)":"12.4（正常）","氨氮(NH3-N)":"0.14（正常）","河川污染指數(RPI)":"1（未／稍受污染）","河流污染程度":"未(稍)受污染"}},{"type":"Feature","geometry":{"type":"Point","coordinates":[121.533135,24.92541]},"properties":{"siteid":1347,"監測站名稱":"直潭堰取水口","行政區":"新店區","流域":"淡水河流域","河流":"新店溪","檢驗時間":"2026-03-03","溶氧量(DO)":"8.8（正常）","生化需氧量(BOD5)":"<1.0（正常）","懸浮固體(SS)":"5.0（正常）","氨氮(NH3-N)":"0.04（正常）","河川污染指數(RPI)":"1（未／稍受污染）","河流污染程度":"未(稍)受污染"}},{"type":"Feature","geometry":{"type":"Point","coordinates":[121.6120211,25.063235]},"properties":{"siteid":1269,"監測站名稱":"南湖大橋","行政區":"南港區","流域":"淡水河流域","河流":"基隆河","檢驗時間":"2026-03-02","溶氧量(DO)":"3.2（溶氧偏低）","生化需氧量(BOD5)":"4.0（正常）","懸浮固體(SS)":"6.6（正常）","氨氮(NH3-N)":"1.00（氨氮偏高）","河川污染指數(RPI)":"4（中度污染）","河流污染程度":"中度污染"}},{"type":"Feature","geometry":{"type":"Point","coordinates":[121.5251139,25.0738869]},"properties":{"siteid":1280,"監測站名稱":"中山橋","行政區":"士林區","流域":"淡水河流域","河流":"基隆河","檢驗時間":"2026-03-02","溶氧量(DO)":"8.6（正常）","生化需氧量(BOD5)":"5.0（生化需氧量偏高）","懸浮固體(SS)":"13.3（正常）","氨氮(NH3-N)":"1.34（氨氮偏高）","河川污染指數(RPI)":"3.5（中度污染）","河流污染程度":"中度污染"}},{"type":"Feature","geometry":{"type":"Point","coordinates":[121.5695161,25.0634669]},"properties":{"siteid":1010,"監測站名稱":"民權大橋","行政區":"松山區","流域":"淡水河流域","河流":"基隆河","檢驗時間":"2026-03-02","溶氧量(DO)":"1.9（溶氧嚴重偏低）","生化需氧量(BOD5)":"3.2（正常）","懸浮固體(SS)":"7.6（正常）","氨氮(NH3-N)":"1.11（氨氮偏高）","河川污染指數(RPI)":"5（中度污染）","河流污染程度":"中度污染"}},{"type":"Feature","geometry":{"type":"Point","coordinates":[121.583295,25.0536689]},"properties":{"siteid":1270,"監測站名稱":"成美橋","行政區":"內湖區","流域":"淡水河流域","河流":"基隆河","檢驗時間":"2026-03-02","溶氧量(DO)":"2.7（溶氧偏低）","生化需氧量(BOD5)":"30.1（生化需氧量嚴重偏高）","懸浮固體(SS)":"6.8（正常）","氨氮(NH3-N)":"1.20（氨氮偏高）","河川污染指數(RPI)":"5.75（中度污染）","河流污染程度":"中度污染"}},{"type":"Feature","geometry":{"type":"Point","coordinates":[121.5444539,25.0764581]},"properties":{"siteid":1011,"監測站名稱":"大直橋","行政區":"中山區","流域":"淡水河流域","河流":"基隆河","檢驗時間":"2026-03-02","溶氧量(DO)":"2.0（溶氧偏低）","生化需氧量(BOD5)":"2.7（正常）","懸浮固體(SS)":"8.6（正常）","氨氮(NH3-N)":"1.26（氨氮偏高）","河川污染指數(RPI)":"3.5（中度污染）","河流污染程度":"中度污染"}},{"type":"Feature","geometry":{"type":"Point","coordinates":[121.5137258,25.088435]},"properties":{"siteid":1012,"監測站名稱":"百齡橋","行政區":"士林區","流域":"淡水河流域","河流":"基隆河","檢驗時間":"2026-03-02","溶氧量(DO)":"8.5（正常）","生化需氧量(BOD5)":"4.4（正常）","懸浮固體(SS)":"12.6（正常）","氨氮(NH3-N)":"1.51（氨氮偏高）","河川污染指數(RPI)":"2.75（輕度污染）","河流污染程度":"輕度污染"}},{"type":"Feature","geometry":{"type":"Point","coordinates":[121.5027969,25.084174]},"properties":{"siteid":1002,"監測站名稱":"重陽大橋","行政區":"士林區","流域":"淡水河流域","河流":"淡水河本流","檢驗時間":"2026-03-03","溶氧量(DO)":"2.7（溶氧偏低）","生化需氧量(BOD5)":"2.2（正常）","懸浮固體(SS)":"57.3（懸浮固體偏高）","氨氮(NH3-N)":"3.58（氨氮嚴重偏高）","河川污染指數(RPI)":"5.75（中度污染）","河流污染程度":"中度污染"}},{"type":"Feature","geometry":{"type":"Point","coordinates":[121.500209,25.051144]},"properties":{"siteid":1001,"監測站名稱":"忠孝大橋","行政區":"中正區","流域":"淡水河流域","河流":"淡水河本流","檢驗時間":"2026-03-03","溶氧量(DO)":"1.3（溶氧嚴重偏低）","生化需氧量(BOD5)":"3.6（正常）","懸浮固體(SS)":"39.8（正常）","氨氮(NH3-N)":"3.74（氨氮嚴重偏高）","河川污染指數(RPI)":"6.5（嚴重污染）","河流污染程度":"嚴重污染"}},{"type":"Feature","geometry":{"type":"Point","coordinates":[121.572045,24.9920531]},"properties":{"siteid":1023,"監測站名稱":"萬壽橋","行政區":"文山區","流域":"淡水河流域","河流":"景美溪","檢驗時間":"2026-03-03","溶氧量(DO)":"5.3（正常）","生化需氧量(BOD5)":"5.5（生化需氧量偏高）","懸浮固體(SS)":"7.7（正常）","氨氮(NH3-N)":"1.01（氨氮偏高）","河川污染指數(RPI)":"4（中度污染）","河流污染程度":"中度污染"}},{"type":"Feature","geometry":{"type":"Point","coordinates":[121.6120211,25.063235]},"properties":{"siteid":1269,"監測站名稱":"南湖大橋","行政區":"南港區","流域":"淡水河流域","河流":"基隆河","檢驗時間":"2026-03-02","溶氧量(DO)":"3.2（溶氧偏低）","生化需氧量(BOD5)":"4.0（正常）","懸浮固體(SS)":"6.6（正常）","氨氮(NH3-N)":"1.00（氨氮偏高）","河川污染指數(RPI)":"4（中度污染）","河流污染程度":"中度污染"}},{"type":"Feature","geometry":{"type":"Point","coordinates":[121.5251139,25.0738869]},"properties":{"siteid":1280,"監測站名稱":"中山橋","行政區":"士林區","流域":"淡水河流域","河流":"基隆河","檢驗時間":"2026-03-02","溶氧量(DO)":"8.6（正常）","生化需氧量(BOD5)":"5.0（生化需氧量偏高）","懸浮固體(SS)":"13.3（正常）","氨氮(NH3-N)":"1.34（氨氮偏高）","河川污染指數(RPI)":"3.5（中度污染）","河流污染程度":"中度污染"}},{"type":"Feature","geometry":{"type":"Point","coordinates":[121.5695161,25.0634669]},"properties":{"siteid":1010,"監測站名稱":"民權大橋","行政區":"松山區","流域":"淡水河流域","河流":"基隆河","檢驗時間":"2026-03-02","溶氧量(DO)":"1.9（溶氧嚴重偏低）","生化需氧量(BOD5)":"3.2（正常）","懸浮固體(SS)":"7.6（正常）","氨氮(NH3-N)":"1.11（氨氮偏高）","河川污染指數(RPI)":"5（中度污染）","河流污染程度":"中度污染"}},{"type":"Feature","geometry":{"type":"Point","coordinates":[121.583295,25.0536689]},"properties":{"siteid":1270,"監測站名稱":"成美橋","行政區":"內湖區","流域":"淡水河流域","河流":"基隆河","檢驗時間":"2026-03-02","溶氧量(DO)":"2.7（溶氧偏低）","生化需氧量(BOD5)":"30.1（生化需氧量嚴重偏高）","懸浮固體(SS)":"6.8（正常）","氨氮(NH3-N)":"1.20（氨氮偏高）","河川污染指數(RPI)":"5.75（中度污染）","河流污染程度":"中度污染"}},{"type":"Feature","geometry":{"type":"Point","coordinates":[121.5444539,25.0764581]},"properties":{"siteid":1011,"監測站名稱":"大直橋","行政區":"中山區","流域":"淡水河流域","河流":"基隆河","檢驗時間":"2026-03-02","溶氧量(DO)":"2.0（溶氧偏低）","生化需氧量(BOD5)":"2.7（正常）","懸浮固體(SS)":"8.6（正常）","氨氮(NH3-N)":"1.26（氨氮偏高）","河川污染指數(RPI)":"3.5（中度污染）","河流污染程度":"中度污染"}},{"type":"Feature","geometry":{"type":"Point","coordinates":[121.5137258,25.088435]},"properties":{"siteid":1012,"監測站名稱":"百齡橋","行政區":"士林區","流域":"淡水河流域","河流":"基隆河","檢驗時間":"2026-03-02","溶氧量(DO)":"8.5（正常）","生化需氧量(BOD5)":"4.4（正常）","懸浮固體(SS)":"12.6（正常）","氨氮(NH3-N)":"1.51（氨氮偏高）","河川污染指數(RPI)":"2.75（輕度污染）","河流污染程度":"輕度污染"}},{"type":"Feature","geometry":{"type":"Point","coordinates":[121.5027969,25.084174]},"properties":{"siteid":1002,"監測站名稱":"重陽大橋","行政區":"士林區","流域":"淡水河流域","河流":"淡水河本流","檢驗時間":"2026-03-03","溶氧量(DO)":"2.7（溶氧偏低）","生化需氧量(BOD5)":"2.2（正常）","懸浮固體(SS)":"57.3（懸浮固體偏高）","氨氮(NH3-N)":"3.58（氨氮嚴重偏高）","河川污染指數(RPI)":"5.75（中度污染）","河流污染程度":"中度污染"}},{"type":"Feature","geometry":{"type":"Point","coordinates":[121.500209,25.051144]},"properties":{"siteid":1001,"監測站名稱":"忠孝大橋","行政區":"中正區","流域":"淡水河流域","河流":"淡水河本流","檢驗時間":"2026-03-03","溶氧量(DO)":"1.3（溶氧嚴重偏低）","生化需氧量(BOD5)":"3.6（正常）","懸浮固體(SS)":"39.8（正常）","氨氮(NH3-N)":"3.74（氨氮嚴重偏高）","河川污染指數(RPI)":"6.5（嚴重污染）","河流污染程度":"嚴重污染"}},{"type":"Feature","geometry":{"type":"Point","coordinates":[121.572045,24.9920531]},"properties":{"siteid":1023,"監測站名稱":"萬壽橋","行政區":"文山區","流域":"淡水河流域","河流":"景美溪","檢驗時間":"2026-03-03","溶氧量(DO)":"5.3（正常）","生化需氧量(BOD5)":"5.5（生化需氧量偏高）","懸浮固體(SS)":"7.7（正常）","氨氮(NH3-N)":"1.01（氨氮偏高）","河川污染指數(RPI)":"4（中度污染）","河流污染程度":"中度污染"}}]}