{"type":"FeatureCollection","features":[{"type":"Feature","geometry":{"type":"Point","coordinates":[121.6120211,25.063235]},"properties":{"siteid":1269,"監測站名稱":"南湖大橋","行政區":"南港區","流域":"淡水河流域","河流":"基隆河","檢驗時間":"2026-03-02","溶氧量(DO)":"3.2（溶氧偏低）","生化需氧量(BOD5)":"4.0（正常）","懸浮固體(SS)":"6.6（正常）","氨氮(NH3-N)":"1.00（氨氮偏高）","河川污染指數(RPI)":"4（中度污染）","河流污染程度":"中度污染"}},{"type":"Feature","geometry":{"type":"Point","coordinates":[121.5251139,25.0738869]},"properties":{"siteid":1280,"監測站名稱":"中山橋","行政區":"士林區","流域":"淡水河流域","河流":"基隆河","檢驗時間":"2026-03-02","溶氧量(DO)":"8.6（正常）","生化需氧量(BOD5)":"5.0（生化需氧量偏高）","懸浮固體(SS)":"13.3（正常）","氨氮(NH3-N)":"1.34（氨氮偏高）","河川污染指數(RPI)":"3.5（中度污染）","河流污染程度":"中度污染"}},{"type":"Feature","geometry":{"type":"Point","coordinates":[121.5695161,25.0634669]},"properties":{"siteid":1010,"監測站名稱":"民權大橋","行政區":"松山區","流域":"淡水河流域","河流":"基隆河","檢驗時間":"2026-03-02","溶氧量(DO)":"1.9（溶氧嚴重偏低）","生化需氧量(BOD5)":"3.2（正常）","懸浮固體(SS)":"7.6（正常）","氨氮(NH3-N)":"1.11（氨氮偏高）","河川污染指數(RPI)":"5（中度污染）","河流污染程度":"中度污染"}},{"type":"Feature","geometry":{"type":"Point","coordinates":[121.583295,25.0536689]},"properties":{"siteid":1270,"監測站名稱":"成美橋","行政區":"內湖區","流域":"淡水河流域","河流":"基隆河","檢驗時間":"2026-03-02","溶氧量(DO)":"2.7（溶氧偏低）","生化需氧量(BOD5)":"30.1（生化需氧量嚴重偏高）","懸浮固體(SS)":"6.8（正常）","氨氮(NH3-N)":"1.20（氨氮偏高）","河川污染指數(RPI)":"5.75（中度污染）","河流污染程度":"中度污染"}},{"type":"Feature","geometry":{"type":"Point","coordinates":[121.5444539,25.0764581]},"properties":{"siteid":1011,"監測站名稱":"大直橋","行政區":"中山區","流域":"淡水河流域","河流":"基隆河","檢驗時間":"2026-03-02","溶氧量(DO)":"2.0（溶氧偏低）","生化需氧量(BOD5)":"2.7（正常）","懸浮固體(SS)":"8.6（正常）","氨氮(NH3-N)":"1.26（氨氮偏高）","河川污染指數(RPI)":"3.5（中度污染）","河流污染程度":"中度污染"}},{"type":"Feature","geometry":{"type":"Point","coordinates":[121.5137258,25.088435]},"properties":{"siteid":1012,"監測站名稱":"百齡橋","行政區":"士林區","流域":"淡水河流域","河流":"基隆河","檢驗時間":"2026-03-02","溶氧量(DO)":"8.5（正常）","生化需氧量(BOD5)":"4.4（正常）","懸浮固體(SS)":"12.6（正常）","氨氮(NH3-N)":"1.51（氨氮偏高）","河川污染指數(RPI)":"2.75（輕度污染）","河流污染程度":"輕度污染"}},{"type":"Feature","geometry":{"type":"Point","coordinates":[121.5027969,25.084174]},"properties":{"siteid":1002,"監測站名稱":"重陽大橋","行政區":"士林區","流域":"淡水河流域","河流":"淡水河本流","檢驗時間":"2026-03-03","溶氧量(DO)":"2.7（溶氧偏低）","生化需氧量(BOD5)":"2.2（正常）","懸浮固體(SS)":"57.3（懸浮固體偏高）","氨氮(NH3-N)":"3.58（氨氮嚴重偏高）","河川污染指數(RPI)":"5.75（中度污染）","河流污染程度":"中度污染"}},{"type":"Feature","geometry":{"type":"Point","coordinates":[121.500209,25.051144]},"properties":{"siteid":1001,"監測站名稱":"忠孝大橋","行政區":"中正區","流域":"淡水河流域","河流":"淡水河本流","檢驗時間":"2026-03-03","溶氧量(DO)":"1.3（溶氧嚴重偏低）","生化需氧量(BOD5)":"3.6（正常）","懸浮固體(SS)":"39.8（正常）","氨氮(NH3-N)":"3.74（氨氮嚴重偏高）","河川污染指數(RPI)":"6.5（嚴重污染）","河流污染程度":"嚴重污染"}},{"type":"Feature","geometry":{"type":"Point","coordinates":[121.572045,24.9920531]},"properties":{"siteid":1023,"監測站名稱":"萬壽橋","行政區":"文山區","流域":"淡水河流域","河流":"景美溪","檢驗時間":"2026-03-03","溶氧量(DO)":"5.3（正常）","生化需氧量(BOD5)":"5.5（生化需氧量偏高）","懸浮固體(SS)":"7.7（正常）","氨氮(NH3-N)":"1.01（氨氮偏高）","河川污染指數(RPI)":"4（中度污染）","河流污染程度":"中度污染"}}]}